ID,STATE,COUNTY,PAYAM,FACIL_NAME,FACIL_NAME2,LATITUDE,LONGITUDE,Q_CODE,HF_CODE,HF_TYPE,FUNCTIONAL Status,Source
178,Central Equatoria,Juba,Juba Town,AIC BULUK,Aic Buluk,4.847180,31.593550,92093,15,PHCU,Functional,
184,Central Equatoria,Juba,Lokiliri,ARU HEALTH UNIT,Aru Health Unit,4.363540,31.984600,92235,15,PHCU,Functional,
189,Central Equatoria,Juba,Juba Town,BELPHAM MEDICAL HQ,Belpham Medical Hq,4.818900,31.577120,92206,14,PHCC,,
191,Central Equatoria,Juba,,BILINANG PHCU,Bilinang PHCU,4.854260,31.791020,92228,15,PHCU,,
192,Central Equatoria,Juba,Northern Bari,BILINGI PHCU,Bilingi PHCU,4.903310,31.379850,92201,15,PHCU,Non Functional,
196,Central Equatoria,Juba,Northern Bari,DARI PHCU,Dari PHCU,5.166350,31.586550,92267,15,PHCU,Non Functional,
201,Central Equatoria,Juba,Juba Town,EGYPTIAN CLINIC,Egyptian Clinic,4.856580,31.609060,92208,17,Specialized Hospital,,
205,Central Equatoria,Juba,Ganji,GANJI PHCC,Ganji PHCC,4.454250,31.209770,92013,15,PHCU,Functional,
209,Central Equatoria,Juba,Rokon,GIMORO PHCU,Gimoro PHCU,5.166040,31.141760,92230,15,PHCU,Functional,
216,Central Equatoria,Juba,Juba Town,GOOD SHEPERD CLINIC,Good Sheperd Clinic,4.858960,31.608850,92205,14,PHCC,,
217,Central Equatoria,Juba,Munuki,GUDELE PHCU,Gudele PHCU,4.863260,31.567650,92210,15,PHCU,Functional,
218,Central Equatoria,Juba,Dolo,GUGUDU PRIMARY,Gugudu Primary,5.111373,31.374950,92090,15,PHCU,Functional,
219,Central Equatoria,Juba,Rejaf,GUMBO PHCU,Gumbo PHCU,4.814900,31.622670,92256,15,PHCU,Functional,
220,Central Equatoria,Juba,Tijor,GURULOTOGU PHCU,Gurulotogu PHCU,5.198380,31.199300,92248,15,PHCU,Functional,
221,Central Equatoria,Juba,Lirya,ILYANGIRI PHCU,Ilyangiri PHCU,4.676910,32.035560,92213,15,PHCU,Functional,
222,Central Equatoria,Juba,Juba Town,INTERNATIONAL HOSP Juba,International Hosp Juba,4.835420,31.615190,92089,16,Private Clinic,,
224,Central Equatoria,Juba,Lokiliri,JALITE GIKOKUE PHCU,Jalite Gikokue PHCU,4.689390,31.857530,92108,15,PHCU,Functional,
230,Central Equatoria,Juba,Juba Town,JUBA CENTRAL PRISON,Juba Central Prison,4.850170,31.617890,92092,96,Other,,
231,Central Equatoria,Juba,Munuki,JUBA GUREYI PHCU,Juba Gureyi PHCU,4.866670,31.518510,92105,15,PHCU,,
232,Central Equatoria,Juba,Juba Town,JUBA MILITARY HOSPITAL,Juba Military Hospital,4.831430,31.582270,92216,96,Other,Functional,
233,Central Equatoria,Juba,Juba Town,JUBA POLICE HOSPITAL,Juba Police Hospital,4.851370,31.585540,92232,12,State Hospital,Functional,
234,Central Equatoria,Juba,Juba Town,JUBA PRISON H.CENTRE,Juba Prison H.Centre,4.848550,31.613210,92223,14,PHCC,,
235,Central Equatoria,Juba,Juba Town,JUBA TEACHING HOSPT,Juba Teaching Hospt,4.850740,31.609140,92269,11,Teaching Hospital,Functional,
236,Central Equatoria,Juba,Kator,JUBA UNIVERSITY C.,Juba University C.,4.840380,31.591320,92225,17,Specialized Hospital,,
238,Central Equatoria,Juba,Ganji,KAGWADA PHCU,Kagwada PHCU,4.454230,31.209770,92264,15,PHCU,Functional,
243,Central Equatoria,Juba,Wonduruba,KATIGIRI PHCC,Katigiri PHCC,4.893490,30.831710,92260,14,PHCC,Functional,
244,Central Equatoria,Juba,Kator,KATOR HEALTH CENTRE,Kator Health Centre,4.831080,31.596620,92207,14,PHCC,Functional,
248,Central Equatoria,Juba,Dolo,KERA PHCC,Kera PHCC,4.893030,30.833910,92221,14,PHCC,Functional,
274,Central Equatoria,Juba,Lokiliri,KUBI PHCU,Kubi PHCU,4.390240,31.922670,92262,15,PHCU,,
275,Central Equatoria,Juba,Dolo,KUDA H/C,Kuda H/C,4.851120,31.585310,92209,14,PHCC,Functional,
279,Central Equatoria,Juba,Northern Bari,KWEREJIK LURI PHCU,Kwerejik Luri PHCU,4.851410,31.585500,92214,15,PHCU,,
283,Central Equatoria,Juba,Ganji,LANGI PHCU,Langi PHCU,4.363410,31.327240,92088,15,PHCU,Functional,
288,Central Equatoria,Juba,Tijor,LIGI,Ligi,5.092180,31.301610,92249,15,PHCU,Functional,
293,Central Equatoria,Juba,Lirya,LIRYA HEALTH CENTRE,Lirya Health Centre,4.385630,32.046420,92257,14,PHCC,,
295,Central Equatoria,Juba,Lobonok,LOBONOK PHCU,Lobonok PHCU,4.177060,31.372490,92003,14,PHCC,Functional,
297,Central Equatoria,Juba,,Logo (Tibari) PHCU,Logo (Tibari) PHCU,0.000000,0.000000,92002,15,PHCU,Functional,
305,Central Equatoria,Juba,Kator,LOLOGO PHCC,Lologo PHCC,4.817290,31.595640,92215,14,PHCC,Functional,
314,Central Equatoria,Juba,Wonduruba,LOTEMBA PHCU,Lotemba PHCU,4.738750,30.935360,92231,15,PHCU,Functional,
318,Central Equatoria,Juba,Northern Bari,LURI ROKWE PHCU,Luri Rokwe PHCU,4.898220,31.595590,92095,15,PHCU,Functional,
319,Central Equatoria,Juba,Juba Town,LURI SOMBA PHCU,Luri Somba PHCU,4.887280,31.403170,92101,15,PHCU,Functional,
320,Central Equatoria,Juba,Dolo,MADIKOLOK PHCU,Madikolok PHCU,4.779470,30.921000,92266,15,PHCU,,
322,Central Equatoria,Juba,Kator,MAHAD PRIMARY SCH.,Mahad Primary Sch.,4.822250,31.596630,92265,14,PHCC,Functional,
324,Central Equatoria,Juba,Mangala,MAKARO PHCU,Makaro PHCU,5.079830,31.449860,92099,15,PHCU,,
326,Central Equatoria,Juba,Wonduruba,MALAKAN PHCU,Malakan PHCU,4.584280,31.026070,92229,15,PHCU,,
327,Central Equatoria,Juba,Kator,MALAKIA HCC,Malakia HCC,4.837630,31.603610,92253,15,PHCU,Functional,
330,Central Equatoria,Juba,Wonduruba,MANKARO,Mankaro,4.601940,30.960910,92252,15,PHCU,Functional,
333,Central Equatoria,Juba,Wonduruba,MENGELE PHCU,Mengele PHCU,4.636710,30.940560,92094,15,PHCU,Functional,
339,Central Equatoria,Juba,Rokon,MIRIKIYO PHCU,Mirikiyo PHCU,4.845460,31.580170,92098,16,Private Clinic,,
341,Central Equatoria,Juba,Northern Bari,MOBIL PHCU,Mobil PHCU,4.959240,31.634140,92222,15,PHCU,Non Functional,
343,Central Equatoria,Juba,Wonduruba,MOJE PHCU,Moje PHCU,4.460510,31.026750,92227,15,PHCU,Functional,
347,Central Equatoria,Juba,Mangala,MONGOLLA PHCC,Mongolla PHCC,5.196570,31.768720,92254,14,PHCC,Functional,
348,Central Equatoria,Juba,Munuki,MOROBO CLINIC (PHCU),Morobo Clinic (PHCU),4.846170,31.581600,92083,15,PHCU,,
350,Central Equatoria,Juba,Lobonok,MORSACK PHCU,Morsack PHCU,4.232560,31.356090,92001,15,PHCU,Functional,
352,Central Equatoria,Juba,Munuki,MUGIRI PHCC,Mugiri PHCC,4.888390,31.855320,92085,14,PHCC,,
357,Central Equatoria,Juba,Munuki,MUNUKI HEALTH CENTER,Munuki Health Center,4.863480,31.579330,92012,14,PHCC,Functional,
359,Central Equatoria,Juba,Juba Town,NEW SITE CLINIC,New Site Clinic,4.897330,31.589350,92102,14,PHCC,,
360,Central Equatoria,Juba,Ngangala,NGANGALA,Ngangala,4.704580,31.920320,92104,15,PHCU,Functional,
361,Central Equatoria,Juba,Lirya,NGULERE PHCU,Ngulere PHCU,4.691970,31.961880,92110,15,PHCU,Functional,
363,Central Equatoria,Juba,Northern Bari,NYAMIN PHCU,Nyamin PHCU,4.931290,31.339600,92107,15,PHCU,Functional,
366,Central Equatoria,Juba,Lobonok,NYARJUW PHCU,Nyarjuw PHCU,4.266810,31.352860,92096,15,PHCU,,
367,Central Equatoria,Juba,Munuki,NYOKURON HEALTH C,Nyokuron Health C,4.846020,31.579080,92258,14,PHCC,Functional,
368,Central Equatoria,Juba,Dolo,Nyomori PHCU,Nyomori PHCU,4.240260,30.938110,92100,15,PHCU,,
371,Central Equatoria,Juba,Dolo,NYORO,Nyoro,4.840260,30.938110,92084,15,PHCU,,
374,Central Equatoria,Juba,Lobonok,PAGER MILITARY PHCU,Pager Military PHCU,4.201970,31.634420,92109,15,PHCU,Functional,
379,Central Equatoria,Juba,Rokon,PERISA PHCU,Perisa PHCU,5.176800,31.033380,92211,15,PHCU,,
382,Central Equatoria,Juba,Rejaf,RAJAF PHCU,Rajaf PHCU,6.798210,33.132640,92255,15,PHCU,Functional,
387,Central Equatoria,Juba,Wonduruba,ROJA PHCU,Roja PHCU,4.815540,30.880080,92086,15,PHCU,Functional,
388,Central Equatoria,Juba,Rokon,ROKON PHCC,Rokon PHCC,5.130370,30.941640,92261,14,PHCC,Functional,
392,Central Equatoria,Juba,Kator,SACRET HEART PHCC,Sacret Heart PHCC,6.798210,33.132640,92103,14,PHCC,,
395,Central Equatoria,Juba,Rokon,SERENG PHCU,Sereng PHCU,4.851100,31.585330,92224,15,PHCU,Functional,
396,Central Equatoria,Juba,Dolo,SERMON PHCU,Sermon PHCU,5.015850,31.113195,92251,15,PHCU,Functional,
397,Central Equatoria,Juba,Munuki,SEVEN DAYS ADVENTIST,Seven Days Adventist,4.856650,31.577620,92250,14,PHCC,,
401,Central Equatoria,Juba,Munuki,ST.KIZITO HEALTH C,St.Kizito Health C,4.860080,31.571750,92097,14,PHCC,Functional,
402,Central Equatoria,Juba,Dolo,SURE PHCU,Sure PHCU,4.844090,31.584900,92091,15,PHCU,Functional,
405,Central Equatoria,Juba,Tijor,TIJOR PHCU,Tijor PHCU,5.259260,31.237550,92212,15,PHCU,Functional,
410,Central Equatoria,Juba,Dolo,TULYANG PHCU,Tulyang PHCU,4.779470,30.921110,92202,15,PHCU,Non Functional,
179,Central Equatoria,Kajo-Keji,Kangapo Two,AJIRA PHCU,Ajira PHCU,3.852060,31.656140,92191,15,PHCU,Functional,
180,Central Equatoria,Kajo-Keji,Kangapo Two,AJIRA PHCU,Ajira PHCU,3.852060,31.656140,92268,15,PHCU,Functional,
186,Central Equatoria,Kajo-Keji,Kangapo Two,BAMUREY PHCC,Bamurey PHCC,3.668280,31.548160,92247,14,PHCC,Functional,
194,Central Equatoria,Kajo-Keji,Kangapo Two,BORI PHCC,Bori PHCC,3.773760,31.510230,92196,14,PHCC,,
208,Central Equatoria,Kajo-Keji,Kangapo Two,GENESIS MEDICAL CARE,Genesis Medical Care,3.848920,31.658160,92120,14,PHCC,,
212,Central Equatoria,Kajo-Keji,Nyepo,GODORU PHCC,Godoru PHCC,3.938520,31.500590,92017,14,PHCC,Functional,
240,Central Equatoria,Kajo-Keji,Kangapo One,KAJOKEJI CIVIL HOSP.,Kajokeji Civil Hosp.,3.852340,31.656780,92171,13,County Hospital,Functional,
241,Central Equatoria,Kajo-Keji,Nyepo,KAMSUK PHCC,Kamsuk PHCC,4.010940,31.535140,92188,14,PHCC,Functional,
242,Central Equatoria,Kajo-Keji,Kangapo Two,KASURAK PHCU,Kasurak PHCU,3.862670,31.538830,92185,15,PHCU,Functional,
249,Central Equatoria,Kajo-Keji,Liwolo,KERWA PHCU,Kerwa PHCU,3.726220,31.582310,92186,14,PHCC,,
250,Central Equatoria,Kajo-Keji,Liwolo,KERWA PHCU,Kerwa PHCU,3.851510,31.655940,92193,15,PHCU,Functional,
251,Central Equatoria,Kajo-Keji,Kangapo One,KIGWO PHCU,Kigwo PHCU,3.869790,31.739080,92189,15,PHCU,Functional,
254,Central Equatoria,Kajo-Keji,Kangapo Two,KINYIBA PHCU,Kinyiba PHCU,3.734170,31.634790,92114,15,PHCU,Functional,
255,Central Equatoria,Kajo-Keji,Kangapo One,KIRI PHCU,Kiri PHCU,3.770260,31.635040,92183,15,PHCU,Functional,
259,Central Equatoria,Kajo-Keji,Liwolo,KK AJIO PHCU,Kk Ajio PHCU,3.838710,31.195070,92244,15,PHCU,,
260,Central Equatoria,Kajo-Keji,Kangapo Two,KK GURUJO PHCU,Kk Gurujo PHCU,3.726240,31.582570,92179,15,PHCU,,
261,Central Equatoria,Kajo-Keji,Kangapo Two,KK JALIMO PHCC,Kk Jalimo PHCC,3.759390,31.598830,92182,14,PHCC,Functional,
262,Central Equatoria,Kajo-Keji,Nyepo,KK JONDALE PHCU,Kk Jondale PHCU,3.929030,31.535120,92015,15,PHCU,,
263,Central Equatoria,Kajo-Keji,Liwolo,KK KALA PHCU,Kk Kala PHCU,3.982400,31.258850,92118,15,PHCU,,
264,Central Equatoria,Kajo-Keji,Lire,KK LIPE PHCC,Kk Lipe PHCC,3.896650,31.620240,92174,14,PHCC,,
265,Central Equatoria,Kajo-Keji,Lire,KK LONGIRA PHCU,KK Longira PHCU,3.877890,31.601060,92192,15,PHCU,,
266,Central Equatoria,Kajo-Keji,Lire,KK MERE PHCU,Kk Mere PHCU,3.889520,31.672490,92119,15,PHCU,,
267,Central Equatoria,Kajo-Keji,Lire,KK MOGIRI PHCU,Kk Mogiri PHCU,3.950630,31.595260,92184,15,PHCU,Functional,
268,Central Equatoria,Kajo-Keji,Lire,KK ROMOGI PHCU,Kk Romogi PHCU,3.908430,31.649891,92195,15,PHCU,,
269,Central Equatoria,Kajo-Keji,Kangapo One,KKKANGAI PHCC,Kkkangai PHCC,3.768970,31.656800,92199,14,PHCC,,
276,Central Equatoria,Kajo-Keji,Lire,KUDAJI PHCU,Kudaji PHCU,3.884190,31.670360,92197,15,PHCU,Functional,
286,Central Equatoria,Kajo-Keji,Kangapo One,LEIKOR PHCU,Leikor PHCU,3.807780,31.665910,92172,15,PHCU,Functional,
290,Central Equatoria,Kajo-Keji,Kangapo One,LIMI PHCU,Limi PHCU,3.802760,31.715160,92112,15,PHCU,Functional,
291,Central Equatoria,Kajo-Keji,Kangapo One,LIMI TWO PHCU,Limi Two PHCU,3.803770,31.698460,92016,15,PHCU,Functional,
294,Central Equatoria,Kajo-Keji,Liwolo,LIWOLO MISSIONARIES,Liwolo Missionaries,3.795080,31.429860,92181,13,County Hospital,,
296,Central Equatoria,Kajo-Keji,Kangapo Two,LOGILI PHCU,Logili PHCU,3.843600,31.637510,92177,15,PHCU,Functional,
299,Central Equatoria,Kajo-Keji,Kangapo Two,LOGU PHCU,Logu PHCU,3.835560,31.618880,92115,15,PHCU,Functional,
307,Central Equatoria,Kajo-Keji,Kangapo One,LOMIN PHCU,Lomin PHCU,3.824870,31.659450,92198,14,PHCC,Functional,
311,Central Equatoria,Kajo-Keji,Liwolo,LORA PHCU,Lora PHCU,3.881190,31.331600,92245,15,PHCU,Functional,
312,Central Equatoria,Kajo-Keji,Nyepo,LORI P. HEALTH UNIT,Lori P. Health Unit,4.006090,31.506740,92176,15,PHCU,Functional,
313,Central Equatoria,Kajo-Keji,Liwolo,LORO PHCU,Loro PHCU,3.869890,31.166680,92243,15,PHCU,Functional,
329,Central Equatoria,Kajo-Keji,Liwolo,MANGA LOTORE PHCC,Manga Lotore PHCC,3.802120,31.550970,92200,14,PHCC,Functional,
334,Central Equatoria,Kajo-Keji,Kangapo Two,MERE GUGA,Mere Guga,3.769420,31.486900,92175,15,PHCU,Functional,
342,Central Equatoria,Kajo-Keji,Kangapo One,MOIJO,Moijo,3.804690,31.793520,92187,15,PHCU,Functional,
344,Central Equatoria,Kajo-Keji,Nyepo,MONDI PHCU,Mondi PHCU,3.893760,31.484380,92180,15,PHCU,Functional,
345,Central Equatoria,Kajo-Keji,Lire,Mondikolok PHCU,Mondikolok PHCU,4.091300,30.679190,92173,15,PHCU,Functional,
385,Central Equatoria,Kajo-Keji,Nyepo,RODO PHCU,Rodo PHCU,4.043060,31.524500,92246,15,PHCU,Functional,
390,Central Equatoria,Kajo-Keji,Liwolo,RUNGETA PHCU,Rungeta PHCU,3.783210,31.369110,92117,15,PHCU,Functional,
393,Central Equatoria,Kajo-Keji,Kangapo One,SAREGORO PHCU,Saregoro PHCU,3.844180,31.678820,92178,15,PHCU,Functional,
399,Central Equatoria,Kajo-Keji,Liwolo,SOKARE PHCU,Sokare PHCU,3.795760,31.430410,92121,15,PHCU,Functional,
422,Central Equatoria,Kajo-Keji,Kangapo Two,WURTA P. HEALTH UNIT,Wurta P. Health Unit,3.695070,31.552150,92116,15,PHCU,Functional,
247,Central Equatoria,Lainya,Kenyi,KENYI PHCU,Kenyi PHCU,4.206510,30.912980,92057,15,PHCU,,
289,Central Equatoria,Lainya,Kenyi,LIMBE PHCC,Limbe PHCC,4.161060,30.860920,92055,14,PHCC,Functional,
303,Central Equatoria,Lainya,Kenyi,LOKA WEST PHCU,Loka West PHCU,4.254643,31.000070,92063,15,PHCU,Functional,
306,Central Equatoria,Lainya,Kenyi,LOMILIKIN PHCU,Lomilikin PHCU,4.264110,30.942200,92070,15,PHCU,Functional,
309,Central Equatoria,Lainya,Kenyi,LORA (LOKA) ORPHANAGE CLINIC,Lora (Loka) Orphanage Clinic,4.223090,30.958250,92062,16,Private Clinic,,
310,Central Equatoria,Lainya,Kenyi,LORA PHCC,Lora PHCC,4.206430,30.912970,92071,14,PHCC,Functional,
211,Central Equatoria,Lainya,Kupera,GINYABIO PHCU,Ginyabio PHCU,3.979900,30.969520,92067,15,PHCU,Functional,
225,Central Equatoria,Lainya,Kupera,JAMARA PHCC,Jamara PHCC,4.047340,30.982370,92058,14,PHCC,Functional,
257,Central Equatoria,Lainya,Kupera,KIRIKWAT PHCU,Kirikwat PHCU,4.144720,30.909160,92066,15,PHCU,,
271,Central Equatoria,Lainya,Kupera,KOROBE PHCU,Korobe PHCU,4.036720,30.944950,92041,15,PHCU,,
278,Central Equatoria,Lainya,Kupera,KUPERA PHCU,Kupera PHCU,4.133200,30.953790,92037,15,PHCU,Functional,
355,Central Equatoria,Lainya,Kupera,MUNDU PHCU,Mundu PHCU,4.040180,31.016170,92072,15,PHCU,,
362,Central Equatoria,Lainya,Kupera,NYAGANDO PHCU,Nyagando PHCU,4.077290,30.985450,92040,15,PHCU,,
190,Central Equatoria,Lainya,Lainya,BEREKA PHCU,Bereka PHCU,4.398460,31.041840,92036,15,PHCU,Functional,
203,Central Equatoria,Lainya,Lainya,FIFTY EIGHT MILE PHCU,Fifty Eight Mile PHCU,4.368380,31.114570,92039,15,PHCU,,
282,Central Equatoria,Lainya,Lainya,LAINYA PHCC,Lainya PHCC,4.340590,31.074420,92051,14,PHCC,Functional,
300,Central Equatoria,Lainya,Lainya,LOGWILI PHCU,Logwili PHCU,4.370080,31.121160,92060,15,PHCU,Functional,
302,Central Equatoria,Lainya,Lainya,LOKA ROUND PHCU,Loka Round PHCU,4.273170,31.019600,92052,15,PHCU,Functional,
351,Central Equatoria,Lainya,Lainya,MORTA PHCU,Morta PHCU,3.748770,31.090520,92054,15,PHCU,,
365,Central Equatoria,Lainya,Lainya,NYANGELE PHCU,Nyangele PHCU,4.358200,30.935900,92018,15,PHCU,Functional,
377,Central Equatoria,Lainya,Lainya,PARASAK / Barajak (?) PHCU,Parasak / Barajak (?) PHCU,4.072300,31.072080,92059,15,PHCU,,
384,Central Equatoria,Lainya,Lainya,Rijongu PHCC,Rijongu PHCC,4.241630,30.071592,92068,14,PHCC,,
198,Central Equatoria,Lainya,Mukaya,DIMO 1 PHCU,Dimo 1 PHCU,4.233930,30.674000,92056,15,PHCU,Functional,
270,Central Equatoria,Lainya,Mukaya,KOMOI PHCU,Komoi PHCU,4.144650,30.689830,92053,15,PHCU,Functional,
398,Central Equatoria,Lainya,Mukaya,SOKA PHCU,Soka PHCU,4.209710,30.549940,92065,15,PHCU,Functional,
427,Central Equatoria,Lainya,Mukaya,YONDORU PHCU,Yondoru PHCU,4.220230,30.766130,92073,15,PHCU,Functional,
199,Central Equatoria,Lainya,Wuji,DONGORO PHCU,Dongoro PHCU,4.045740,31.178440,92035,15,PHCU,,
206,Central Equatoria,Lainya,Wuji,GBOTORO PHCU,Gbotoro PHCU,4.107720,31.092400,92050,15,PHCU,,
252,Central Equatoria,Lainya,Wuji,KIJU PHCU,Kiju PHCU,4.013330,31.205370,92019,15,PHCU,,
272,Central Equatoria,Lainya,Wuji,KOYOKI PHCU,Koyoki PHCU,3.840260,31.076650,92038,14,PHCC,Functional,
292,Central Equatoria,Lainya,Wuji,LIMURO PHCU,Limuro PHCU,4.058270,31.058030,92069,15,PHCU,Functional,
317,Central Equatoria,Lainya,Wuji,LUPAYONG PHCU,Lupayong PHCU,3.904920,31.060910,92061,15,PHCU,,
420,Central Equatoria,Lainya,Wuji,WUJI PHCU,Wuji PHCU,3.840540,31.076760,92064,15,PHCU,Functional,
349,Central Equatoria,Morobo,Gulumbi,MOROBO PHCC,Morobo PHCC,3.687840,30.775210,92075,14,PHCC,Functional,
386,Central Equatoria,Morobo,Gulumbi,RODOBA  PHCU,Rodoba  PHCU,3.600100,30.807230,92082,15,PHCU,Functional,
253,Central Equatoria,Morobo,Kimba,KIMBA PHCU,Kimba PHCU,3.579710,30.852500,92139,15,PHCU,Functional,
423,Central Equatoria,Morobo,Kimba,YAYA  PHCC,Yaya  PHCC,3.541580,30.881630,92140,14,PHCC,,
428,Central Equatoria,Morobo,Kimba,YONDU PHCU,Yondu PHCU,3.662750,30.898250,92081,15,PHCU,Functional,
175,Central Equatoria,Morobo,Lujulo,ABOROTO PHCC,Aboroto PHCC,3.660370,30.709740,92138,14,PHCC,,
316,Central Equatoria,Morobo,Lujulo,LUJULO PHCU,Lujulo PHCU,3.678690,30.664580,92074,15,PHCU,,
1246,Central Equatoria,Morobo,Lujulo,YUGUFE PHCU,Yugufe PHCU,3.715760,30.693310,92079,15,PHCU,Functional,
246,Central Equatoria,Morobo,Panyume,KENDILA PHCU,Kendila PHCU,4.090670,30.677040,92080,15,PHCU,Functional,
376,Central Equatoria,Morobo,Panyume,PANYUME PHCU,Panyume PHCU,3.781040,30.950900,92076,15,PHCU,Functional,
182,Central Equatoria,Morobo,Wudabi,ALOTO RURAL HOSPITAL,Aloto Rural Hospital,3.749500,30.625020,92077,15,PHCU,,
418,Central Equatoria,Morobo,Wudabi,WUDABI PHCU,Wudabi PHCU,3.772970,30.618970,92078,15,PHCU,,
176,Central Equatoria,Terekeka,Terekeka,ADRA PHCU,Adra PHCU,5.433970,31.750390,92129,15,PHCU,,
181,Central Equatoria,Terekeka,Tali,AKEN WELL PHCU,Aken Well PHCU,5.907180,30.820550,92164,15,PHCU,,
185,Central Equatoria,Terekeka,Tali,ATIIT PHCU,Atiit PHCU,5.895660,30.771650,92163,15,PHCU,Functional,
188,Central Equatoria,Terekeka,Muni,BEKAT PHCU,Bekat PHCU,5.640510,31.687060,92123,15,PHCU,Functional,
193,Central Equatoria,Terekeka,Tombek,BORI ARINGA PHCU,Bori Aringa PHCU,5.660970,31.682700,92147,15,PHCU,,
195,Central Equatoria,Terekeka,Rijong,BURA PHCU,Bura PHCU,5.445860,31.377390,92124,15,PHCU,Functional,
197,Central Equatoria,Terekeka,Tali,DARI PHCU,Dari PHCU,6.005880,30.755630,92127,15,PHCU,Non Functional,
204,Central Equatoria,Terekeka,Tindilo,GAMA PHCU,Gama PHCU,5.716080,30.993920,92160,15,PHCU,,
207,Central Equatoria,Terekeka,Gameiza,GEMAIZA PHCU,Gemaiza PHCU,5.679390,31.797220,92155,15,PHCU,Functional,
223,Central Equatoria,Terekeka,Gameiza,JAI PHCU,Jai PHCU,5.538190,31.828560,92162,15,PHCU,,
226,Central Equatoria,Terekeka,Reggo,JOBEM PHCU,Jobem PHCU,5.383530,31.647750,92165,15,PHCU,Functional,
228,Central Equatoria,Terekeka,Rijong,JONKOK PAYAYA,Jonkok Payaya,5.425310,31.161490,92161,15,PHCU,Functional,
229,Central Equatoria,Terekeka,Rijong,JONKOK PHCU,Jonkok PHCU,5.291630,31.024930,92134,15,PHCU,,
245,Central Equatoria,Terekeka,,KAWARI PHCU,Kawari PHCU,5.393850,31.109220,92148,15,PHCU,,
258,Central Equatoria,Terekeka,Tali,KIU PHCU,Kiu PHCU,6.204790,30.600620,92136,15,PHCU,,
273,Central Equatoria,Terekeka,Tindilo,KROT NYUMBO PHCU,Krot Nyumbo PHCU,4.853000,30.845720,92143,15,PHCU,,
280,Central Equatoria,Terekeka,Muni,KWONGODI PHCU,Kwongodi PHCU,5.543220,31.543020,92142,16,Private Clinic,,
281,Central Equatoria,Terekeka,Reggo,KWORNYANG PHCU,Kwornyang PHCU,5.543220,31.543020,92156,15,PHCU,Functional,
301,Central Equatoria,Terekeka,Reggo,LOJORA PHCU,Lojora PHCU,5.382180,31.680120,92135,15,PHCU,Functional,
304,Central Equatoria,Terekeka,Terekeka,LOKWENI PHCU,Lokweni PHCU,5.555360,31.710380,92158,15,PHCU,Functional,
308,Central Equatoria,Terekeka,Reggo,LONAI PHCU,Lonai PHCU,5.478460,31.434160,92157,15,PHCU,,
315,Central Equatoria,Terekeka,Reggo,LOWIRJA,Lowirja,5.551470,31.527820,92132,15,PHCU,Functional,
321,Central Equatoria,Terekeka,Tali,MADING PHCU,Mading PHCU,5.852090,30.792350,92125,15,PHCU,Functional,
323,Central Equatoria,Terekeka,Reggo,MAKAMAGOR PHCU,Makamagor PHCU,5.491970,31.618120,92152,15,PHCU,Functional,
325,Central Equatoria,Terekeka,Tali,MAKIDO PHCU,Makido PHCU,5.962830,30.741170,92150,15,PHCU,,
332,Central Equatoria,Terekeka,Muni,MARAKAK PHCU,Marakak PHCU,5.610440,31.728250,92131,15,PHCU,,
335,Central Equatoria,Terekeka,Terekeka,MERIDI PHCU,Meridi PHCU,5.490090,31.617600,92133,15,PHCU,,
336,Central Equatoria,Terekeka,Tali,MIJIKI PHCU,Mijiki PHCU,5.723950,30.841060,92169,15,PHCU,Functional,
337,Central Equatoria,Terekeka,Tali,MINA PHCU,Mina PHCU,5.803310,30.741580,92126,15,PHCU,Functional,
354,Central Equatoria,Terekeka,Tindilo,MUNDARI BURA PHCC,Mundari Bura PHCC,5.672650,30.974580,92168,14,PHCC,Functional,
356,Central Equatoria,Terekeka,Muni,MUNI PHCC,Muni PHCC,5.643970,31.720240,92166,14,PHCC,Functional,
358,Central Equatoria,Terekeka,Terekeka,MYIKABUR PHCU,Myikabur PHCU,5.555360,31.710390,92159,15,PHCU,,
364,Central Equatoria,Terekeka,Tali,NYANGA PHCU,Nyanga PHCU,5.768090,31.041810,92130,15,PHCU,Functional,
370,Central Equatoria,Terekeka,Nyori,NYORI PHCU,Nyori PHCU,5.317760,31.706800,92141,15,PHCU,Functional,
373,Central Equatoria,Terekeka,Tali,PAGARA PHCU,Pagara PHCU,6.012790,30.665550,92122,15,PHCU,Functional,
381,Central Equatoria,Terekeka,Gameiza,POKOR PHCU,Pokor PHCU,5.603760,31.827940,92167,16,Private Clinic,,
383,Central Equatoria,Terekeka,Rijong,RIJONG PHCU,Rijong PHCU,5.393850,31.169220,92151,15,PHCU,Functional,
403,Central Equatoria,Terekeka,Tali,TALI PHCC,Tali PHCC,5.897540,30.771690,92145,14,PHCC,Functional,
404,Central Equatoria,Terekeka,Terekeka,TERKEKA HEALTH C.,Terkeka Health C.,5.455560,33.752770,92146,14,PHCC,Functional,
406,Central Equatoria,Terekeka,Tindilo,TINDILO PHCU,Tindilo PHCU,5.660870,30.062860,92170,15,PHCU,,
407,Central Equatoria,Terekeka,Tombek,TOMBEK PHCC,Tombek PHCC,5.811260,31.684990,92144,15,PHCU,Functional,
409,Central Equatoria,Terekeka,Muni,TUKORO PHCU,Tukoro PHCU,5.584140,31.715790,92128,15,PHCU,Functional,
416,Central Equatoria,Terekeka,Gameiza,WANYANG PHCU,Wanyang PHCU,5.382510,31.680270,92154,15,PHCU,Functional,
419,Central Equatoria,Terekeka,Tombek,WUDU BORI,Wudu Bori,5.742210,31.700620,92153,15,PHCU,Functional,
421,Central Equatoria,Terekeka,Terekeka,WUJUGANI PHCU,Wujugani PHCU,5.509250,31.711090,92137,15,PHCU,Functional,
177,Central Equatoria,Yei,Lasu,AGONYAKIRI PHCU,Agonyakiri PHCU,3.928470,30.514390,92240,15,PHCU,Functional,
256,Central Equatoria,Yei,Lasu,KIRIKWA PHCU,Kirikwa PHCU,4.143120,30.425030,92045,15,PHCU,Functional,
284,Central Equatoria,Yei,Lasu,LASU PHCC,Lasu PHCC,3.949840,30.467050,92237,14,PHCC,Functional,
287,Central Equatoria,Yei,Lasu,LIBOGO,Libogo,3.804430,30.572590,92238,15,PHCU,Functional,
340,Central Equatoria,Yei,Lasu,MITIKA PHCU,Mitika PHCU,3.958220,30.506430,92043,15,PHCU,Functional,
369,Central Equatoria,Yei,Lasu,NYORI PHCU,Nyori PHCU,3.940120,30.423910,92218,15,PHCU,Functional,
380,Central Equatoria,Yei,Lasu,PISAK PHCU,Pisak PHCU,4.150920,30.526110,92024,15,PHCU,Functional,
227,Central Equatoria,Yei,Mugwo,JOMBU PHCU,Jombu PHCU,3.811400,30.780490,92031,15,PHCU,Functional,
353,Central Equatoria,Yei,Mugwo,MUGWO PHCC,Mugwo PHCC,3.889823,30.740110,92027,14,PHCC,Functional,
378,Central Equatoria,Yei,Mugwo,PAYAWA PHCU,Payawa PHCU,3.953750,30.739200,92020,15,PHCU,Functional,
411,Central Equatoria,Yei,Mugwo,UNDUKORI PHCU,Undukori PHCU,3.940130,30.690100,92009,15,PHCU,Functional,
414,Central Equatoria,Yei,Mugwo,WADUPE PHCU,Wadupe PHCU,3.886720,30.707500,92217,15,PHCU,Functional,
174,Central Equatoria,Yei,Otogo,ABEGI PHCU,Abegi PHCU,4.013130,30.564620,92046,15,PHCU,Functional,
213,Central Equatoria,Yei,Otogo,GOJA PHCU,Goja PHCU,4.006400,30.636310,92028,15,PHCU,Functional,
239,Central Equatoria,Yei,Otogo,KAJIKO PHCU,Kajiko PHCU,3.851200,30.599030,92033,15,PHCU,,
285,Central Equatoria,Yei,Otogo,LATTA PHCU,Latta PHCU,3.879020,30.558570,92241,15,PHCU,Functional,
346,Central Equatoria,Yei,Otogo,MONGO PHCU,Mongo PHCU,3.904360,30.611550,92023,15,PHCU,Functional,
372,Central Equatoria,Yei,Otogo,OMBASI PHCC,Ombasi PHCC,3.888810,30.607940,92006,14,PHCC,Functional,
389,Central Equatoria,Yei,Otogo,RUBEKE PHCU,Rubeke PHCU,3.979120,30.542860,92242,15,PHCU,,
394,Central Equatoria,Yei,Otogo,SENEMA PHCU,Senema PHCU,4.090310,30.689060,92007,15,PHCU,Functional,
429,Central Equatoria,Yei,Otogo,YR LOGO 1 PHCU,Yr Logo 1 PHCU,4.122620,30.669180,92032,15,PHCU,,
430,Central Equatoria,Yei,Otogo,YR MORSAK PHCU,Yr Morsak PHCU,3.941280,30.610980,92048,15,PHCU,Functional,
183,Central Equatoria,Yei,Tore,ANGEBI PHCU,Angebi PHCU,4.608810,29.977560,92220,15,PHCU,Functional,
187,Central Equatoria,Yei,Tore,BANDAME PHCU,Bandame PHCU,4.323030,30.286380,92219,15,PHCU,Functional,
215,Central Equatoria,Yei,Tore,GOLI PHCU,Goli PHCU,4.211190,30.431490,92005,15,PHCU,,
214,Central Equatoria,Yei,Tore,GOLI PHCU,Goli PHCU,4.201580,30.449580,92021,15,PHCU,Functional,
277,Central Equatoria,Yei,Tore,KUNDRU PHCU,Kundru PHCU,4.398050,30.215880,92029,15,PHCU,Functional,
331,Central Equatoria,Yei,Tore,MAPAKO PHCU,Mapako PHCU,4.225410,30.537540,92034,15,PHCU,Functional,
408,Central Equatoria,Yei,Tore,TORE PHCC,Tore PHCC,4.491330,30.162750,92042,14,PHCC,Functional,
202,Central Equatoria,Yei,Yei Town,ESPISCAPAL CHURCH,Espiscapal Church,4.097430,30.667940,92026,14,PHCC,Functional,
210,Central Equatoria,Yei,Yei Town,GIMUNU PHCU,Gimunu PHCU,4.123480,30.768240,92025,15,PHCU,Functional,
237,Central Equatoria,Yei,Yei Town,KAGELU PHCU,Kagelu PHCU,4.051750,30.612050,92049,15,PHCU,,
298,Central Equatoria,Yei,Yei Town,LOGOBERO PHCU,Logobero PHCU,4.124490,30.669570,92022,15,PHCU,Functional,
328,Central Equatoria,Yei,Yei Town,MALTESER INT.,Malteser Int.,4.853280,31.609520,92044,17,Specialized Hospital,,
338,Central Equatoria,Yei,Yei Town,MINYORI PHCU,Minyori PHCU,4.125280,30.620050,92047,15,PHCU,Functional,
375,Central Equatoria,Yei,Yei Town,PAKULA PHCU,Pakula PHCU,4.040560,30.871710,92010,15,PHCU,Functional,
391,Central Equatoria,Yei,Yei Town,RWONYI PHCU,Rwonyi PHCU,4.055890,30.714960,92030,15,PHCU,Functional,
425,Central Equatoria,Yei,Yei Town,YEI CIVIL HOSPITAL,Yei Civil Hospital,4.091330,30.675600,92239,13,County Hospital,Functional,
426,Central Equatoria,Yei,Yei Town,YEI RIVER PHCC,Yei River PHCC,4.090250,30.677280,92008,14,PHCC,,
200,Central Equatoria,Yei,,DUKUDU-OLO,Dukudu-Olo,4.590713,29.863620,91100,14,PHCC,Functional,
17,Eastern Equatoria,Ikotos,Losite,BIRA PHCC,Bira PHCC,3.833130,33.582090,93096,14,PHCC,,
77,Eastern Equatoria,Ikotos,Lomohidang North,CHAHARE PHCC,Chahare PHCC,4.289590,33.144470,93084,15,PHCU,Functional,
64,Eastern Equatoria,Ikotos,Lomohidang South,CHOROCOL BOMA PHCU,Chorocol Boma PHCU,4.223440,33.194690,93099,14,PHCC,Non Functional,
37,Eastern Equatoria,Ikotos,Hatire,HATIRE PHCC,Hatire PHCC,4.034080,32.801520,93092,15,PHCU,,
42,Eastern Equatoria,Ikotos,Ikotos,IKWOTO PHCC,Ikwoto PHCC,4.079700,33.098580,93077,14,PHCC,,
52,Eastern Equatoria,Ikotos,Hatire,IMILAI PHCU,Imilai PHCU,4.147180,32.673220,93090,15,PHCU,Functional,
153,Eastern Equatoria,Lapon,Arihilo,HARIHILO PHCU,Harihilo PHCU,4.913140,32.677180,93164,15,PHCU,,
147,Eastern Equatoria,Lapon,Arihilo,LOGANAWATI PHCU,Loganawati PHCU,4.841370,32.690880,93163,15,PHCU,,
155,Eastern Equatoria,Lapon,Arihilo,LOHITOJO PHCU,Lohitojo PHCU,4.913230,32.677240,93162,15,PHCU,,
159,Eastern Equatoria,Lapon,Burgilo,LAFON PHCC,Lafon PHCC,5.030390,32.476115,93158,14,PHCC,,
164,Eastern Equatoria,Lapon,Burgilo,WIPUBOY,Wipuboy,5.108960,32.460930,93161,15,PHCU,,
141,Eastern Equatoria,Lapon,Imehejek,IMEHEJEK PHCC,Imehejek PHCC,4.781750,32.761490,93148,14,PHCC,,
144,Eastern Equatoria,Lapon,Imehejek,MURA LOPIT PHCU,Mura Lopit PHCU,4.794780,32.724970,93147,15,PHCU,,
158,Eastern Equatoria,Lapon,Kurumi,ADEBA PHCU,Adeba PHCU,5.009590,32.395470,93153,15,PHCU,,
157,Eastern Equatoria,Lapon,Kurumi,KUJIKOR PHCU,Kujikor PHCU,4.956790,32.428870,93152,15,PHCU,,
160,Eastern Equatoria,Lapon,Kurumi,MALNYANG,Malnyang,5.043030,32.391380,93151,15,PHCU,,
128,Eastern Equatoria,Lapon,Lohutok,IBELE PHCU,Ibele PHCU,4.679850,32.760590,93167,15,PHCU,,
154,Eastern Equatoria,Lapon,Lohutok,IBONNI PHCU,Ibonni PHCU,4.661957,32.796646,93170,15,PHCU,,
132,Eastern Equatoria,Lapon,Lohutok,IMULUHA PHCU,Imuluha PHCU,4.703990,32.776080,93166,15,PHCU,,
120,Eastern Equatoria,Lapon,Lohutok,LALANGA PHCU,Lalanga PHCU,4.590910,32.903350,93169,15,PHCU,,
126,Eastern Equatoria,Lapon,Lohutok,LELANG / Ohilang (?) PHCU,Lelang / Ohilang (?) PHCU,4.674520,32.780670,93171,15,PHCU,,
119,Eastern Equatoria,Lapon,Lohutok,LOHOTUK AIC PHCC,Lohotuk Aic PHCC,4.640000,32.854000,93168,14,PHCC,,
112,Eastern Equatoria,Lapon,Lohutok,LOMING PHCU,Loming PHCU,4.522790,32.929910,93165,15,PHCU,,
131,Eastern Equatoria,Lapon,Longiro,IDALI PHCU,Idali PHCU,4.703950,32.683260,93149,15,PHCU,,
87,Eastern Equatoria,Lapon,Longiro,KABA / HABA PHCU,Kaba / Haba PHCU,4.837810,32.622030,93159,15,PHCU,,
150,Eastern Equatoria,Lapon,Longiro,LOCHAROK PHCU,Locharok PHCU,4.866970,32.701850,93146,15,PHCU,,
143,Eastern Equatoria,Lapon,Longiro,LONGIRO PHCU,Longiro PHCU,4.788930,32.627800,93160,15,PHCU,,
163,Eastern Equatoria,Lapon,Marguna,AROMO,Aromo,5.101150,32.480790,93156,15,PHCU,,
162,Eastern Equatoria,Lapon,Marguna,BURA,Bura,5.094550,32.480840,93157,15,PHCU,Functional,
145,Eastern Equatoria,Lapon,Pachidi,PACHIDI PHCU,Pachidi PHCU,4.805680,32.476570,93150,15,PHCU,,
138,Eastern Equatoria,Lapon,Pachidi,UNGEBE PHCU,Ungebe PHCU,4.762840,32.469260,93154,15,PHCU,,
142,Eastern Equatoria,Lapon,Pachidi,UPUO PHCU,Upuo PHCU,4.786060,32.432230,93155,15,PHCU,,
172,Eastern Equatoria,Magwi,Pageri,Afoyi PHCU (Kit 4),Afoyi PHCU (Kit 4),4.076150,31.958730,93191,15,PHCU,,
75,Eastern Equatoria,Magwi,Magwi,AGORO PHCU,Agoro PHCU,4.282490,32.187580,93062,15,PHCU,,
8,Eastern Equatoria,Magwi,Mugali,BILINYANG PHCU,Bilinyang PHCU,3.624950,32.153860,93022,15,PHCU,Functional,
29,Eastern Equatoria,Magwi,Pageri,BORONGOLE PHCU Beth Israel,Borongole PHCU Beth Israel,3.906360,31.936820,93124,15,PHCU,,
25,Eastern Equatoria,Magwi,Pajok,DIOCES OF TORIT,Dioces Of Torit,3.869870,32.474450,93059,15,PHCU,,
7,Eastern Equatoria,Magwi,Mugali,GANZI PHCU,Ganzi PHCU,3.614190,32.163330,93125,15,PHCU,Functional,
28,Eastern Equatoria,Magwi,Pageri,KEREPI PHCU,Kerepi PHCU,3.902510,31.924820,93118,15,PHCU,Functional,
27,Eastern Equatoria,Magwi,Lobone,KICHENGA PHCU,Kichenga PHCU,3.893800,32.654610,93114,15,PHCU,,
61,Eastern Equatoria,Magwi,Magwi,KIT ONE PHCU,Kit One PHCU,4.213450,31.995050,93076,14,PHCC,Functional,
22,Eastern Equatoria,Magwi,Pajok,LERWA PHCU,Lerwa PHCU,3.859670,32.483950,93057,15,PHCU,Functional,
14,Eastern Equatoria,Magwi,Pageri,LOA MISSION PHCC,Loa Mission PHCC,3.806180,31.962120,93023,14,PHCC,,
10,Eastern Equatoria,Magwi,Pageri,LOA PHCU,Loa PHCU,3.797740,31.982440,93021,15,PHCU,,
11,Eastern Equatoria,Magwi,Lobone,LOBONE PHCC,Lobone PHCC,3.797890,32.761340,93117,14,PHCC,,
2,Eastern Equatoria,Magwi,Nimule,LONGU PHCU,Longu PHCU,3.566480,32.132510,93128,15,PHCU,Functional,
49,Eastern Equatoria,Magwi,Magwi,MAGWI DOT PHCC,Magwi Dot PHCC,4.122930,32.304320,93065,14,PHCC,,
93,Eastern Equatoria,Magwi,Magwi,MAGWI HEALTH CENTER,Magwi Health Center,4.135660,32.300880,93058,14,PHCC,,
45,Eastern Equatoria,Magwi,Magwi,MAJI PHCU,Maji PHCU,4.090710,32.208720,93056,15,PHCU,,
5,Eastern Equatoria,Magwi,Mugali,MASINDI PHCU,Masindi PHCU,3.589860,32.177520,93126,15,PHCU,Functional,
36,Eastern Equatoria,Magwi,Pageri,MOLI PHCC,Moli PHCC,4.030830,31.954620,93116,14,PHCC,,
34,Eastern Equatoria,Magwi,Pageri,MOLIADRO PHCU,Moliadro PHCU,3.987990,31.868450,93123,15,PHCU,Functional,
1,Eastern Equatoria,Magwi,Mugali,MUGALI II PHCC,Mugali II PHCC,3.566460,32.197210,93127,14,PHCC,,
6,Eastern Equatoria,Magwi,Nimule,NIMULE HOSPITAL,Nimule Hospital,3.600290,32.056740,93122,13,County Hospital,Functional,
4,Eastern Equatoria,Magwi,Nimule,NIMULE PHCC CDOT,Nimule PHCC CDOT,3.585030,32.086160,93121,14,PHCC,,
19,Eastern Equatoria,Magwi,Magwi,Nyaciga Jun. Offi. Military Academy (NJOMA),Nyaciga Jun. Offi. Military Academy (NJOMA),3.840410,32.251670,93060,14,PHCC,,
38,Eastern Equatoria,Magwi,Magwi,OBBO PHCC,Obbo PHCC,4.044570,32.424190,93075,14,PHCC,,
78,Eastern Equatoria,Magwi,Magwi,OFIRIKA PHCU,Ofirika PHCU,4.314160,32.299710,93053,15,PHCU,,
3,Eastern Equatoria,Magwi,Nimule,OLIKWI PHCU,Olikwi PHCU,3.570930,32.079060,93120,15,PHCU,Functional,
60,Eastern Equatoria,Magwi,Magwi,OMEO PHCU,Omeo PHCU,4.209870,32.247690,93064,15,PHCU,,
31,Eastern Equatoria,Magwi,Pageri,OPARI PHCC,Opari PHCC,3.923380,32.067510,93019,14,PHCC,,
18,Eastern Equatoria,Magwi,Magwi,OWING KIBUL M. TXC VCT,Owing Kibul M. Txc Vct,3.834390,32.261900,93054,15,PHCU,Non Functional,
20,Eastern Equatoria,Magwi,Magwi,OWINYKIBUL PHCU,Owinykibul PHCU,3.841110,32.265690,93063,15,PHCU,Functional,
23,Eastern Equatoria,Magwi,Pajok,PAJOK PHCC,Pajok PHCC,3.859730,32.483880,93074,14,PHCC,Functional,
50,Eastern Equatoria,Magwi,Magwi,PALONGANYI PHCU,Palonganyi PHCU,4.127060,32.316640,93061,15,PHCU,,
35,Eastern Equatoria,Magwi,Magwi,PALOTAKA PHCU,Palotaka PHCU,4.022950,32.471980,93055,15,PHCU,Functional,
30,Eastern Equatoria,Magwi,Lobone,PALWAR PHCU,Palwar PHCU,3.917500,32.598030,93115,15,PHCU,Functional,
43,Eastern Equatoria,Magwi,Magwi,PANYAKWAWA PHCC,Panyakwawa PHCC,4.082490,32.178780,93066,14,PHCC,,
21,Eastern Equatoria,Magwi,Pageri,PARERI PHCC,Pareri PHCC,3.856620,31.960520,93119,14,PHCC,,
26,Eastern Equatoria,Magwi,Pageri,PATIBI PHCU,Patibi PHCU,3.880470,32.019090,93020,15,PHCU,Functional,
9,Eastern Equatoria,Magwi,Pajok,POGEE,Pogee,3.766720,32.518800,93052,15,PHCU,Non Functional,
12,Eastern Equatoria,Magwi,Pageri,SUDANESE GOSPEL Mission PHCC,Sudanese Gospel Mission PHCC,3.798800,31.981410,93018,14,PHCC,,
111,Eastern Equatoria,Torit,Bur,BUR PHCU,Bur PHCU,4.525910,32.494060,93134,14,PHCC,,
104,Eastern Equatoria,Torit,Hiyala,CALAMINI PHCU,Calamini PHCU,4.499330,32.909610,93040,15,PHCU,,
97,Eastern Equatoria,Torit,Hiyala,HAFORIERE PHCU,Haforiere PHCU,4.449520,32.816780,93138,15,PHCU,Functional,
92,Eastern Equatoria,Torit,Torit,HAI LOTUKO PHCU,Hai Lotuko PHCU,4.413130,32.570790,93129,15,PHCU,,
117,Eastern Equatoria,Torit,Hiyala,HIDONGE IFURA PHCU,Hidonge Ifura PHCU,4.586130,32.796880,93043,15,PHCU,,
121,Eastern Equatoria,Torit,Hiyala,HIDONGE MALANGIT,Hidonge Malangit,4.598210,32.817080,93044,15,PHCU,Functional,
81,Eastern Equatoria,Torit,Himodonge,HILLEU PHCC,Hilleu PHCC,4.322010,32.646140,93142,14,PHCC,,
101,Eastern Equatoria,Torit,Hiyala,HIYALA PHCC,Hiyala PHCC,4.464230,32.864890,93038,14,PHCC,,
105,Eastern Equatoria,Torit,Hiyala,ILIEU PHCU,Ilieu PHCU,4.503120,32.975330,93051,14,PHCC,Functional,
96,Eastern Equatoria,Torit,Hiyala,ILOLI PHCU,Iloli PHCU,4.436790,32.911880,93039,15,PHCU,Functional,
59,Eastern Equatoria,Torit,Iwotu,IMOKORU PHCU,Imokoru PHCU,4.203490,32.550380,93143,15,PHCU,Functional,
80,Eastern Equatoria,Torit,Imurok,IMUROK PHCU,Imurok PHCU,4.315230,32.432450,93049,15,PHCU,Functional,
62,Eastern Equatoria,Torit,Imurok,KHOMUSH PHCU,Khomush PHCU,4.215780,32.377200,93048,15,PHCU,Functional,
114,Eastern Equatoria,Torit,Kudo,KUDO PHCC,Kudo PHCC,4.548530,32.227760,93047,14,PHCC,Functional,
100,Eastern Equatoria,Torit,Kudo,LANGARO PHCU,Langaro PHCU,4.458270,32.299170,93131,15,PHCU,,
113,Eastern Equatoria,Torit,Kudo,LOFIRI PHCU,Lofiri PHCU,4.503965,32.348543,93046,15,PHCU,,
95,Eastern Equatoria,Torit,Imurok,LOLERE PHCU,Lolere PHCU,4.435060,32.480570,93050,15,PHCU,Functional,
125,Eastern Equatoria,Torit,Bur,LORONYO PHCU,Loronyo PHCU,4.649390,32.645400,93144,15,PHCU,,
102,Eastern Equatoria,Torit,Kudo,LOWOI PHCC,Lowoi PHCC,4.489930,32.167640,93139,14,PHCC,Functional,
109,Eastern Equatoria,Torit,Hiyala,MURA-HATIHA PHCU,Mura-Hatiha PHCU,4.510260,32.784440,93041,15,PHCU,Functional,
88,Eastern Equatoria,Torit,Hiyala,OGURUNG PHCU,Ogurung PHCU,4.395870,32.903190,93137,15,PHCU,Functional,
40,Eastern Equatoria,Torit,Bur,OHILA PHCU,Ohila PHCU,4.654650,32.481350,93145,15,PHCU,Functional,
135,Eastern Equatoria,Torit,Bur,OHIRI PHCU,Ohiri PHCU,4.730810,32.510350,93130,15,PHCU,,
83,Eastern Equatoria,Torit,Hiyala,OLIANGA PHCU,Olianga PHCU,4.341630,32.921340,93045,15,PHCU,Functional,
122,Eastern Equatoria,Torit,Bur,ONGELET PHCU,Ongelet PHCU,4.609200,32.676810,93132,15,PHCU,Functional,
116,Eastern Equatoria,Torit,Bur,ORIAJU PHCU,Oriaju PHCU,4.571740,32.727840,93135,15,PHCU,Functional,
115,Eastern Equatoria,Torit,Bur,OSITO PHCU,Osito PHCU,4.554150,32.487750,93133,15,PHCU,,
103,Eastern Equatoria,Torit,Hiyala,TIRANGORE PHCU,Tirangore PHCU,4.490380,32.796710,93042,15,PHCU,Functional,
90,Eastern Equatoria,Torit,Torit,TORIT CIVIL HOSPITAL,Torit Civil Hospital,4.406290,32.576040,93140,12,State Hospital,Functional,
94,Eastern Equatoria,Torit,Torit,TORIT MILITARY HOSPI,Torit Military Hospi,4.424930,32.557700,93141,96,Other,Functional,
1452,Jonglei,Akobo,Barmach Payam,Yidit PHCU,Yidit PHCU,8.21760,32.26643,72146,15,PHCU,,
1451,Jonglei,Akobo,Buong Payam,Buong PHCU,Buong PHCU,8.16185,32.38032,72145,15,PHCU,,
1454,Jonglei,Akobo,Diror Payam,Diror PHCU,Diror PHCU,8.11658,32.33133,72148,15,PHCU,,
1453,Jonglei,Akobo,Diror Payam,Tangnyang PHCU,Tangnyang PHCU,8.10890,32.29087,72147,15,PHCU,,
1450,Jonglei,Akobo,Walgak Payam,Walgak PHCC,Walgak PHCC,8.16075,32.23865,72144,14,PHCC,,
1456,Jonglei,Akobo,,Thkliel PHCU,Thkliel PHCU,7.87796,32.99832,72150,15,PHCU,,
1457,Jonglei,Akobo,,Thokwath PHCU,Thokwath PHCU,7.94185,32.99663,72151,15,PHCU,,
1422,Jonglei,Ayod,Ayod,Ayod PHCC,Ayod PHCC,8.12281,31.41356,72116,14,PHCC,,
1438,Jonglei,Ayod,Ayod,Thotwat PHCU,Thotwat PHCU,8.11270,31.40360,72132,15,PHCU,,
1439,Jonglei,Ayod,Korwai,Haat PHCU,Haat PHCU,8.51655,30.63249,72133,15,PHCU,,
1437,Jonglei,Ayod,Kuachdeng,Bei PHCU,Bei PHCU,8.20221,31.37453,72131,15,PHCU,,
1423,Jonglei,Ayod,Kuachdeng,Kuachdeng PHCU,Kuachdeng PHCU,7.96460,31.44062,72117,15,PHCU,,
1424,Jonglei,Ayod,Mogok,Mogok PHCU,Mogok PHCU,8.40239,31.33646,72118,14,PHCC,,
1436,Jonglei,Ayod,Mogok,Panyang PHCU Outreach,Panyang PHCU Outreach,8.43633,31.34412,72130,15,PHCU,,
1426,Jonglei,Ayod,Pagil,Menime PHCC,Menime PHCC,8.61055,30.71946,72120,15,PHCU,,
1425,Jonglei,Ayod,Pagil,Pagil PHCU,Pagil PHCU,8.71085,31.26925,72119,14,PHCC,,
1434,Jonglei,Ayod,Pajiek,Canal PHCU (Ayod),Canal PHCU (Ayod),8.13207,31.30938,72128,15,PHCU,,
1428,Jonglei,Ayod,Pajiek,Gorwai /Kalel PHCU,Gorwai /Kalel PHCU,8.13282,31.07683,72122,15,PHCU,,
1432,Jonglei,Ayod,Pajiek,Nyawit PHCU Outreach,Nyawit PHCU Outreach,7.71512,30.63931,72126,15,PHCU,,
1427,Jonglei,Ayod,Pajiek,Pajiek PHCU,Pajiek PHCU,8.04631,31.30136,72121,15,PHCU,,
1435,Jonglei,Ayod,Pajiek,Yian PHCU,Yian PHCU,8.10180,31.19889,72129,15,PHCU,,
1430,Jonglei,Ayod,Wau,Jiech PHCU,Jiech PHCU,8.37085,31.13669,72124,15,PHCU,,
1429,Jonglei,Ayod,Wau,Wau PHCU,Wau PHCU,8.25308,31.37278,72123,15,PHCU,,
1433,Jonglei,Ayod,,Akeer (ASCOM) PHCU,Akeer (Ascom) PHCU,7.83212,30.89480,72127,15,PHCU,,
1440,Jonglei,Ayod,,Ascom Ayod PHCC,Ascom Ayod PHCC,8.13544,31.40971,72134,14,PHCC,,
1431,Jonglei,Ayod,,Wan Machar PHCC,Wan Machar PHCC,8.23199,30.59433,72125,14,PHCC,,
1441,Jonglei,Ayod,,Wunbin PHCU,Wunbin PHCU,8.28064,31.35421,72135,15,PHCU,,
1393,Jonglei,Bor,Anyidi,Cuei-magon PHCU,Cuei-Magon PHCU,6.17682,31.77659,72087,15,PHCU,,
1401,Jonglei,Bor,Anyidi,Mareng PHCU (Bor),Mareng PHCU (Bor),6.20282,31.71381,72095,15,PHCU,Functional,
1398,Jonglei,Bor,Baidit,Baidit PHCC,Baidit PHCC,6.42951,31.56256,72092,14,PHCC,Functional,
1409,Jonglei,Bor,Baidit,Makolcuei PHCU,Makolcuei PHCU,6.37862,31.64947,72103,15,PHCU,Functional,
1443,Jonglei,Bor,Baidit,Mathiang PHCU (Baidit),Mathiang PHCU (Baidit),6.50158,31.55967,72137,15,PHCU,,
1397,Jonglei,Bor,Baidit,Tong PHCU,Tong PHCU,6.39952,31.56852,72091,15,PHCU,Functional,
1382,Jonglei,Bor,Boma,Bor State Hosp,Bor State Hosp,6.20684,31.55691,72075,12,State Hospital,Functional,
1405,Jonglei,Bor,Bor Town,Arek PHCU,Arek PHCU,6.24685,31.55062,72099,15,PHCU,,
1407,Jonglei,Bor,Bor Town,Gak Yuom PHCU,Gak Yuom PHCU,6.25877,31.56953,72101,15,PHCU,Functional,
1406,Jonglei,Bor,Bor Town,Jarweng PHCU,Jarweng PHCU,6.16796,31.55786,72100,15,PHCU,Functional,
1400,Jonglei,Bor,Bor Town,Langbaar PHCU,Langbaar PHCU,6.23435,31.57205,72094,15,PHCU,,
1413,Jonglei,Bor,Bor Town,Maror PHCU,Maror PHCU,6.22213,30.98775,72107,15,PHCU,,
1448,Jonglei,Bor,Jalle,Akuai-deng PHCU,Akuai-Deng PHCU,6.56350,31.52911,72142,15,PHCU,Functional,
1446,Jonglei,Bor,Jalle,Jalle PHCC,Jalle PHCC,6.67182,31.77659,72140,14,PHCC,Functional,
1449,Jonglei,Bor,Jalle,Kol-merek PHCU,Kol-Merek PHCU,6.61926,31.51425,72143,15,PHCU,Functional,
1444,Jonglei,Bor,Jalle,Kuei PHCU (Bor),Kuei PHCU (Bor),6.72868,31.42982,72138,15,PHCU,,
1396,Jonglei,Bor,Kolnyang,Cuei-ker PHCU,Cuei-Ker PHCU,6.07015,31.79433,72090,15,PHCU,Functional,
1384,Jonglei,Bor,Kolnyang,Kolnyang PHCC,Kolnyang PHCC,6.13708,31.73185,72077,14,PHCC,Functional,
1402,Jonglei,Bor,Kolnyang,Malek PHCU (Kolnyang),Malek PHCU (Kolnyang),6.06657,31.60352,72096,15,PHCU,Functional,
1388,Jonglei,Bor,Kolnyang,Malual Agor Baar PHCC,Malual Agor Baar PHCC,6.12538,31.58084,72082,14,PHCC,Functional,
1399,Jonglei,Bor,Kolnyang,Malual Chat PHCU,Malual Chat PHCU,6.14509,31.57587,72093,15,PHCU,,
1385,Jonglei,Bor,Kolnyang,Pan-pandiar PHCU,Pan-Pandiar PHCU,6.02946,31.62593,72079,15,PHCU,,
1391,Jonglei,Bor,Kolnyang,Pan-wel PHCU,Pan-Wel PHCU,5.93116,31.69906,72085,15,PHCU,Functional,
1386,Jonglei,Bor,Kolnyang,Pariak PHCC,Pariak PHCC,5.97102,31.66066,72080,14,PHCC,Functional,
1395,Jonglei,Bor,Makuac,Kapaat PHCU,Kapaat PHCU,6.29012,31.68078,72089,15,PHCU,,
1403,Jonglei,Bor,Makuac,Konbeek PHCU,Konbeek PHCU,6.26954,31.69048,72097,15,PHCU,,
1404,Jonglei,Bor,Makuac,Lualdit PHCU,Lualdit PHCU,6.23640,31.61042,72098,15,PHCU,Functional,
1389,Jonglei,Bor,Makuac,Makuac PHCC,Makuac PHCC,6.26155,31.73080,72083,14,PHCC,Functional,
1410,Jonglei,Bor,Makuac,Palabaac PHCU,Palabaac PHCU,6.31501,31.61603,72104,15,PHCU,,
1447,Jonglei,Bor,,Anyidi PHCU,Anyidi PHCU,6.17755,31.81293,72141,14,PHCC,Functional,
1387,Jonglei,Bor,,Bor Prison PHCC,Bor Prison PHCC,6.22521,31.59697,72081,14,PHCC,,
1442,Jonglei,Bor,,Bor Town PHCU,Bor Town PHCU,6.19365,31.77014,72136,15,PHCU,,
1394,Jonglei,Bor,,Dr. John Garang Univ,Dr. John Garang Univ,6.19577,31.58496,72088,16,Private Clinic,,
1392,Jonglei,Bor,,Manyiel PHCU,Manyiel PHCU,5.97511,31.65219,72086,15,PHCU,,
1390,Jonglei,Bor,,Nyin Majok PHCU,Nyin Majok PHCU,5.86529,31.74615,72084,15,PHCU,,
1408,Jonglei,Bor,,Pan-Lueth PHCU,Pan-Lueth PHCU,6.36393,31.60340,72102,15,PHCU,,
1383,Jonglei,Bor,,Werkok PHCU,Werkok PHCU,6.33417,31.66027,72076,16,Private Clinic,Functional,
1445,Jonglei,Bor,,Yomcllr PHCU,Yomcllr PHCU,6.54053,31.53262,72139,15,PHCU,,
1340,Jonglei,Canal,Alela,Alela PHCU,Alela PHCU,9.37825,31.30779,72032,15,PHCU,,
1343,Jonglei,Canal,Atar,Atar PHCU,Atar PHCU,9.33846,31.40780,72035,15,PHCU,,
1341,Jonglei,Canal,Duk Payuel,Mareng PHCC (Duk),Mareng PHCC (Duk),9.28330,31.76451,72033,15,PHCU,,
1344,Jonglei,Canal,Pigi,Canal PHCU (Pigi),Canal PHCU (Pigi),9.36291,31.54957,72036,15,PHCU,,
1342,Jonglei,Canal,,Atar Chuei PHCU,Atar Chuei PHCU,9.29205,31.41027,72034,15,PHCU,,
1345,Jonglei,Canal,,Khorfulus PHCC,Khorfulus PHCC,9.31355,31.58603,72037,14,PHCC,,
1335,Jonglei,Canal,,Pangborong PHCU,Pangborong PHCU,9.12819,31.39983,72026,15,PHCU,,
1339,Jonglei,Canal,,Wunangui PHCU,Wunangui PHCU,9.29186,31.36951,72031,15,PHCU,,
1370,Jonglei,Duk,Ageer,Patuenoi PHCU,Patuenoi PHCU,7.51602,31.48123,72062,15,PHCU,Functional,
1360,Jonglei,Duk,Ageer,Poktap PHCC,Poktap PHCC,7.45464,31.40907,72052,14,PHCC,Functional,
1367,Jonglei,Duk,Dongchak,Amiel PHCU,Amiel PHCU,7.69564,31.27658,72059,15,PHCU,Non Functional,
1368,Jonglei,Duk,Dongchak,Dongchak PHCU,Dongchak PHCU,7.68132,31.41430,72060,15,PHCU,Non Functional,
1369,Jonglei,Duk,Mareng (Pigi),Mareng PHCU (Pigi),Mareng PHCU (Pigi),7.60572,31.45118,72061,15,PHCU,Non Functional,
1365,Jonglei,Duk,Padiet,Ayueldit PHCU,Ayueldit PHCU,7.72438,31.33096,72057,15,PHCU,Functional,
1364,Jonglei,Duk,Padiet,Duk Padiet PHCU,Duk Padiet PHCU,7.74927,31.39566,72056,15,PHCU,Non Functional,
1361,Jonglei,Duk,Pagaak,Pagaak PHCU,Pagaak PHCU,7.92874,31.49704,72053,15,PHCU,Non Functional,
1363,Jonglei,Duk,Pageleng,Pageleng PHCU,Pageleng PHCU,7.68695,31.68814,72055,15,PHCU,,
1362,Jonglei,Duk,Panyang,Pajut Kuirgai PHCU,Pajut Kuirgai PHCU,7.74741,31.68797,72054,15,PHCU,,
1371,Jonglei,Duk,,Dok Lost Clinic PHCU,Dok Lost Clinic PHCU,7.48253,31.51073,72063,14,PHCC,,
1366,Jonglei,Duk,,Duk/Paborkoi PHCC,Duk/Paborkoi PHCC,7.72603,31.40580,72058,14,PHCC,,
1317,Jonglei,Fangak,Barbuoi,Koatnyakoang PHCU,Koatnyakoang PHCU,9.44193,31.05653,72008,15,PHCU,,
1319,Jonglei,Fangak,Barbuoi,Kuemduok PHCU,Kuemduok PHCU,9.20998,30.94390,72010,15,PHCU,,
1325,Jonglei,Fangak,Barbuoi,Kuernyang PHCC,Kuernyang PHCC,9.32275,30.88692,72016,14,PHCC,,
1324,Jonglei,Fangak,Barbuoi,Mandeng PHCU,Mandeng PHCU,9.38902,30.83437,72015,15,PHCU,,
1323,Jonglei,Fangak,Manajang,Juaibor PHCC,Juaibor PHCC,9.40076,30.66977,72014,14,PHCC,,
1322,Jonglei,Fangak,New Fangak,Fangak County Hosp,Fangak County Hosp,9.40905,31.16142,72013,13,County Hospital,,
1321,Jonglei,Fangak,Old Fangak,Chotbora PHCU (Old Fang),Chotbora PHCU (Old Fang),9.11814,30.92622,72012,15,PHCU,,
1318,Jonglei,Fangak,Old Fangak,Old Fangak Hosp,Old Fangak Hosp,9.06672,30.88009,72009,14,PHCC,,
1316,Jonglei,Fangak,Old Fangak,Wangchoat PHCU,Wangchoat PHCU,9.08669,30.09008,72007,15,PHCU,,
1320,Jonglei,Fangak,Paguir,Dhoreak PHCU,Dhoreak PHCU,9.03456,30.70935,72011,15,PHCU,,
1311,Jonglei,Fangak,Pulita,Keew PHCC,Keew PHCC,9.26357,30.63544,72002,14,PHCC,,
1315,Jonglei,Fangak,Toch,Toch PHCU,Toch PHCU,8.96674,30.70774,72006,15,PHCU,,
1314,Jonglei,Fangak,,Kolapach Buom PHCU,Kolapach Buom PHCU,9.31678,31.07278,72005,15,PHCU,,
1312,Jonglei,Fangak,,Nyadiu PHCC,Nyadiu PHCC,8.79966,30.66906,72003,14,PHCC,,
1310,Jonglei,Fangak,,Thokcok PHCU,Thokcok PHCU,9.16393,30.75964,72001,15,PHCU,,
1313,Jonglei,Fangak,,Wang Lel PHCU,Wang Lel PHCU,9.16945,30.90443,72004,15,PHCU,,
1348,Jonglei,Nyirol,Pultruk,Pultruk PHCC,Pultruk PHCC,8.59479,31.94841,72040,14,PHCC,,
1349,Jonglei,Nyirol,Thol,Lankien PHCC,Lankien PHCC,8.52622,32.06143,72041,14,PHCC,,
1346,Jonglei,Nyirol,Waat,Waat PHCC,Waat PHCC,8.18497,32.15296,72038,15,PHCU,,
1347,Jonglei,Nyirol,,Majok PHCU,Majok PHCU,8.47565,32.05856,72039,15,PHCU,,
1331,Jonglei,Twic East,Ajuong,Paliau PHCC,Paliau PHCC,6.96007,31.37843,72022,14,PHCC,Functional,
1329,Jonglei,Twic East,Kongor,Kongor PHCU,Kongor PHCU,7.15623,31.35528,72020,15,PHCU,Non Functional,
1328,Jonglei,Twic East,Kongor,Pager PHCU,Pager PHCU,7.19541,31.38521,72019,15,PHCU,,
1327,Jonglei,Twic East,Lith,Kiir PHCU,Kiir PHCU,7.26050,31.35880,72018,15,PHCU,,
1326,Jonglei,Twic East,Lith,Mabior PHCU,Mabior PHCU,7.29196,31.38855,72017,15,PHCU,,
1330,Jonglei,Twic East,Lith,Wernyol PHCC,Wernyol PHCC,7.32845,31.41489,72021,14,PHCC,Functional,
1333,Jonglei,Twic East,Nyuak,Baping PHCU,Baping PHCU,7.07602,31.42838,72024,15,PHCU,,
1334,Jonglei,Twic East,Nyuak,Lual-ajokbil PHCU,Lual-Ajokbil PHCU,7.05800,31.39037,72025,15,PHCU,,
1332,Jonglei,Twic East,Nyuak,Wangulei PHCU,Wangulei PHCU,7.08475,31.37746,72023,15,PHCU,,
1336,Jonglei,Twic East,Pakeer,Marial PHCU,Marial PHCU,6.87947,31.37882,72027,15,PHCU,,
1337,Jonglei,Twic East,Pakeer,Patiou PHCU,Patiou PHCU,6.77577,31.40850,72028,15,PHCU,,
1338,Jonglei,Twic East,,Maar Pifca PHCU,Maar Pifca PHCU,6.90220,31.37147,72029,15,PHCU,,
1355,Jonglei,Uror,Modit,Modit PHCU,Modit PHCU,7.99955,31.87726,72047,15,PHCU,,
1353,Jonglei,Uror,Payai Centre,Payai PHCU,Payai PHCU,7.98745,31.96594,72045,15,PHCU,,
1359,Jonglei,Uror,Pieri,Pieri PHCC,Pieri PHCC,8.04097,32.03160,72051,15,PHCU,,
1354,Jonglei,Uror,Pul Chuol,Pul Chuol PHCC,Pul Chuol PHCC,8.11053,31.96265,72046,15,PHCU,,
1352,Jonglei,Uror,Uror,Yuai PHCC,Yuai PHCC,7.90507,31.89112,72044,14,PHCC,,
1357,Jonglei,Uror,,Karam PHCU,Karam PHCU,8.21059,31.82317,72049,15,PHCU,,
1358,Jonglei,Uror,,Motot PHCU,Motot PHCU,8.16319,32.04853,72050,15,PHCU,,
1351,Jonglei,Uror,,MSF-H PHCU,Msf-H PHCU,7.90789,31.89108,72043,15,PHCU,,
1350,Jonglei,Uror,,Pamai PHCU,Pamai PHCU,7.79255,31.87915,72042,15,PHCU,,
1356,Jonglei,Uror,,Pathai PHCU,Pathai PHCU,8.07111,31.83527,72048,15,PHCU,,
515,Lakes,Rumbek Centre,Matangai,ABEER PHCU,Abeer PHCU,6.872390,29.575240,84017,15,PHCU,,
498,Lakes,Rumbek Centre,Jiir,ABIEI AJOK PHCU,Abiei Ajok PHCU,6.739930,29.663450,84027,15,PHCU,,
521,Lakes,Cueibet,Abiriu,ABIRIU PHCC,Abiriu PHCC,6.939310,29.423910,84003,14,PHCC,,
441,Lakes,Awerial,,ABUYUNG PHCU,Abuyung PHCU,6.354580,31.127890,84103,15,PHCU,Functional,
493,Lakes,Yirol East,Tinagau,ACIGOR PHCU,Acigor PHCU,6.711160,30.496470,84097,15,PHCU,,
503,Lakes,Yirol East,Adior,ADIOR PHCC (RURAL HP,Adior PHCC (Rural Hp,6.780630,30.721610,84087,14,PHCC,,
486,Lakes,Rumbek East,Pacong,ADIRDIR PHCU,Adirdir PHCU,6.678100,29.827480,84049,15,PHCU,,
475,Lakes,Rumbek East,Atiaba,ADOL PHCC,Adol PHCC,6.627180,29.919690,84053,14,PHCC,,
446,Lakes,Yirol West,Aluakluak,AGONY PHCU,Agony PHCU,6.436590,30.054860,84084,15,PHCU,,
462,Lakes,Rumbek East,Akot,AKUT PHCC,Akut PHCC,6.553590,30.038040,84068,14,PHCC,,
452,Lakes,Yirol West,Aluakluak,ALUAK LUAK PHCC,Aluak Luak PHCC,6.468200,30.105100,84083,14,PHCC,,
476,Lakes,Rumbek East,,AMER PHCU,Amer PHCU,6.631580,29.769870,84063,15,PHCU,,
518,Lakes,Cueibet,Abiriu,AMETHDUOL PHCU,Amethduol PHCU,6.892180,29.521910,84002,15,PHCU,,
482,Lakes,Rumbek East,Paloch,AMETHIC PHCU,Amethic PHCU,6.657580,30.482870,84094,15,PHCU,,
512,Lakes,Cueibet,Ngap,ANGONGRIAL PHCC,Angongrial PHCC,6.852300,29.225490,84006,14,PHCC,,
436,Lakes,Yirol West,Anuol,ANUOL PHCC,Anuol PHCC,6.258130,30.382680,84082,14,PHCC,,
481,Lakes,Yirol West,Abang,ARUAU PHCU,Aruau PHCU,6.655810,30.628610,84074,15,PHCU,,
473,Lakes,Yirol East,Lekakedu,ARUOMNYIOL PHCU,Aruomnyiol PHCU,6.610490,30.513430,84099,15,PHCU,,
465,Lakes,Rumbek East,Atiaba,ATIABA PHCU,Atiaba PHCU,6.573940,29.962680,84055,15,PHCU,,
449,Lakes,Yirol West,Aluakluak,ATIRIU PHCU,Atiriu PHCU,6.454630,30.017030,84069,15,PHCU,,
459,Lakes,Rumbek East,Aduel,AWAC PHCU,Awac PHCU,6.520500,29.808660,84058,15,PHCU,,
516,Lakes,Rumbek Centre,Malek,AYEI PHCU,Ayei PHCU,6.881760,29.626420,84022,15,PHCU,,
526,Lakes,Cueibet,Malon Pec,BARHGET PHCU,Barhget PHCU,7.018962,29.155026,84012,15,PHCU,,
472,Lakes,Rumbek Centre,Mayom,BELLWAU PHCU,Bellwau PHCU,6.607677,29.449910,84024,15,PHCU,,
477,Lakes,Yirol West,Abang,BETOI PHCU,Betoi PHCU,6.637830,30.688490,84071,15,PHCU,,
495,Lakes,Wulu,Bargel,BHAR GEL PHCU,Bhar Gel PHCU,6.720772,29.155027,84039,15,PHCU,,
500,Lakes,Yirol East,Yali,BILING PHCU,Biling PHCU,6.741880,30.657810,84088,15,PHCU,,
442,Lakes,Rumbek East,Aduel,BILLING HOSPITAL,Billing Hospital,6.394870,29.793190,84057,13,County Hospital,,
469,Lakes,Rumbek East,Atiaba,BORALIOP (CBHC) PHCC,Boraliop (Cbhc) PHCC,6.595460,29.879750,84054,14,PHCC,,
433,Lakes,Awerial,Bun-agok,BUNAGOK PHCC,Bunagok PHCC,6.213470,30.995410,84102,14,PHCC,Functional,
517,Lakes,Rumbek Centre,Mayom,CHUEI-COK PHCU,Chuei-Cok PHCU,6.885200,29.543360,84025,15,PHCU,,
530,Lakes,Cueibet,Citcok,CITCOK PHCU,Citcok PHCU,7.194868,29.222009,84013,15,PHCU,,
501,Lakes,Rumbek Centre,Matangai,COLOCOK PHCC,Colocok PHCC,6.760470,29.542060,84019,15,PHCU,,
497,Lakes,Rumbek East,Cueicok,CUEI CHOK PHCU,Cuei Chok PHCU,6.725450,29.745460,84065,15,PHCU,,
525,Lakes,Cueibet,Malon Pec,CUEIBET COUNTY HOSPT,Cueibet County Hospt,7.013111,29.241811,84010,13,County Hospital,,
448,Lakes,Rumbek East,Pacong,CUELBALAC PHCU,Cuelbalac PHCU,6.453780,29.762580,84050,15,PHCU,,
510,Lakes,Rumbek Centre,Jiir,DENG NHIAL PHCU,Deng Nhial PHCU,6.824020,29.677610,84030,15,PHCU,,
466,Lakes,Rumbek East,Aduel,DHIAKUEI PHCU,Dhiakuei PHCU,6.574140,29.827430,84070,15,PHCU,,
432,Lakes,Wulu,Domoloto,DOTECKU PHCU,Dotecku PHCU,6.134640,29.478850,84041,15,PHCU,,
522,Lakes,Cueibet,Duony,DUONY PHCU,Duony PHCU,6.968160,29.371740,84007,15,PHCU,,
454,Lakes,Yirol West,Geng-geng,GENG GENG PHCU,Geng Geng PHCU,6.477500,30.593870,84076,15,PHCU,,
451,Lakes,Wulu,Wulu,GUBA PHCU (LILA),Guba PHCU (Lila),6.467142,29.549952,84043,15,PHCU,,
506,Lakes,Wulu,Bargel,GULMER PHCU,Gulmer PHCU,6.804225,29.684741,84036,15,PHCU,,
519,Lakes,Rumbek Centre,Malek,JUIT-JUIT PHCU,Juit-Juit PHCU,6.907520,29.586200,84021,15,PHCU,,
494,Lakes,Yirol East,Yali,KAP PHCU,Kap PHCU,6.715860,30.446430,84096,15,PHCU,,
471,Lakes,Yirol West,Abang,KAWIC PHCU,Kawic PHCU,6.606490,30.429560,84073,15,PHCU,,
453,Lakes,Rumbek East,Aduel,KOLCUM PHCU,Kolcum PHCU,6.474280,29.809530,84060,15,PHCU,,
520,Lakes,Cueibet,Abiriu,KUBUR WILLIAM,Kubur William,6.910650,29.475670,84004,15,PHCU,,
464,Lakes,Wulu,Wulu,KUEL KUECH PHCC,Kuel Kuech PHCC,6.571131,29.636262,84045,14,PHCC,,
438,Lakes,Wulu,Makundi,LAAM PHCU,Laam PHCU,6.329761,29.914550,84034,15,PHCU,,
478,Lakes,Yirol East,Malek,LANG MATOL PHCU,Lang Matol PHCU,6.641073,30.970800,84091,15,PHCU,,
528,Lakes,Cueibet,Malon Pec,LANGDIT PHCU,Langdit PHCU,7.059000,29.090000,84009,15,PHCU,,
485,Lakes,Yirol East,Lekakedu,LEKAKEDU PHCU,Lekakedu PHCU,6.677160,30.586440,84098,15,PHCU,,
456,Lakes,Rumbek East,Atiaba,MABARIC PHCU,Mabaric PHCU,6.504820,29.874850,84061,15,PHCU,,
458,Lakes,Rumbek East,Aduel,MABOR DUANG PHCU,Mabor Duang PHCU,6.518030,29.839220,84051,15,PHCU,,
450,Lakes,Yirol East,Malek,MADING/THIAN PHCU,Mading/Thian PHCU,6.456030,31.170130,84089,15,PHCU,,
437,Lakes,Yirol West,Anuol,MAGENG PHCU,Mageng PHCU,6.321610,30.322440,84080,15,PHCU,,
463,Lakes,Rumbek East,Aduel,MAJAKJIER PHCU,Majakjier PHCU,6.560290,29.849910,84059,15,PHCU,,
480,Lakes,Wulu,Bargel,MAKEMBELLA PHCU,Makembella PHCU,6.649510,29.651330,84038,15,PHCU,,
479,Lakes,Rumbek Centre,Jiir,MAKEMBELLE PHCC,Makembelle PHCC,6.643950,29.650570,84032,14,PHCC,,
470,Lakes,Wulu,Bargel,MAKOOR PHCU,Makoor PHCU,6.600477,29.309978,84035,15,PHCU,,
531,Lakes,Rumbek Centre,Malek,MALEK PHCU,Malek PHCU,7.205870,29.719940,84020,15,PHCU,,
496,Lakes,Yirol East,Malek,MALEK PHCU,Malek PHCU,6.721100,30.796340,84090,15,PHCU,,
492,Lakes,Rumbek East,Maleng-agok,MALENG AGOLA PHCU,Maleng Agola PHCU,6.708890,29.763090,84066,15,PHCU,,
489,Lakes,Rumbek Centre,Jiir,MALOU MEDI. CORPS,Malou Medi. Corps,6.690968,29.661028,84033,14,PHCC,,
529,Lakes,Cueibet,Malon Pec,MALOU PEC PHCU,Malou Pec PHCU,7.110418,29.029535,84011,15,PHCU,,
445,Lakes,Rumbek East,,MALOU PHCU,Malou PHCU,6.434490,29.759610,84064,15,PHCU,,
509,Lakes,Rumbek Centre,Matangai,MALTESER INT. PHCC,Malteser Int. PHCC,6.817300,29.666160,84016,14,PHCC,,
504,Lakes,Rumbek Centre,Jiir,MALUAL BAB PHCC,Malual Bab PHCC,6.800170,29.675440,84029,14,PHCC,,
440,Lakes,Yirol West,Mapuordit,MARY IMMACULATE HOSP,Mary Immaculate Hosp,6.337700,30.072410,84085,13,County Hospital,,
474,Lakes,Rumbek East,,MATHIANG KOK PHCU,Mathiang Kok PHCU,6.626220,29.746860,84062,15,PHCU,,
513,Lakes,Rumbek Centre,Malek,MATHIANG PHCU,Mathiang PHCU,6.867260,29.639330,84023,15,PHCU,,
523,Lakes,Cueibet,Malon Pec,MAYANTHON PHCU,Mayanthon PHCU,6.971540,29.221830,84008,15,PHCU,,
524,Lakes,Cueibet,Abiriu,MAYATH PHCU,Mayath PHCU,6.990320,29.328760,84001,15,PHCU,,
488,Lakes,Wulu,Bargel,MUORKUEC PHCU,Muorkuec PHCU,6.688380,29.502230,84037,15,PHCU,,
435,Lakes,Wulu,Domoloto,NUKTAMAGA (DOMOTOLO),Nuktamaga (Domotolo),6.246550,29.619730,84042,15,PHCU,,
514,Lakes,Rumbek Centre,Matangai,NYANG KOOT PHCU,Nyang Koot PHCU,6.870410,29.671450,84018,15,PHCU,,
491,Lakes,Yirol East,Lekakedu,NYANG PHCC,Nyang PHCC,6.707940,30.605540,84110,14,PHCC,,
444,Lakes,Yirol West,Geng-geng,PABUR PHCU,Pabur PHCU,6.432610,30.598990,84075,15,PHCU,,
490,Lakes,Rumbek East,Pacong,PACONG PHCC,Pacong PHCC,6.692740,29.789070,84048,14,PHCC,,
499,Lakes,Yirol East,Pagarau,PAGARAW PHCU,Pagaraw PHCU,6.740650,30.408290,84101,14,PHCC,,
502,Lakes,Rumbek East,Paloch,PALOK PHCU,Palok PHCU,6.767230,30.102660,84067,15,PHCU,,
484,Lakes,Rumbek East,Pacong,PANAWACH PHCU,Panawach PHCU,6.675850,29.813630,84047,15,PHCU,,
468,Lakes,Yirol West,Ghar (Gher),PANDIT PHCU,Pandit PHCU,6.594160,30.150390,84079,15,PHCU,,
467,Lakes,Yirol West,Abang,PANKAR PHCU,Pankar PHCU,6.577650,30.478340,84072,15,PHCU,,
434,Lakes,Yirol West,Anuol,PING PATH PHCU,Ping Path PHCU,6.242040,30.421940,84081,15,PHCU,,
447,Lakes,Yirol East,Malek,RAMCHIEL PHCU,Ramchiel PHCU,6.438250,30.967670,84092,15,PHCU,,
507,Lakes,Rumbek Centre,Jiir,RUMBEK CENTER PRISON,Rumbek Center Prison,6.807360,29.676030,84028,14,PHCC,,
505,Lakes,Rumbek Centre,Jiir,RUMBEK SEC SCH CLINI,Rumbek Sec Sch Clini,6.801040,29.686920,84026,15,PHCU,,
508,Lakes,Rumbek Centre,Matangai,RUMBEK STATE HOSP.,Rumbek State Hosp.,6.810214,29.678024,84015,12,State Hospital,,
527,Lakes,Yirol East,Adior,SHAMBE PHCU,Shambe PHCU,7.105740,30.773840,84086,15,PHCU,,
460,Lakes,Yirol West,Yirol,ST. JOSEPH HOSPITAL,St. Joseph Hospital,6.548280,30.494880,84077,13,County Hospital,,
511,Lakes,Cueibet,Ngap,ST.JOSEPHINE BAKHITA,St.Josephine Bakhita,6.851130,29.222010,84005,17,Specialized Hospital,,
487,Lakes,Yirol East,Yali,THONABUTKOK PHCU,Thonabutkok PHCU,6.678890,30.415900,84095,15,PHCU,,
532,Lakes,Cueibet,Citcok,TIAPTIAP PHCU,Tiaptiap PHCU,7.325156,29.324202,84014,15,PHCU,,
443,Lakes,Rumbek East,Atiaba,TILKUC PHCC,Tilkuc PHCC,6.431320,29.901120,84056,14,PHCC,,
439,Lakes,Wulu,Wulu,TONJO PHCU,Tonjo PHCU,6.332184,29.726893,84046,15,PHCU,,
455,Lakes,Rumbek East,Atiaba,WARLIET PHCU,Warliet PHCU,6.499230,29.972010,84052,15,PHCU,,
431,Lakes,Wulu,Domoloto,WOKOU PHCU,Wokou PHCU,6.093820,29.767990,84040,15,PHCU,,
457,Lakes,Wulu,Wulu,WULU PHCC,Wulu PHCC,6.508636,29.627166,84044,14,PHCC,,
461,Lakes,Yirol West,Yirol,YIROL COUNTY HOSP.,Yirol County Hosp.,6.553310,30.501720,84078,13,County Hospital,,
483,Lakes,Yirol East,Yali,YOLI PHCU,Yoli PHCU,6.657580,30.482870,84093,15,PHCU,,
536,Northern Bahr el Ghazal,Aweil Centre,Abul,ABUL,Abul,7.431990,26.415400,82070,15,PHCU,,
537,Northern Bahr el Ghazal,Aweil Centre,Abul,AWODA PHCC,Awoda PHCC,8.040700,26.502080,82049,14,PHCC,Functional,
540,Northern Bahr el Ghazal,Aweil Centre,Achana,UMORA PHCU,Umora PHCU,8.264410,26.341800,82078,15,PHCU,,
541,Northern Bahr el Ghazal,Aweil Centre,Aroyo,AROYO,Aroyo,8.403320,26.512590,82092,14,PHCC,Functional,
544,Northern Bahr el Ghazal,Aweil Centre,Aroyo,KUOM PHCU,Kuom PHCU,8.431890,27.245770,82063,15,PHCU,Functional,
538,Northern Bahr el Ghazal,Aweil Centre,Bhar Mayen,BARMAYEN PHCU,Barmayen PHCU,8.214940,27.364560,82082,15,PHCU,Functional,
539,Northern Bahr el Ghazal,Aweil Centre,Bhar Mayen,BAU PHCU,Bau PHCU,8.255700,27.453000,82076,15,PHCU,,
558,Northern Bahr el Ghazal,Aweil Centre,Chel South,AKUANGKAR,Akuangkar,8.809420,26.850140,82081,15,PHCU,Functional,
567,Northern Bahr el Ghazal,Aweil Centre,Chel South,NYINLEL PHCU,Nyinlel PHCU,8.949430,26.904200,82042,15,PHCU,Functional,
543,Northern Bahr el Ghazal,Aweil Centre,Nyalath,NYALATH PHCU,Nyalath PHCU,8.424180,27.170660,82086,15,PHCU,Functional,
549,Northern Bahr el Ghazal,Aweil Centre,,AWILIC PHCU,Awilic PHCU,8.501990,27.252120,82048,15,PHCU,Functional,
636,Northern Bahr el Ghazal,Aweil East,Baach,BAKON PHCU,Bakon PHCU,9.437410,27.716810,82023,15,PHCU,,
572,Northern Bahr el Ghazal,Aweil East,Baach,CUOMATOR PHCU,Cuomator PHCU,8.997280,27.541480,82033,15,PHCU,Functional,
570,Northern Bahr el Ghazal,Aweil East,Baach,GOLDHIM TB HOSPITAL,Goldhim Tb Hospital,8.987520,27.593270,82010,17,Specialized Hospital,,
574,Northern Bahr el Ghazal,Aweil East,Baach,MABIL PHCC,Mabil PHCC,9.002610,27.579960,82012,14,PHCC,Functional,
533,Northern Bahr el Ghazal,Aweil East,Baach,MAJOKAKEN PHCU,Majokaken PHCU,4.851400,31.855340,82031,15,PHCU,Functional,
579,Northern Bahr el Ghazal,Aweil East,Baach,MALUALKON PHCC,Malualkon PHCC,9.013590,27.624809,82016,14,PHCC,Functional,
629,Northern Bahr el Ghazal,Aweil East,Baach,OMDURAMAN PHCU,Omduraman PHCU,9.234350,27.511990,82034,15,PHCU,Functional,
534,Northern Bahr el Ghazal,Aweil East,Baach,RUMWET KOR PHCU,Rumwet Kor PHCU,4.851400,31.585340,82035,15,PHCU,Functional,
582,Northern Bahr el Ghazal,Aweil East,Baach,WARAWAR PHCU,Warawar PHCU,9.016810,27.626780,82030,15,PHCU,Functional,
591,Northern Bahr el Ghazal,Aweil East,Madhol,AMAR JAL PHCU,Amar Jal PHCU,9.055530,27.678060,82027,15,PHCU,,
616,Northern Bahr el Ghazal,Aweil East,Madhol,AMETH AKOK PHCU,Ameth Akok PHCU,9.128640,27.769170,82026,15,PHCU,,
588,Northern Bahr el Ghazal,Aweil East,Madhol,MADHOL PHCU,Madhol PHCU,9.038720,27.702980,82037,15,PHCU,Functional,
628,Northern Bahr el Ghazal,Aweil East,Madhol,RUMROL PHCU,Rumrol PHCU,9.216930,27.706200,82014,15,PHCU,Functional,
638,Northern Bahr el Ghazal,Aweil East,Malual-bai,ADOOR PHCU,Adoor PHCU,9.446560,27.749860,82018,15,PHCU,Functional,
602,Northern Bahr el Ghazal,Aweil East,Malual-bai,AMETH PHCU,Ameth PHCU,9.085580,27.897150,82011,15,PHCU,Functional,
571,Northern Bahr el Ghazal,Aweil East,Malual-bai,ATUCT PHCU,Atuct PHCU,8.993910,27.756250,82029,15,PHCU,Non Functional,
592,Northern Bahr el Ghazal,Aweil East,Malual-bai,MALUAL BAAI PHCC,Malual Baai PHCC,9.059250,27.759880,82032,14,PHCC,Functional,
639,Northern Bahr el Ghazal,Aweil East,Mangar-tong I,MABOK TONG PHCU,Mabok Tong PHCU,9.979680,27.771067,82019,15,PHCU,Functional,
573,Northern Bahr el Ghazal,Aweil East,Mangar-tong I,MANGAR-TONG PHCU,Mangar-Tong PHCU,9.074190,27.548580,82024,15,PHCU,Functional,
561,Northern Bahr el Ghazal,Aweil East,Mangar-tong I,NYANRUET PHCU,Nyanruet PHCU,8.879420,27.480590,82009,15,PHCU,,
620,Northern Bahr el Ghazal,Aweil East,Mangar-tong I,RIAL DIIT PHCC,Rial Diit PHCC,9.136740,27.510980,82021,15,PHCU,Functional,
559,Northern Bahr el Ghazal,Aweil East,Mangar-tong I,TIT-CHOK PHCU,Tit-Chok PHCU,8.858620,27.539770,82020,15,PHCU,Functional,
580,Northern Bahr el Ghazal,Aweil East,Mangar-tong I,WONYJOK PHCC,Wonyjok PHCC,9.014000,27.568270,82028,14,PHCC,,
637,Northern Bahr el Ghazal,Aweil East,Mangok,MAJOK YITH THIOU,Majok Yith Thiou,9.695580,27.787320,82038,15,PHCU,Functional,
589,Northern Bahr el Ghazal,Aweil East,Mangok,MANGOK PHCU,Mangok PHCU,9.042560,27.385960,82017,15,PHCU,Functional,
569,Northern Bahr el Ghazal,Aweil East,Mangok,PETH PHCU,Peth PHCU,8.964470,27.797250,82001,15,PHCU,Functional,
597,Northern Bahr el Ghazal,Aweil East,Mangok,RUMWEL PHCU,Rumwel PHCU,9.073500,27.850880,82036,15,PHCU,Functional,
635,Northern Bahr el Ghazal,Aweil East,Wunlang,MALUAL KUEL PCHU,Malual Kuel Pchu,9.428450,27.301810,82022,15,PHCU,Functional,
535,Northern Bahr el Ghazal,Aweil East,Wunlang,RUPAKER PHCU,Rupaker PHCU,4.851400,31.855340,82008,15,PHCU,,
587,Northern Bahr el Ghazal,Aweil East,Wunlang,WUTLANG PHCU,Wutlang PHCU,9.035850,27.512760,82015,15,PHCU,,
568,Northern Bahr el Ghazal,Aweil East,Yargot,AKUEM CIVIL HOSPITAL,Akuem Civil Hospital,8.962100,27.500690,82025,13,County Hospital,Functional,
633,Northern Bahr el Ghazal,Aweil East,Yargot,MALUAL DIT PHCU,Malual Dit PHCU,9.249830,27.343910,82039,15,PHCU,Functional,
577,Northern Bahr el Ghazal,Aweil East,Yargot,YARGOT PHCU,Yargot PHCU,9.008130,27.459180,82040,15,PHCU,Functional,
632,Northern Bahr el Ghazal,Aweil East,,LIETH PHCU,Lieth PHCU,9.247280,27.783610,82013,15,PHCU,Functional,
593,Northern Bahr el Ghazal,Aweil North,Ariath,ARIATH,Ariath,9.061800,27.132050,82075,15,PHCU,Functional,
605,Northern Bahr el Ghazal,Aweil North,Ariath,KAJIK,Kajik,9.100070,27.081240,82077,15,PHCU,Functional,
626,Northern Bahr el Ghazal,Aweil North,Malual Centre,AJAK WOL,Ajak Wol,9.194510,27.061470,82101,15,PHCU,Functional,
606,Northern Bahr el Ghazal,Aweil North,Malual Centre,MUTUIC PHCU,Mutuic PHCU,9.101150,27.020890,82103,15,PHCU,,
614,Northern Bahr el Ghazal,Aweil North,Malual Centre,PAMAT,Pamat,9.125150,27.000240,82073,15,PHCU,Functional,
634,Northern Bahr el Ghazal,Aweil North,Malual East,JAAC PHCU,Jaac PHCU,9.264970,27.084250,82068,15,PHCU,Functional,
585,Northern Bahr el Ghazal,Aweil North,Malual East,JAAC PPF PHCU,Jaac Ppf PHCU,9.028260,27.081000,82098,15,PHCU,,
625,Northern Bahr el Ghazal,Aweil North,Malual East,MABIOR ANGUI,Mabior Angui,9.173180,27.133450,82099,15,PHCU,Functional,
600,Northern Bahr el Ghazal,Aweil North,Malual East,MAKUAC AKEC,Makuac Akec,9.083810,27.180330,82094,15,PHCU,Functional,
627,Northern Bahr el Ghazal,Aweil North,Malual East,MALUAL DENG ARUOM,Malual Deng Aruom,9.211590,27.114430,82083,15,PHCU,Functional,
583,Northern Bahr el Ghazal,Aweil North,Malual East,MAYEN ULOM,Mayen Ulom,9.021370,27.170740,82055,15,PHCU,Functional,
618,Northern Bahr el Ghazal,Aweil North,Malual East,RUMADING,Rumading,9.132740,27.173600,82102,15,PHCU,Functional,
631,Northern Bahr el Ghazal,Aweil North,Malual East,WARAPEI,Warapei,9.242620,27.084670,82091,15,PHCU,Functional,
578,Northern Bahr el Ghazal,Aweil North,Malual East,WARGENG PHCU,Wargeng PHCU,9.011970,27.215490,82041,15,PHCU,Functional,
581,Northern Bahr el Ghazal,Aweil North,Malual East,WATHOK PHCU,Wathok PHCU,9.015100,27.134740,82067,15,PHCU,Functional,
550,Northern Bahr el Ghazal,Aweil North,Malual North,AKUAKOC,Akuakoc,8.565270,26.235120,82059,15,PHCU,,
613,Northern Bahr el Ghazal,Aweil North,Malual North,AYAI,Ayai,9.123450,26.494290,82093,15,PHCU,Functional,
615,Northern Bahr el Ghazal,Aweil North,Malual North,GOKMACER,Gokmacer,9.125620,26.515850,82056,14,PHCC,Functional,
623,Northern Bahr el Ghazal,Aweil North,Malual North,MAROL DENG GENG,Marol Deng Geng,9.144800,27.034710,82095,15,PHCU,Functional,
609,Northern Bahr el Ghazal,Aweil North,Malual North,MAYOM ADHEL,Mayom Adhel,9.115630,26.572820,82104,15,PHCU,Functional,
604,Northern Bahr el Ghazal,Aweil North,Malual North,PETH PHCU,Peth PHCU,9.094620,26.541750,82071,15,PHCU,Functional,
611,Northern Bahr el Ghazal,Aweil North,Malual North,ROINGUT,Roingut,9.120100,26.552450,82058,15,PHCU,Functional,
596,Northern Bahr el Ghazal,Aweil North,Malual West,AKUAK MALUAL,Akuak Malual,9.070230,26.380360,82087,15,PHCU,Functional,
552,Northern Bahr el Ghazal,Aweil North,Malual West,JURBEECH,Jurbeech,8.581160,26.230940,82088,15,PHCU,,
595,Northern Bahr el Ghazal,Aweil North,Malual West,MAJAKBAI PHCC,Majakbai PHCC,9.065890,26.473630,82072,14,PHCC,Functional,
601,Northern Bahr el Ghazal,Aweil North,Malual West,MANYIEL,Manyiel,9.084650,26.513860,82089,15,PHCU,Functional,
608,Northern Bahr el Ghazal,Aweil North,Malual West,WARCHUEI,Warchuei,9.103360,26.442530,82060,15,PHCU,Functional,
630,Northern Bahr el Ghazal,Aweil North,,CHALEEK PHCU,Chaleek PHCU,9.241690,27.111010,82084,15,PHCU,Functional,
548,Northern Bahr el Ghazal,Aweil South,Ayai,AYAI PHCU,Ayai PHCU,8.490574,27.405246,82005,15,PHCU,Functional,
554,Northern Bahr el Ghazal,Aweil South,Gakrol,WUNCUM,Wuncum,8.661580,27.677160,82109,15,PHCU,Functional,
547,Northern Bahr el Ghazal,Aweil South,Nyieth,NYETH PHCU,Nyeth PHCU,8.472094,27.483328,82003,15,PHCU,Functional,
553,Northern Bahr el Ghazal,Aweil South,Nyocawany I,MALEKALEL,Malekalel,8.588820,27.594330,82108,15,PHCU,Functional,
546,Northern Bahr el Ghazal,Aweil South,Tiar-aleit,TIERALIET PHCU,Tieraliet PHCU,8.465660,27.533560,82007,15,PHCU,Functional,
542,Northern Bahr el Ghazal,Aweil South,Wathmuok (Wuthmuok),WATHMUOK PHCU,Wathmuok PHCU,8.696930,27.681300,82006,15,PHCU,Functional,
590,Northern Bahr el Ghazal,Aweil West,Ayat Centre,MAYOM PHCU,Mayom PHCU,9.054100,26.424009,82061,15,PHCU,Functional,
610,Northern Bahr el Ghazal,Aweil West,Ayat Centre,WUNGIIR,Wungiir,9.119820,26.755970,82045,15,PHCU,Functional,
594,Northern Bahr el Ghazal,Aweil West,Ayat East,MALEKA DERA,Maleka Dera,9.064900,26.784160,82064,15,PHCU,Functional,
607,Northern Bahr el Ghazal,Aweil West,Ayat East,MARIALBAI,Marialbai,9.102560,26.850880,82053,14,PHCC,Functional,
599,Northern Bahr el Ghazal,Aweil West,Ayat East,PANLANG,Panlang,9.081550,29.847480,82051,15,PHCU,,
566,Northern Bahr el Ghazal,Aweil West,Ayat West,AKUAKRAK PHCU,Akuakrak PHCU,8.947960,26.397440,82066,15,PHCU,Functional,
603,Northern Bahr el Ghazal,Aweil West,Ayat West,MAKUOC,Makuoc,9.087500,26.629710,82044,15,PHCU,Functional,
584,Northern Bahr el Ghazal,Aweil West,Ayat West,NYINBULI SAFE HARBOR INT. RELIEF,Nyinbuli Safe Harbor Int. Relief,9.021630,26.507000,82065,14,PHCC,Functional,
586,Northern Bahr el Ghazal,Aweil West,Gomjuer Centre,ALUEL ACOT,Aluel Acot,9.033210,27.028290,82096,15,PHCU,Functional,
624,Northern Bahr el Ghazal,Aweil West,Gomjuer Centre,ANGOL PHCU,Angol PHCU,9.150550,27.055180,82046,15,PHCU,Functional,
622,Northern Bahr el Ghazal,Aweil West,Gomjuer Centre,NYAMLEL,Nyamlel,9.138520,26.982480,82074,14,PHCC,Functional,
619,Northern Bahr el Ghazal,Aweil West,Gomjuer Centre,NYAMLEL NEW LIFE MINISTRY,Nyamlel New Life Ministry,9.134410,26.987750,82062,14,PHCC,Functional,
598,Northern Bahr el Ghazal,Aweil West,Gomjuer East,AGUAT PHCU,Aguat PHCU,9.074240,27.091020,82050,15,PHCU,Functional,
621,Northern Bahr el Ghazal,Aweil West,Gomjuer East,TB HOSPITAL NYAMLEL,Tb Hospital Nyamlel,9.138110,26.982620,82052,17,Specialized Hospital,,
576,Northern Bahr el Ghazal,Aweil West,Gomjuer East,WEDWEIL,Wedweil,9.007360,27.197880,82097,15,PHCU,Functional,
575,Northern Bahr el Ghazal,Aweil West,Gomjuer East,WEDWIEL MOH,Wedwiel Moh,9.006650,27.197820,82047,14,PHCC,,
617,Northern Bahr el Ghazal,Aweil West,Gomjuer West,ANYOPJANG PHCU,Anyopjang PHCU,9.131611,26.980301,82079,15,PHCU,Functional,
551,Northern Bahr el Ghazal,Aweil West,Gomjuer West,CHELCOU,Chelcou,8.575870,26.513860,82100,14,PHCC,Functional,
557,Northern Bahr el Ghazal,Aweil West,Mariem East,AWEIL CIVIL HOSPITAL,Aweil Civil Hospital,8.768120,27.398930,82107,12,State Hospital,Functional,
545,Northern Bahr el Ghazal,Aweil West,Mariem East,AWEIL MILITARY HOSP.,Aweil Military Hosp.,8.753390,27.380100,82105,96,Other,,
556,Northern Bahr el Ghazal,Aweil West,Mariem East,AWEIL POLICE HOSPITAL,Aweil Police Hospital,8.767450,27.405150,82106,96,Other,,
564,Northern Bahr el Ghazal,Aweil West,Mariem East,MAGER,Mager,8.905810,27.368230,82057,15,PHCU,Functional,
560,Northern Bahr el Ghazal,Aweil West,Mariem East,RUALNGOL,Rualngol,8.868560,27.384710,82085,15,PHCU,Functional,
555,Northern Bahr el Ghazal,Aweil West,Mariem East,RUPTIT,Ruptit,8.764250,27.214310,82080,15,PHCU,,
563,Northern Bahr el Ghazal,Aweil West,Mariem West,AMOTHIC,Amothic,8.898080,27.166290,82043,15,PHCU,Functional,
565,Northern Bahr el Ghazal,Aweil West,Mariem West,MAKER,Maker,8.913560,27.333000,82054,15,PHCU,Functional,
562,Northern Bahr el Ghazal,Aweil West,Mariem West,UDHUOM,Udhuom,8.886150,27.253030,82090,15,PHCU,Functional,
612,Northern Bahr el Ghazal,Aweil West,,MAPER NGOK,Maper Ngok,9.120520,27.071860,82069,15,PHCU,Functional,
879,Unity,Abiemnhom,Abiemnhom,ABIEMNOM PHCC,Abiemnom PHCC,9.039874,28.082340,73104,14,PHCC,,
882,Unity,Abiemnhom,Aworpiny (Awerpiny),AWAR PIINY,Awar Piiny,9.047362,28.088828,73103,15,PHCU,,
880,Unity,Abiemnhom,Aworpiny (Awerpiny),PANYANG,Panyang,9.040910,28.091259,73100,15,PHCU,,
881,Unity,Abiemnhom,Aworpiny (Awerpiny),PATHIEW FUNCTIONAL,Pathiew Functional,9.041775,28.083657,73102,16,Private Clinic,,
877,Unity,Abiemnhom,,ABEMNOM,Abemnom,9.036367,28.084842,73101,15,PHCU,,
891,Unity,Guit,Kedad,KEDAT PHCU,Kedat PHCU,9.121040,30.061480,73112,15,PHCU,,
865,Unity,Guit,Kuach,DUAR PHCU,Duar PHCU,8.855840,29.922710,73113,15,PHCU,,
868,Unity,Guit,Kuach,KWACH PHCU,Kwach PHCU,8.902070,30.029470,73107,15,PHCU,,
895,Unity,Guit,Kuerguini,KUER GUINI PHCU,Kuer Guini PHCU,9.260680,29.891020,73116,15,PHCU,,
898,Unity,Guit,Kuerguini,THOAN PHCC,Thoan PHCC,9.291690,29.837810,73114,15,PHCU,,
893,Unity,Guit,Niemni,GUIT PHCC,Guit PHCC,9.158310,29.910600,73105,14,PHCC,,
900,Unity,Guit,Niemni,NIEMNI PHCU,Niemni PHCU,9.306460,30.026310,73109,15,PHCU,,
904,Unity,Guit,Niemni,WATHNYOTNI PHCU,Wathnyotni PHCU,9.492750,29.893770,73115,15,PHCU,,
901,Unity,Guit,Nyathoar,NYATHAR PHCU,Nyathar PHCU,9.311700,29.977020,73111,15,PHCU,,
902,Unity,Guit,,BIL PHCU,Bil PHCU,9.327330,30.042470,73108,15,PHCU,,
887,Unity,Guit,,CHOL YIEL PHCU,Chol Yiel PHCU,9.070580,29.925620,73106,15,PHCU,,
864,Unity,Koch,Gany,BOAW PHCC,Boaw PHCC,8.843790,29.729600,73063,14,PHCC,,
857,Unity,Koch,Gany,GANY PHCU,Gany PHCU,8.477360,29.958760,73059,15,PHCU,,
858,Unity,Koch,Gany,KOCH PHCC,Koch PHCC,8.599840,29.989890,73030,14,PHCC,,
861,Unity,Koch,Jaak,JAAK PHCU,Jaak PHCU,8.745580,30.005410,73061,15,PHCU,,
862,Unity,Koch,Jaak,RIER PHCU,Rier PHCU,8.782960,30.100230,73060,15,PHCU,,
855,Unity,Koch,Ngony (Nyony),MIRMIR PHCC,Mirmir PHCC,8.464600,30.102250,73057,14,PHCC,,
856,Unity,Koch,Ngony (Nyony),NGONG PHCU,Ngong PHCU,8.470660,30.071160,73058,15,PHCU,,
850,Unity,Koch,Norbor,NOR BOR,Nor Bor,8.404830,29.958850,73078,15,PHCU,,
863,Unity,Koch,Pakur,BUOTH PHCU,Buoth PHCU,8.807590,29.618190,73066,15,PHCU,,
859,Unity,Koch,Pakur,PAKUR PHCU,Pakur PHCU,8.628750,29.734990,73067,15,PHCU,,
860,Unity,Koch,Pakur,WUMLIET PHCU,Wumliet PHCU,8.694160,29.632880,73065,15,PHCU,,
866,Unity,Koch,,TUET PHCU,Tuet PHCU,8.870940,29.744870,73062,15,PHCU,,
838,Unity,Leer,Bou,DINDIN PHCU,Dindin PHCU,8.305920,30.231890,73016,15,PHCU,,
842,Unity,Leer,Bou,LEER PHCU,Leer PHCU,8.333390,30.198600,73012,15,PHCU,,
843,Unity,Leer,Bou,PHORNOR PHCU,Phornor PHCU,8.353860,30.168220,73013,15,PHCU,,
846,Unity,Leer,,GUAT PHCU,Guat PHCU,8.383390,30.144600,73015,15,PHCU,,
839,Unity,Leer,,HOSPITAL LEER,Hospital Leer,8.309620,30.131500,73010,16,Private Clinic,,
851,Unity,Leer,,PADEANG PHCU,Padeang PHCU,8.405430,30.186600,73008,15,PHCU,,
836,Unity,Leer,,PRIMAR HEALTH CARE U,Primar Health Care U,8.265360,30.201120,73011,15,PHCU,,
835,Unity,Leer,,THONYOR PHCC,Thonyor PHCC,8.222650,30.219590,73014,14,PHCC,,
834,Unity,Mayendit,Bor,ADOKBAK PHCC,Adokbak PHCC,8.187980,30.306360,73017,14,PHCC,,
833,Unity,Mayendit,Bor,POULOUL PHCU,Pouloul PHCU,8.174280,30.060010,73025,15,PHCU,,
824,Unity,Mayendit,Bor,PRIMARY CARE UNIT,Primary Care Unit,7.893860,29.960820,73045,15,PHCU,,
840,Unity,Mayendit,Dablual (Daplual),DAB LUAL P.H.C UNIT,Dab Lual P.H.C Unit,8.318750,30.007810,73087,15,PHCU,,
825,Unity,Mayendit,Dablual (Daplual),MADOOL PHCU,Madool PHCU,7.903380,29.842110,73027,15,PHCU,,
854,Unity,Mayendit,Luom,LANLEER PHCU,Lanleer PHCU,8.443570,30.198120,73022,15,PHCU,,
849,Unity,Mayendit,Luom,LOUM PHCU,Loum PHCU,8.397800,30.129560,73024,15,PHCU,,
830,Unity,Mayendit,Pabuong,DHOR THIER PHCU,Dhor Thier PHCU,8.125960,29.982950,73089,15,PHCU,,
829,Unity,Mayendit,Pabuong,PABUONG PHCU,Pabuong PHCU,8.123880,30.005800,73090,15,PHCU,,
845,Unity,Mayendit,Rubkuay,DHORNYIEN P.H.C UNIT,Dhornyien P.H.C Unit,8.383040,30.034070,73086,15,PHCU,,
847,Unity,Mayendit,Rubkuay,PHCC,PHCC,8.391780,30.078580,73081,14,PHCC,,
852,Unity,Mayendit,Rubkuay,RUBNOR P.H.C UNIT,Rubnor P.H.C Unit,8.427100,30.115110,73084,15,PHCU,,
853,Unity,Mayendit,Thaker,P.H.CARE UNIT,P.H.Care Unit,8.440720,30.070180,73083,15,PHCU,,
837,Unity,Mayendit,Tharjiath,LANGBIL NYIER PHCU,Langbil Nyier PHCU,8.266800,29.815950,73026,15,PHCU,,
848,Unity,Mayendit,Tharjiath,THAKKER PHCU,Thakker PHCU,8.393140,30.049370,73082,15,PHCU,,
832,Unity,Mayendit,,MALKUER PHCU,Malkuer PHCU,8.163220,29.942980,73009,15,PHCU,,
831,Unity,Mayendit,,PRIMARY HEALTH CARE,Primary Health Care,8.131790,30.016590,73046,14,PHCC,,
841,Unity,Mayendit,,RIERI PHCU,Rieri PHCU,8.321180,30.067210,73088,15,PHCU,,
844,Unity,Mayendit,,TUTNYANG PHCU,Tutnyang PHCU,8.359710,30.100450,73085,15,PHCU,,
872,Unity,Mayom,Bieh,BIEL PHCU,Biel PHCU,9.010203,28.079719,73005,15,PHCU,,
828,Unity,Mayom,Kuerbuone (Kuerbona),BUOTH PHCU,Buoth PHCU,8.097339,29.037781,73021,15,PHCU,,
874,Unity,Mayom,Kuerbuone (Kuerbona),MAYOM PHCC,Mayom PHCC,9.022217,29.017567,73002,14,PHCC,,
875,Unity,Mayom,Kueryiek (Kuer-Yiek),KUER PHCU,Kuer PHCU,9.024600,28.847430,73007,15,PHCU,,
884,Unity,Mayom,Mankien,MANKIEN,Mankien,9.052120,29.090010,73003,14,PHCC,,
870,Unity,Mayom,Mankien,WANAM PHCU,Wanam PHCU,9.002841,29.001921,73018,15,PHCU,,
892,Unity,Mayom,Ngop,NGOP PHCU,Ngop PHCU,9.122610,28.951350,73006,15,PHCU,,
873,Unity,Mayom,Pup (Pub),PUOP PHCU,Puop PHCU,9.021917,29.001670,73004,15,PHCU,,
827,Unity,Mayom,Riak,REIK PHCU,Reik PHCU,8.091313,29.027647,73001,15,PHCU,,
826,Unity,Mayom,Riak,TURKEY PHCU,Turkey PHCU,8.079711,29.058753,73019,15,PHCU,,
878,Unity,Mayom,Ruathnyibuol (Ruathnyibol),RUATH NYIBOL PHCU,Ruath Nyibol PHCU,9.036990,28.921970,73023,15,PHCU,,
871,Unity,Mayom,Wangkei,WANG KAI PHCC,Wang Kai PHCC,9.008799,29.045546,73020,14,PHCC,,
811,Unity,Panyijar,Kol,KOL PHCU,Kol PHCU,7.598200,30.255910,73074,15,PHCU,,
812,Unity,Panyijar,Kol,KUOL PHCU,Kuol PHCU,7.616180,30.220280,73035,15,PHCU,,
809,Unity,Panyijar,Kol,MACHAK PHCU,Machak PHCU,7.517150,30.267570,73093,15,PHCU,,
815,Unity,Panyijar,Kol,MAJAK PHCU,Majak PHCU,7.685150,30.216340,73028,15,PHCU,,
814,Unity,Panyijar,Kol,PATHEL PHCU,Pathel PHCU,7.654960,30.247840,73079,15,PHCU,,
823,Unity,Panyijar,Mayom,GARBEG PHCU,Garbeg PHCU,7.801100,30.114370,73033,15,PHCU,,
821,Unity,Panyijar,Mayom,KANYNHIAL PHCU,Kanynhial PHCU,7.776670,30.117960,73039,15,PHCU,,
820,Unity,Panyijar,Mayom,MALUAK PHCU,Maluak PHCU,7.745450,30.151090,73040,15,PHCU,,
818,Unity,Panyijar,Mayom,MAYOM PHCU,Mayom PHCU,7.705190,30.073650,73032,15,PHCU,,
816,Unity,Panyijar,Nyal,JANY LOW PHCU,Jany Low PHCU,7.687260,30.234190,73054,15,PHCU,,
822,Unity,Panyijar,Nyal,MEEK ISLAND PHCU,Meek Island PHCU,7.782810,30.306360,73069,15,PHCU,,
817,Unity,Panyijar,Nyal,NYADONG PHCU,Nyadong PHCU,7.704070,30.203390,73037,15,PHCU,,
819,Unity,Panyijar,Nyal,NYAL PHCC,Nyal PHCC,7.723750,30.248580,73080,14,PHCC,,
905,Unity,Panyijar,Nyal,YUP PHCU,Yup PHCU,9.726480,30.182370,73041,15,PHCU,,
798,Unity,Panyijar,Pachaar,PABAR PHCU,Pabar PHCU,7.345220,30.420520,73031,15,PHCU,,
793,Unity,Panyijar,Pachak,MORKNGOK PHCU,Morkngok PHCU,7.261680,30.423990,73075,15,PHCU,,
794,Unity,Panyijar,Pachak,PACHAK PHCU,Pachak PHCU,7.292920,30.446360,73071,15,PHCU,,
797,Unity,Panyijar,Pachak,PACHAR PHCU,Pachar PHCU,7.317860,30.420740,73072,15,PHCU,,
796,Unity,Panyijar,Pachienjok,PACHIENJOK,Pachienjok,7.313420,30.462700,73077,15,PHCU,,
795,Unity,Panyijar,Pachienjok,PAKAM PHCU,Pakam PHCU,7.293520,30.470670,73076,15,PHCU,,
813,Unity,Panyijar,Panyijar,Paliay PHCU,Paliay PHCU,7.638800,3.203330,73036,15,PHCU,,
806,Unity,Panyijar,Panyijiar (Payinjar),CHUK PHCU,Chuk PHCU,7.452210,30.281270,73092,15,PHCU,,
808,Unity,Panyijar,Panyijiar (Payinjar),HAYKUR PHCC,Haykur PHCC,7.491790,30.312270,73073,15,PHCU,,
800,Unity,Panyijar,Thoarnhoum (Thoarnhom),DHOR MANYANG PHCU,Dhor Manyang PHCU,7.403040,30.366150,73029,15,PHCU,,
804,Unity,Panyijar,Thoarnhoum (Thoarnhom),MAKUR PHCU,Makur PHCU,7.426390,30.345660,73091,15,PHCU,,
803,Unity,Panyijar,Thoarnhoum (Thoarnhom),THOANHUOM PHCU,Thoanhuom PHCU,7.416170,30.465760,73044,15,PHCU,,
807,Unity,Panyijar,Tiap,LAE DIIT PHCU,Lae Diit PHCU,7.457660,30.401110,73068,15,PHCU,,
805,Unity,Panyijar,Tiap,PADIENG PHCU,Padieng PHCU,7.438700,30.417720,73038,15,PHCU,,
802,Unity,Panyijar,Tiap,TIAP PHCC,Tiap PHCC,7.414780,30.424030,73070,15,PHCU,,
799,Unity,Panyijar,,DEKOM PHCU,Dekom PHCU,7.358990,30.456560,73056,15,PHCU,,
801,Unity,Panyijar,,GAYANYLIEL PHCC,Gayanyliel PHCC,7.404970,30.472370,73055,14,PHCC,,
810,Unity,Panyijar,,JIELIW PHCU,Jieliw PHCU,7.595360,30.224020,73034,15,PHCU,,
888,Unity,Pariang,Aliiny (Aliny),TOOR PHCU,Toor PHCU,9.084522,29.076821,73094,15,PHCU,,
885,Unity,Pariang,Biu (Biew),BIU PHCC,Biu PHCC,9.064571,30.029749,73110,14,PHCC,,
890,Unity,Pariang,Jamjang,Jamjang PHCU,Jamjang PHCU,9.092793,30.029113,73095,15,PHCU,,
886,Unity,Pariang,Nyeel,NYEEL PHCU,Nyeel PHCU,9.069221,29.087454,73096,15,PHCU,,
889,Unity,Pariang,Pariang,PARIANG,Pariang,9.091134,29.098214,73099,14,PHCC,,
906,Unity,Pariang,,PANYANG PHCU,Panyang PHCU,10.004222,29.092587,73098,15,PHCU,,
903,Unity,Rubkona,Budaang,REANG PHCC,Reang PHCC,9.356650,29.490270,73051,14,PHCC,,
908,Unity,Rubkona,Kaljak,Bentiu State Hospital,Bentiu State Hospital,9.253500,29.802990,99999,0,Hospital,Functional,
894,Unity,Rubkona,Kaljak,CARE BENTIU,Care Bentiu,9.256030,29.795630,73053,14,PHCC,,
896,Unity,Rubkona,Kaljak,KHAL JAAK PHCC,Khal Jaak PHCC,9.276110,29.536490,73052,14,PHCC,,
869,Unity,Rubkona,Ngop,WAAK PHCC,Waak PHCC,8.929650,29.616180,73048,14,PHCC,,
907,Unity,Rubkona,Nhialdiu,Biel Bar,Biel Bar,8.978990,29.717400,73047,15,PHCU,,
883,Unity,Rubkona,Nhialdiu,BIEL CHIR PHCU,Biel Chir PHCU,9.047550,29.689430,73049,15,PHCU,,
876,Unity,Rubkona,Nhialdiu,NHIAL DIU PHCC,Nhial Diu PHCC,9.026190,29.683320,73050,14,PHCC,,
867,Unity,Rubkona,Nhialdiu,TUOCH LUAK PHCU,Tuoch Luak PHCU,8.899550,29.686590,73064,15,PHCU,,
897,Unity,Rubkona,Rubkotne (Rubkona),CARE RUBKONA,Care Rubkona,9.290230,29.789550,73042,14,PHCC,,
899,Unity,Rubkona,Rubkotne (Rubkona),NILE GANGAH B-V,Nile Gangah B-V,9.291860,29.795200,73043,14,PHCC,,
683,Upper Nile,Baliet,Abwong,ABONG PHCU,Abong PHCU,9.114580,32.205430,71008,15,PHCU,,
686,Upper Nile,Baliet,Adong,ADONG PHCU,Adong PHCU,9.243440,32.156400,71009,15,PHCU,,
722,Upper Nile,Baliet,Akoka,AKOKA PHCU,Akoka PHCU,9.739790,32.172530,71083,15,PHCU,,
727,Upper Nile,Baliet,Akoka,BIENG THIANG PHCU,Bieng Thiang PHCU,9.833490,32.037610,71031,15,PHCU,,
720,Upper Nile,Baliet,Akotweng,AKOD WIENG,Akod Wieng,9.708540,32.337300,71029,15,PHCU,,
682,Upper Nile,Baliet,Gel Achiel (Gelachiel),GELLACHOL PHCU,Gellachol PHCU,9.100830,32.369010,71028,15,PHCU,,
687,Upper Nile,Baliet,Nyongkuach,BALIET PHCC,Baliet PHCC,9.295810,32.057480,71007,14,PHCC,,
689,Upper Nile,Baliet,Nyongrial,BANGLAY PHCU,Banglay PHCU,9.337210,31.884240,71030,15,PHCU,,
730,Upper Nile,Baliet,Rom,ROM PHCU,Rom PHCU,9.882040,32.153680,71032,15,PHCU,,
745,Upper Nile,Fashoda,Dethok,ABUROC PHCU,Aburoc PHCU,10.105530,32.084820,71004,15,PHCU,,
742,Upper Nile,Fashoda,Dethok,DETWOK PHCU,Detwok PHCU,10.008130,32.181710,71025,15,PHCU,,
739,Upper Nile,Fashoda,Dethok,GOLLO PHCU,Gollo PHCU,9.960050,32.153280,71005,15,PHCU,Functional,
743,Upper Nile,Fashoda,Dethok,MALLO PHCC,Mallo PHCC,10.049140,32.208560,71006,15,PHCU,,
728,Upper Nile,Fashoda,Kodok,GLOBANY PHCU,Globany PHCU,9.856760,32.025440,71018,15,PHCU,,
733,Upper Nile,Fashoda,Kodok,KODOK HOSPITAL,Kodok Hospital,9.891610,32.115230,71002,14,PHCC,,
732,Upper Nile,Fashoda,Kodok,KODOK PHCC,Kodok PHCC,9.890490,32.116210,71063,14,PHCC,,
734,Upper Nile,Fashoda,Kodok,OTEGO PHCU,Otego PHCU,9.893930,31.992780,71019,15,PHCU,,
726,Upper Nile,Fashoda,Lul,ACHAKE PHCU,Achake PHCU,9.799890,31.982650,71020,15,PHCU,,
721,Upper Nile,Fashoda,Lul,BOL PHCU,Bol PHCU,9.727840,31.859610,71022,15,PHCU,,
724,Upper Nile,Fashoda,Lul,LUL EAST PHCU,Lul East PHCU,9.751330,31.973810,71057,15,PHCU,,
723,Upper Nile,Fashoda,Lul,LUL WEST PHCC,Lul West PHCC,9.747530,31.921910,71021,16,Private Clinic,,
729,Upper Nile,Fashoda,Lul,ORINY PHCC,Oriny PHCC,9.867840,31.889980,71023,14,PHCC,,
725,Upper Nile,Longochuk,Guelguk,GUELGUK PHCC,Guelguk PHCC,9.755510,32.980080,71115,14,PHCC,,
664,Upper Nile,Luakpiny/Nasir,Dingkar,LUAL YAK PHCU,Lual Yak PHCU,8.770170,32.977050,71054,15,PHCU,,
675,Upper Nile,Luakpiny/Nasir,Kiech Kuon,KIECH KUON,Kiech Kuon,8.951050,32.929660,71080,14,PHCC,,
678,Upper Nile,Luakpiny/Nasir,Kiech Kuon,TOLOAR PHC,Toloar Phc,9.029420,32.874740,71050,15,PHCU,,
712,Upper Nile,Maban,Boung,SHATTA PHCU,Shatta PHCU,9.534200,31.660840,71145,15,PHCU,,
704,Upper Nile,Malakal,Central Malakal,ECS PHCC,Ecs PHCC,9.525200,31.658300,71129,14,PHCC,,
706,Upper Nile,Malakal,Central Malakal,MALAKAL TEACHING HOSPITAL,Malakal Teaching Hospital,9.528280,31.650570,71132,11,Teaching Hospital,,
705,Upper Nile,Malakal,Central Malakal,NATIONAL HEALTH INSURANCE,National Health Insurance,9.527270,31.651250,71135,14,PHCC,,
708,Upper Nile,Malakal,Central Malakal,NILE MEDICAL CENTRE,Nile Medical Centre,9.529670,31.653010,71153,17,Specialized Hospital,,
709,Upper Nile,Malakal,Central Malakal,PEDIATRIC HOSPITAL,Pediatric Hospital,9.529760,31.651350,71133,17,Specialized Hospital,,
711,Upper Nile,Malakal,Eastern Malakal,SSC PHCC,Ssc PHCC,9.530880,31.661290,71127,14,PHCC,,
702,Upper Nile,Malakal,Lelo,LELO PHCU,`,9.522840,31.630070,71152,15,PHCU,,
713,Upper Nile,Malakal,Northern Malakal,GLOBAL HEALTH PHCC,Global Health PHCC,9.537970,31.653650,71137,14,PHCC,,
714,Upper Nile,Malakal,Northern Malakal,MULUKIA PHCC,Mulukia PHCC,9.544690,31.646730,71126,14,PHCC,,
715,Upper Nile,Malakal,Northern Malakal,NATURAL HEALTH,Natural Health,9.547160,31.650220,71130,14,PHCC,,
699,Upper Nile,Malakal,Southern Malakal,BAM PHCC,Bam PHCC,9.503280,31.658970,71136,14,PHCC,,
703,Upper Nile,Malakal,Southern Malakal,MILITARY HOSPITAL,Military Hospital,9.524920,31.661860,71131,17,Specialized Hospital,,
716,Upper Nile,Malakal,,DEFANG PHCU,Defang PHCU,9.570790,31.641530,71140,15,PHCU,,
701,Upper Nile,Malakal,,IKOL ISLAMIC R. ORG,Ikol Islamic R. Org,9.513360,31.658490,71154,15,PHCU,,
717,Upper Nile,Malakal,,MAKAL PHCU,Makal PHCU,9.620440,31.650500,71138,15,PHCU,,
707,Upper Nile,Malakal,,MALAKAL MEDICAL CENTRE,Malakal Medical Centre,9.529640,31.653410,71151,16,Private Clinic,,
710,Upper Nile,Malakal,,MALAKAL PRIVATE HOSPITAL,Malakal Private Hospital,9.530240,31.654130,71155,17,Specialized Hospital,,
697,Upper Nile,Malakal,,WARAJ WOK PHCU,Waraj Wok PHCU,9.473800,31.633850,71128,15,PHCU,,
718,Upper Nile,Malakal,,WAU SHILLUK HEALTH,Wau Shilluk Health,9.661330,31.745889,71139,14,PHCC,,
752,Upper Nile,Manyo,Adhidwoi,ATHIDWOI PHCU,Athidwoi PHCU,10.250600,32.242050,71027,15,PHCU,,
755,Upper Nile,Manyo,Adhidwoi,AWETH PHCC,Aweth PHCC,10.341170,32.223180,71026,14,PHCC,,
748,Upper Nile,Manyo,Adhidwoi,OGON PHCU,Ogon PHCU,10.131240,32.270150,71034,15,PHCU,,
761,Upper Nile,Manyo,Kaka,KAKA PHCC,Kaka PHCC,10.579060,32.157400,71001,14,PHCC,,
763,Upper Nile,Manyo,Kaka,THWOR GWANG PHCU,Thwor Gwang PHCU,11.000970,32.642440,71035,15,PHCU,,
780,Upper Nile,Manyo,Magenist,MAGANGS PHCU,Magangs PHCU,11.941350,32.103910,71038,15,PHCU,,
766,Upper Nile,Manyo,Wedakona (Wadakona),AYATT PHCU,Ayatt PHCU,11.292000,32.620260,71037,15,PHCU,,
772,Upper Nile,Manyo,Wedakona (Wadakona),BUSHARA PHCU,Bushara PHCU,11.674720,32.746220,71040,15,PHCU,,
781,Upper Nile,Manyo,Wedakona (Wadakona),KWEK PHCU,Kwek PHCU,11.947010,32.719420,71061,15,PHCU,,
771,Upper Nile,Manyo,Wedakona (Wadakona),N.H.I,N.H.I,11.610030,32.725320,71081,14,PHCC,,
773,Upper Nile,Manyo,Wedakona (Wadakona),OMAR PHCU,Omar PHCU,11.728250,32.775320,71039,15,PHCU,,
770,Upper Nile,Manyo,Wedakona (Wadakona),WADAKON PHCC,Wadakon PHCC,11.608110,32.728360,71082,14,PHCC,,
762,Upper Nile,Manyo,,ODEER PHCU,Odeer PHCU,10.768990,32.305740,71036,15,PHCU,,
760,Upper Nile,Melut,Bimachuk (Bimchuk),PARIAK PHCU,Pariak PHCU,10.560830,32.550620,71047,15,PHCU,,
753,Upper Nile,Melut,Galdora (Goldora),GOLDORA PHCU,Goldora PHCU,10.271680,32.463300,71062,15,PHCU,,
754,Upper Nile,Melut,Galdora (Goldora),THANGRIAL PHCU,Thangrial PHCU,10.307580,32.267910,71067,15,PHCU,,
756,Upper Nile,Melut,Melut,MELUF PHCC,Meluf PHCC,10.437130,32.189790,71065,14,PHCC,,
757,Upper Nile,Melut,Melut,MELUT HOSPITAL,Melut Hospital,10.444380,32.200790,71066,13,County Hospital,,
758,Upper Nile,Melut,Paloch,PALOCH II PHCU,Paloch II PHCU,10.460350,32.543553,71041,15,PHCU,,
759,Upper Nile,Melut,Paloch,PALOCH PHCU,Paloch PHCU,10.465680,32.548140,71048,15,PHCU,,
750,Upper Nile,Melut,Paloch,WANAMUM PHCU,Wanamum PHCU,10.169840,32.812870,71068,15,PHCU,,
744,Upper Nile,Melut,Panomdit (Panhomdit),MALEK PHCU,Malek PHCU,10.061090,32.279540,71064,15,PHCU,,
695,Upper Nile,Panyikang,Dheteim,ALEL PHCU,Alel PHCU,9.457670,31.608250,71144,15,PHCU,,
694,Upper Nile,Panyikang,Dheteim,OWECI PHCC,Oweci PHCC,9.433710,31.575910,71142,14,PHCC,,
690,Upper Nile,Panyikang,Pakang,PAKANG PHCU,Pakang PHCU,9.365060,31.467800,71109,15,PHCU,,
698,Upper Nile,Panyikang,Tonga,NYIBOD PHCU,Nyibod PHCU,9.487300,31.009280,71141,15,PHCU,,
700,Upper Nile,Panyikang,Tonga,PAPOJO PHCU,Papojo PHCU,9.507640,31.941620,71108,15,PHCU,,
696,Upper Nile,Panyikang,Tonga,TONGA PHCC,Tonga PHCC,9.470000,31.049440,71107,14,PHCC,,
693,Upper Nile,Panyikang,,NYILUAK PHCC,Nyiluak PHCC,9.412410,31.295390,71112,14,PHCC,,
691,Upper Nile,Panyikang,,OBEI PHCC,Obei PHCC,9.376050,31.572640,71143,14,PHCC,,
692,Upper Nile,Panyikang,,PAKWAR PHCU,Pakwar PHCU,9.376120,31.397430,71110,15,PHCU,,
769,Upper Nile,Renk,Chemmedi (Chammedi),LATBIER PHCU,Latbier PHCU,11.541190,32.737450,71017,15,PHCU,,
791,Upper Nile,Renk,Geger (Gerger),ALAKA PHCU,Alaka PHCU,12.169470,32.785530,71045,15,PHCU,,
784,Upper Nile,Renk,Geger (Gerger),GIEGER PHCC,Gieger PHCC,11.990260,32.758790,71012,14,PHCC,,
790,Upper Nile,Renk,Geger (Gerger),KILO 15 PHCU,Kilo 15 PHCU,12.141390,32.822120,71044,15,PHCU,,
786,Upper Nile,Renk,Geger (Gerger),KILO 5 PHCU,Kilo 5 PHCU,12.054060,32.820290,71079,15,PHCU,,
782,Upper Nile,Renk,Geger (Gerger),KOLOUG PHCU,Koloug PHCU,11.982680,32.970210,71024,15,PHCU,,
783,Upper Nile,Renk,Geger (Gerger),NATIONAL INSURANCE F,National Insurance F,11.984750,32.762280,71074,14,PHCC,,
787,Upper Nile,Renk,Geger (Gerger),ROMALE PHCU,Romale PHCU,12.076000,32.782170,71043,15,PHCU,,
792,Upper Nile,Renk,Geger (Gerger),WANTHAW PHCC,Wanthaw PHCC,12.262920,32.765220,71013,14,PHCC,,
767,Upper Nile,Renk,Jalhak,BANJANG PHCU,Banjang PHCU,11.360350,32.675670,71016,15,PHCU,,
764,Upper Nile,Renk,Jalhak,GELHAK PHCU,Gelhak PHCU,11.042280,32.694050,71058,15,PHCU,,
765,Upper Nile,Renk,Jalhak,MOLBUK PHCU,Molbuk PHCU,11.156480,32.679570,71011,15,PHCU,,
778,Upper Nile,Renk,,ABUKADHRA PHCU,Abukadhra PHCU,11.830290,32.800060,71078,15,PHCU,,
779,Upper Nile,Renk,,GUSFAMI PHCU,Gusfami PHCU,11.925670,32.873980,71046,15,PHCU,,
774,Upper Nile,Renk,,N.H INSURACE F PHCC,N.H Insurace F PHCC,11.742400,32.811750,71077,14,PHCC,,
776,Upper Nile,Renk,,N.H.I FUND PHCC,N.H.I Fund PHCC,11.748190,32.799850,71076,14,PHCC,,
777,Upper Nile,Renk,,RENK CIVIL HOSPITAL,Renk Civil Hospital,11.749040,32.800010,71010,13,County Hospital,,
775,Upper Nile,Renk,,RENK MILITARY HOSP.,Renk Military Hosp.,11.745940,32.815740,71075,96,Other,,
768,Upper Nile,Renk,,SHAMIDI PHCU,Shamidi PHCU,11.516280,32.970730,71003,15,PHCU,,
670,Upper Nile,Ulang,Doma,DOME P.H.C UNIT PHCU,Dome P.H.C Unit PHCU,8.880050,32.572270,71125,15,PHCU,,
680,Upper Nile,Ulang,Doma,RIANG P.H.CARE UNIT,Riang P.H.Care Unit,9.090840,32.746480,71124,15,PHCU,,
657,Upper Nile,Ulang,Ulang,ULANG PHCC,Ulang PHCC,8.655950,32.720400,71118,14,PHCC,,
666,Upper Nile,Ulang,Yomding,BIMBIM PHCU,Bimbim PHCU,8.780510,32.849860,71121,15,PHCU,,
658,Upper Nile,Ulang,Yomding,RUP BOARD PHCC,Rup Board PHCC,8.669140,32.791450,71119,14,PHCC,,
653,Upper Nile,Ulang,Yomding,YOMDING PHCU,Yomding PHCU,8.635620,32.838520,71120,15,PHCU,,
668,Upper Nile,Ulang,,DURA PHCU,Dura PHCU,8.794590,32.700970,71123,15,PHCU,,
649,Upper Nile,Ulang,,KUICH PHCU,Kuich PHCU,8.602990,32.906270,71122,15,PHCU,,
1077,Warrap,Gogrial East,,AGAIGAI PHCU,Agaigai PHCU,8.525350,28.543220,81078,15,PHCU,,
1070,Warrap,Gogrial East,,AJOGO PHCU,Ajogo PHCU,8.707150,28.425200,81080,15,PHCU,Functional,
1050,Warrap,Gogrial East,,ANGERUGER PHCU,Angeruger PHCU,8.371180,28.426300,81066,15,PHCU,Functional,
1067,Warrap,Gogrial East,,AWUT WUT PHCU,Awut Wut PHCU,8.593850,28.614320,81084,15,PHCU,Functional,
1076,Warrap,Gogrial East,,BILLIC PHCU,Billic PHCU,8.476770,28.480880,81077,15,PHCU,,
1073,Warrap,Gogrial East,,LIEFNHOM PHCC,Liefnhom PHCC,8.597590,28.472600,81085,14,PHCC,Functional,
1083,Warrap,Gogrial East,,LUONYAKER PHCC,Luonyaker PHCC,8.229630,28.389750,81068,14,PHCC,Functional,
1068,Warrap,Gogrial East,,MAJAK NYIUOM PHCU,Majak Nyiuom PHCU,8.725790,28.530700,81082,15,PHCU,Functional,
1075,Warrap,Gogrial East,,MALIAI PHCU,Maliai PHCU,8.393220,28.540960,81075,15,PHCU,Functional,
1069,Warrap,Gogrial East,,MANGOL PHCU,Mangol PHCU,8.830250,28.546060,81081,15,PHCU,,
1082,Warrap,Gogrial East,,MATIEL PHCU,Matiel PHCU,8.145110,28.228590,81067,15,PHCU,Functional,
1081,Warrap,Gogrial East,,MAWUT PHCU,Mawut PHCU,8.310940,28.359170,81070,15,PHCU,,
1071,Warrap,Gogrial East,,MAYOM CHOL PHCU,Mayom Chol PHCU,8.410540,28.405090,81079,15,PHCU,Functional,
1078,Warrap,Gogrial East,,MAYOM-BIONG PHCU,Mayom-Biong PHCU,8.234180,28.594030,81064,15,PHCU,Functional,
1072,Warrap,Gogrial East,,NYANY MAYENJUR PHCU,Nyany Mayenjur PHCU,8.740210,28.641440,81083,15,PHCU,,
1085,Warrap,Gogrial East,,PANACIER PHCU,Panacier PHCU,8.614120,28.355750,81074,15,PHCU,Functional,
1087,Warrap,Gogrial East,,PINYDIT PHCU,Pinydit PHCU,8.415570,28.344490,81072,15,PHCU,Functional,
1074,Warrap,Gogrial East,,RUOT PHCU,Ruot PHCU,8.407580,28.463140,81076,15,PHCU,Functional,
1086,Warrap,Gogrial East,,TARWENG PHCU,Tarweng PHCU,8.352560,28.354240,81073,15,PHCU,,
1084,Warrap,Gogrial East,,THONGHOC PHCU,Thonghoc PHCU,8.190110,28.461040,81069,15,PHCU,,
1080,Warrap,Gogrial East,,WUNAKOC PHCU,Wunakoc PHCU,8.266550,28.342950,81071,15,PHCU,Functional,
1079,Warrap,Gogrial East,,YIIKADOOR PHCU,Yiikadoor PHCU,8.247210,28.463530,81065,15,PHCU,Functional,
1041,Warrap,Gogrial West,,AGAAT DIT PHCU,Agaat Dit PHCU,8.781710,27.967080,81030,15,PHCU,,
1057,Warrap,Gogrial West,,AGET PHCU,Aget PHCU,8.246200,27.981300,81031,15,PHCU,Functional,
1056,Warrap,Gogrial West,,AJIEP PHCC,Ajiep PHCC,8.265550,28.089420,81038,14,PHCC,Functional,
1044,Warrap,Gogrial West,,AKON PHCC,Akon PHCC,8.884950,27.954730,81027,14,PHCC,Functional,
1048,Warrap,Gogrial West,,ALEK PHCC,Alek PHCC,8.663940,28.148560,81042,14,PHCC,Functional,
1061,Warrap,Gogrial West,,ANGUI PHCU,Angui PHCU,8.246200,27.981300,81036,15,PHCU,,
1065,Warrap,Gogrial West,,ANGUOTH PHCU,Anguoth PHCU,8.776750,28.200440,81048,15,PHCU,Functional,
1049,Warrap,Gogrial West,,ATUK KUEL PHCU,Atuk Kuel PHCU,8.644060,27.995940,81041,15,PHCU,Functional,
1047,Warrap,Gogrial West,,AYWANG PHCU,Aywang PHCU,8.384700,28.175840,81045,15,PHCU,,
1053,Warrap,Gogrial West,,GOGRIAL PHCC,Gogrial PHCC,8.526830,28.100140,81035,14,PHCC,Functional,
1051,Warrap,Gogrial West,,KEET PHCU,Keet PHCU,8.818480,28.070930,81050,15,PHCU,Functional,
1060,Warrap,Gogrial West,,KUAJOK PHCC,Kuajok PHCC,8.296580,27.982360,81034,14,PHCC,Functional,
1062,Warrap,Gogrial West,,MAGAT PHCU,Magat PHCU,8.104390,28.008180,81039,15,PHCU,Functional,
1054,Warrap,Gogrial West,,MALUIL AJAK PHCU,Maluil Ajak PHCU,8.528840,27.976120,81046,15,PHCU,Functional,
1052,Warrap,Gogrial West,,MANDENG PHCU,Mandeng PHCU,8.575930,27.965550,81044,15,PHCU,,
1040,Warrap,Gogrial West,,MAYEN PAJOK PHCU,Mayen Pajok PHCU,9.016530,27.923040,81026,15,PHCU,Functional,
1045,Warrap,Gogrial West,,MAYOM PHCU,Mayom PHCU,8.737090,28.199300,81043,15,PHCU,,
1042,Warrap,Gogrial West,,NYIETH PHCU,Nyieth PHCU,8.934790,27.824720,81029,15,PHCU,,
1064,Warrap,Gogrial West,,PAKOR PHCU,Pakor PHCU,8.934770,28.117810,81047,15,PHCU,Functional,
1066,Warrap,Gogrial West,,PANLIET PHCU,Panliet PHCU,8.842370,28.255390,81049,15,PHCU,Functional,
1043,Warrap,Gogrial West,,PEETH PHCU,Peeth PHCU,8.967180,28.011340,81028,15,PHCU,Functional,
1058,Warrap,Gogrial West,,POLICE PHCC,Police PHCC,8.298470,27.984990,81032,14,PHCC,,
1059,Warrap,Gogrial West,,PRISON PHCC,Prison PHCC,8.305540,27.973370,81033,14,PHCC,,
1063,Warrap,Gogrial West,,THURNYIOR PHCU,Thurnyior PHCU,8.144920,28.131950,81040,15,PHCU,Functional,
1055,Warrap,Gogrial West,,WARAP STATE HOSPITAL,Warap State Hospital,8.254460,27.983200,81037,12,State Hospital,,
1118,Warrap,Tonj East,,AKIAR PHCU,Akiar PHCU,7.652930,28.886200,81114,15,PHCU,,
1113,Warrap,Tonj East,,ANANATAK PHCU,Ananatak PHCU,7.732197,29.025414,81116,15,PHCU,Functional,
1111,Warrap,Tonj East,,KACUAT PHCU,Kacuat PHCU,7.946780,29.179350,81117,15,PHCU,Functional,
1122,Warrap,Tonj East,,KUELCUK PHCU,Kuelcuk PHCU,8.049480,29.307990,81118,15,PHCU,Functional,
1114,Warrap,Tonj East,,MAKUAC PHCU,Makuac PHCU,7.987470,29.476800,81119,15,PHCU,Functional,
1123,Warrap,Tonj East,,MAYEN PHCU,Mayen PHCU,7.838440,29.274080,81110,15,PHCU,,
1112,Warrap,Tonj East,,NGABAGOK PHCC,Ngabagok PHCC,7.845950,29.094910,81120,14,PHCC,Functional,
1119,Warrap,Tonj East,,PALAL PHCU,Palal PHCU,7.716860,28.940120,81115,15,PHCU,Functional,
1120,Warrap,Tonj East,,PALIANG PHCU,Paliang PHCU,7.977570,29.315420,81113,15,PHCU,Functional,
1121,Warrap,Tonj East,,ROMIC PHCC,Romic PHCC,7.973880,29.283740,81112,14,PHCC,,
1117,Warrap,Tonj East,,WUNCUEI PHCU,Wuncuei PHCU,8.016390,29.447620,81111,15,PHCU,Functional,
1124,Warrap,Tonj East,,WUNLIT PHCU,Wunlit PHCU,7.842170,29.231520,81109,15,PHCU,Functional,
1088,Warrap,Tonj North,,AKOP PHCC,Akop PHCC,8.358470,29.164670,81106,14,PHCC,Functional,
1104,Warrap,Tonj North,,AKURBIOK PHCU,Akurbiok PHCU,8.087520,28.458270,81088,15,PHCU,,
1091,Warrap,Tonj North,,ALABEK PHCC,Alabek PHCC,8.534580,28.927010,81097,14,PHCC,Functional,
1093,Warrap,Tonj North,,ALIEK PHCC,Aliek PHCC,8.395270,28.687300,81101,14,PHCC,Functional,
1095,Warrap,Tonj North,,APORLANG PHCU,Aporlang PHCU,8.145270,28.540360,81090,15,PHCU,Functional,
1089,Warrap,Tonj North,,ATHIENG-POOL PHCU,Athieng-Pool PHCU,8.349057,29.073364,81107,15,PHCU,,
1097,Warrap,Tonj North,,AWUL PHCU,Awul PHCU,8.188810,28.735990,81092,15,PHCU,Functional,
1101,Warrap,Tonj North,,KIRRIK PHCU,Kirrik PHCU,7.885460,28.816180,81095,15,PHCU,Functional,
1109,Warrap,Tonj North,,LURCHUK PHCU,Lurchuk PHCU,7.831180,28.447260,81104,15,PHCU,Functional,
1100,Warrap,Tonj North,,MADHIATH PHCU,Madhiath PHCU,7.930480,28.830200,81096,15,PHCU,,
1090,Warrap,Tonj North,,MAJAK LOU PHCU,Majak Lou PHCU,8.612080,28.843920,81098,15,PHCU,,
1103,Warrap,Tonj North,,MANLOOR PHCU,Manloor PHCU,7.976710,28.416110,81087,15,PHCU,,
1105,Warrap,Tonj North,,MARIAL ABOOK PHCU,Marial Abook PHCU,7.900313,28.442264,81089,15,PHCU,,
1107,Warrap,Tonj North,,MARIAL RURAL HOSPITAL,Marial Rural Hospital,8.042810,29.189860,81100,13,County Hospital,,
1099,Warrap,Tonj North,,PABUKCHAK PHCU,Pabukchak PHCU,7.836670,28.713860,81094,15,PHCU,,
1096,Warrap,Tonj North,,PAGAKDIT PHCU,Pagakdit PHCU,7.992540,28.497900,81091,15,PHCU,Functional,
1108,Warrap,Tonj North,,PAGOL PHCU,Pagol PHCU,7.699880,28.580200,81105,15,PHCU,Functional,
1102,Warrap,Tonj North,,PANKOT PHCU,Pankot PHCU,8.122323,28.393121,81086,15,PHCU,Functional,
1098,Warrap,Tonj North,,ROOMTIT PHCU,Roomtit PHCU,8.079580,28.535780,81102,15,PHCU,,
1092,Warrap,Tonj North,,ROORKOU PHCU,Roorkou PHCU,8.338410,28.741030,81093,15,PHCU,,
1110,Warrap,Tonj North,,RUALBET PHCU,Rualbet PHCU,8.117060,28.941490,81099,15,PHCU,Functional,
1106,Warrap,Tonj North,,ST. DANIEL COMBONI HOSPITAL,St. Daniel Comboni Hospital,8.033150,29.182710,81108,17,Specialized Hospital,,
1094,Warrap,Tonj North,,WARRAP PHCC,Warrap PHCC,8.089530,28.638080,81103,14,PHCC,Functional,
1132,Warrap,Tonj South,,AGUKA PHCU,Aguka PHCU,6.979930,28.716260,81054,15,PHCU,Functional,
1133,Warrap,Tonj South,,DON BOSCO PHCC,Don Bosco PHCC,7.271960,28.678880,81055,14,PHCC,Functional,
1125,Warrap,Tonj South,,JAK PHCU,Jak PHCU,7.666490,28.701490,81063,15,PHCU,Functional,
1116,Warrap,Tonj South,,KAL RUEL PHCU,Kal Ruel PHCU,7.277010,28.683640,81058,15,PHCU,,
1130,Warrap,Tonj South,,MABIOR-YAR PHCU,Mabior-Yar PHCU,7.481790,28.784370,81062,15,PHCU,Functional,
1131,Warrap,Tonj South,,MALUAL-MOK PHCU,Malual-Mok PHCU,7.399400,28.741020,81053,15,PHCU,Functional,
1134,Warrap,Tonj South,,MANYIEL-THONY PHCU,Manyiel-Thony PHCU,7.388180,28.978010,81061,15,PHCU,Functional,
1127,Warrap,Tonj South,,PANAKDIE PHCU,Panakdie PHCU,7.698090,28.770100,81057,15,PHCU,Functional,
1128,Warrap,Tonj South,,PAWEL PHCU,Pawel PHCU,7.563070,28.724350,81059,15,PHCU,Functional,
1126,Warrap,Tonj South,,THIET PHCC,Thiet PHCC,7.608180,28.810460,81060,14,PHCC,Functional,
1115,Warrap,Tonj South,,TONJ HOSPITAL,Tonj Hospital,7.276700,28.679840,81052,13,County Hospital,Functional,
1129,Warrap,Tonj South,,WANH ALEL PHCU,Wanh Alel PHCU,7.484150,28.848590,81056,15,PHCU,Functional,
1016,Warrap,Twic,,AJAK KUAC PHCC,Ajak Kuac PHCC,9.290880,28.709910,81010,14,PHCC,Functional,
1032,Warrap,Twic,,AJONG PHCU,Ajong PHCU,9.079100,28.343310,81021,15,PHCU,Functional,
1017,Warrap,Twic,,AKOC PHCC,Akoc PHCC,9.143660,28.021440,81018,14,PHCC,Functional,
1027,Warrap,Twic,,AKOK PHCC,Akok PHCC,9.068700,28.114430,81023,14,PHCC,Functional,
1035,Warrap,Twic,,ANYIEL PHCU,Anyiel PHCU,9.259940,28.538500,81006,15,PHCU,Functional,
1023,Warrap,Twic,,AWENG PHCC,Aweng PHCC,9.098780,28.559530,81002,14,PHCC,Functional,
1024,Warrap,Twic,,BOLYOM PHCU,Bolyom PHCU,9.109150,28.608510,81004,15,PHCU,,
1018,Warrap,Twic,,DHIAU AGAAL PHCU,Dhiau Agaal PHCU,9.167570,27.940240,81016,15,PHCU,Functional,
1030,Warrap,Twic,,MAGAK PHCC,Magak PHCC,8.896660,28.347310,81009,14,PHCC,Functional,
1026,Warrap,Twic,,MAJAK PAGAI PHCU,Majak Pagai PHCU,9.170190,28.226640,81022,15,PHCU,Functional,
1022,Warrap,Twic,,MAJOK NOON PHCC,Majok Noon PHCC,9.203290,28.589580,81001,14,PHCC,Functional,
1037,Warrap,Twic,,MALOU-HOL PHCU,Malou-Hol PHCU,9.134450,28.269070,81019,15,PHCU,Functional,
1021,Warrap,Twic,,MAPER PHCU,Maper PHCU,9.105370,28.497930,81003,15,PHCU,Functional,
1025,Warrap,Twic,,MARIAL MAPER PHCU,Marial Maper PHCU,9.169030,28.512940,81015,15,PHCU,Functional,
1033,Warrap,Twic,,MAYEN ABUN PHCC,Mayen Abun PHCC,9.162510,28.362250,81020,14,PHCC,Functional,
1015,Warrap,Twic,,MOLBANG PHCU,Molbang PHCU,9.252900,28.682950,81011,15,PHCU,Functional,
1036,Warrap,Twic,,MOTHER TERESA HOSPITAL,Mother Teresa Hospital,9.094880,28.424330,81007,13,County Hospital,,
1034,Warrap,Twic,,PANDIT PHCU,Pandit PHCU,9.005770,28.367940,81005,15,PHCU,Functional,
1028,Warrap,Twic,,PANNYOK PHCU,Pannyok PHCU,9.084830,28.206810,81024,15,PHCU,Functional,
1038,Warrap,Twic,,TITCOK PHCU,Titcok PHCU,8.944640,28.286870,81012,15,PHCU,Functional,
1020,Warrap,Twic,,TOCH NOON PHCU,Toch Noon PHCU,9.088580,27.984560,81014,15,PHCU,Functional,
1029,Warrap,Twic,,TUELE PHCU,Tuele PHCU,8.997184,28.211872,81025,15,PHCU,Functional,
1031,Warrap,Twic,,TURALEI PHCC,Turalei PHCC,9.095520,28.430200,81008,14,PHCC,Functional,
1039,Warrap,Twic,,WUNROK PHCC,Wunrok PHCC,8.992800,28.291560,81013,14,PHCC,Functional,
1019,Warrap,Twic,,YIIK THON PHCU,Yiik Thon PHCU,9.235830,28.053950,81017,15,PHCU,Functional,
963,Western Bahr el Ghazal,Wau,Bagari,ABUSHAKA PHCU,Abushaka PHCU,7.716870,27.833250,83049,15,PHCU,Functional,
984,Western Bahr el Ghazal,Jur River,Marial Bai,ACHONGCHONG PHCC,Achongchong PHCC,7.929340,28.174470,83063,14,PHCC,Functional,
956,Western Bahr el Ghazal,Jur River,Udici,ACHOT PHCU,Achot PHCU,7.708260,28.154460,83005,15,PHCU,Functional,
992,Western Bahr el Ghazal,Jur River,Kangi,AJOMGO PHCU,Ajomgo PHCU,8.073910,27.622080,83061,15,PHCU,Functional,
996,Western Bahr el Ghazal,Jur River,Kangi,ALELTHOUNY PHCU,Alelthouny PHCU,8.277670,27.855170,83059,15,PHCU,Functional,
911,Western Bahr el Ghazal,Jur River,Wau Bai,ANGUR PHCU,Angur PHCU,7.098830,28.514050,83056,15,PHCU,Functional,
979,Western Bahr el Ghazal,Jur River,Kuajena,ATIDO PHCU,Atido PHCU,7.852110,27.899650,83016,15,PHCU,Functional,
928,Western Bahr el Ghazal,Wau,Besselia,BAGGARI PHCU,Baggari PHCU,7.574750,27.889430,83077,15,PHCU,Functional,
987,Western Bahr el Ghazal,Jur River,Kuajena,BAR UROD PHCU,Bar Urod PHCU,7.960640,27.512290,83012,15,PHCU,Functional,
977,Western Bahr el Ghazal,Jur River,Kuajena,BARAKOL PHCU,Barakol PHCU,7.818540,27.757050,83017,15,PHCU,Functional,
968,Western Bahr el Ghazal,Jur River,Marial Bai,BARYAR PH CARE UNIT,Baryar Ph Care Unit,7.756320,27.965230,83064,15,PHCU,Functional,
942,Western Bahr el Ghazal,Wau,Wau South,BAZIA JEDID PHCC,Bazia Jedid PHCC,7.678690,27.994170,83101,14,PHCC,Functional,
972,Western Bahr el Ghazal,Wau,Bagari,BESSELIA PHCC,Besselia PHCC,7.766160,27.699690,83048,14,PHCC,Functional,
969,Western Bahr el Ghazal,Raja,Raga,BILI PHCU,Bili PHCU,7.760070,26.138070,83033,15,PHCU,,
945,Western Bahr el Ghazal,Raja,Raga,BONIO PHCU,Bonio PHCU,7.686800,26.323180,83035,15,PHCU,,
1000,Western Bahr el Ghazal,Raja,,BORO MEDINA PHCC,Boro Medina PHCC,8.464070,24.815830,83031,14,PHCC,Functional,
933,Western Bahr el Ghazal,Wau,Besselia,BRINGI PHCU,Bringi PHCU,7.627540,27.901990,83079,15,PHCU,Functional,
927,Western Bahr el Ghazal,Wau,Besselia,BUSSERY PRIMARY HC,Bussery Primary HC,7.564750,27.964320,83083,14,PHCC,Functional,
939,Western Bahr el Ghazal,Wau,Wau South,CANNING FACTORY PHCU,Canning Factory PHCU,7.657300,28.026930,83104,15,PHCU,Functional,
910,Western Bahr el Ghazal,Jur River,Wau Bai,CHONO PHCU,Chono PHCU,7.089660,28.374610,83054,15,PHCU,Functional,
1003,Western Bahr el Ghazal,Raja,,DEIMJALLAB PHCU,Deimjallab PHCU,8.481640,25.326760,83029,15,PHCU,Functional,
1010,Western Bahr el Ghazal,Raja,Ere,DELEBA PHCU,Deleba PHCU,8.789980,26.048380,83020,15,PHCU,Functional,
961,Western Bahr el Ghazal,Raja,Raga,DIEW ZUBIER PHCC,Diew Zubier PHCC,7.714580,26.195930,83034,15,PHCU,Functional,
955,Western Bahr el Ghazal,Jur River,Udici,E: BANK PHCC,E: Bank PHCC,7.707520,28.025150,83006,14,PHCC,Functional,
970,Western Bahr el Ghazal,Wau,Bagari,FANGO NUER PHCU,Fango Nuer PHCU,7.761100,27.264800,83043,15,PHCU,,
925,Western Bahr el Ghazal,Wau,Besselia,FARJALA PHCU,Farjala PHCU,7.525590,27.770500,83076,15,PHCU,Functional,
1011,Western Bahr el Ghazal,Raja,Ringi,GAMA PHCU,Gama PHCU,8.999440,25.562790,83039,15,PHCU,,
1008,Western Bahr el Ghazal,Raja,Ere,GETE RAJIEL,Gete Rajiel,8.539930,25.641260,83024,15,PHCU,,
985,Western Bahr el Ghazal,Jur River,Kuajena,GETTE PHCU,Gette PHCU,7.946170,27.846840,83013,15,PHCU,Functional,
914,Western Bahr el Ghazal,Wau,Kpaile,GIATAN PHCU,Giatan PHCU,7.270560,27.939490,83072,15,PHCU,Functional,
1009,Western Bahr el Ghazal,Raja,Ere,GOSINGA PHCU,Gosinga PHCU,8.653210,25.973760,83021,15,PHCU,,
966,Western Bahr el Ghazal,Wau,Wau North,GRINTI PHCC MILITARY,Grinti PHCC Military,7.737700,27.992880,83070,14,PHCC,,
962,Western Bahr el Ghazal,Wau,Wau North,HAI DINKA PHCC,Hai Dinka PHCC,7.714710,27.998800,83092,14,PHCC,Functional,
924,Western Bahr el Ghazal,Wau,Besselia,HALIMA PHCU,Halima PHCU,7.522930,27.923900,83081,15,PHCU,,
944,Western Bahr el Ghazal,Wau,Wau South,JEBEL KHEIR PHCC,Jebel Kheir PHCC,7.681870,27.984430,83099,14,PHCC,Functional,
950,Western Bahr el Ghazal,Wau,Wau South,JIU MILLITARY H.,Jiu Millitary H.,7.699060,27.995530,83102,96,Other,,
967,Western Bahr el Ghazal,Wau,Bagari,KABI PHCU,Kabi PHCU,7.750020,27.758200,83045,15,PHCU,Functional,
953,Western Bahr el Ghazal,Wau,Wau North,KALVARIO PHCU,Kalvario PHCU,7.703170,27.978170,83094,15,PHCU,,
993,Western Bahr el Ghazal,Jur River,Kangi,KANGI PHCU,Kangi PHCU,8.145230,27.658920,83060,15,PHCU,Functional,
986,Western Bahr el Ghazal,Jur River,Kuajena,KANYANGO PHCU,Kanyango PHCU,7.953590,27.673630,83014,15,PHCU,Functional,
916,Western Bahr el Ghazal,Jur River,Wau Bai,KAPARA PHCU CHURCH,Kapara PHCU Church,7.297850,28.541030,83055,15,PHCU,Non Functional,
997,Western Bahr el Ghazal,Wau,Besselia,KATTA PHCU,Katta PHCU,8.438157,25.000967,83030,15,PHCU,Functional,
976,Western Bahr el Ghazal,Wau,Bagari,KHORGANNA PHCU,Khorganna PHCU,7.788520,27.153130,83044,15,PHCU,Functional,
957,Western Bahr el Ghazal,Wau,,KORAJOR PHCU,Korajor PHCU,7.708300,26.848720,83002,15,PHCU,Functional,
912,Western Bahr el Ghazal,Wau,Kpaile,KPAILE/BAIZA PHCC,Kpaile/Baiza PHCC,7.107470,27.935350,83074,14,PHCC,Functional,
922,Western Bahr el Ghazal,Jur River,Wau Bai,KUAJENA PHCU,Kuajena PHCU,7.508040,28.269750,83051,15,PHCU,Functional,
974,Western Bahr el Ghazal,Jur River,Marial Bai,KUAM PHCU,Kuam PHCU,7.781210,28.026860,83066,15,PHCU,Functional,
998,Western Bahr el Ghazal,Raja,Ere,KUR MALANG PHCU,Kur Malang PHCU,8.440740,25.695750,83018,15,PHCU,,
958,Western Bahr el Ghazal,Raja,Raga,KUR SELIEK PHCU,Kur Seliek PHCU,7.709930,26.389720,83036,15,PHCU,,
1007,Western Bahr el Ghazal,Raja,Ere,KUR SHAMAM PHCU,Kur Shamam PHCU,8.534680,25.768550,83019,15,PHCU,,
964,Western Bahr el Ghazal,Raja,Raga,KURU PHCU,Kuru PHCU,7.718580,26.497020,83038,15,PHCU,Functional,
999,Western Bahr el Ghazal,Raja,Ere,LAMPA PHCU,Lampa PHCU,8.454360,25.686280,83022,15,PHCU,,
948,Western Bahr el Ghazal,Wau,Wau North,LOKOLOKO PHCC,Lokoloko PHCC,7.695510,27.975220,83093,14,PHCC,Functional,
988,Western Bahr el Ghazal,Jur River,Rocrocdong,MABIOR ABIEM PHCU,Mabior Abiem PHCU,8.005510,28.044240,83011,15,PHCU,Functional,
1013,Western Bahr el Ghazal,Raja,Ringi,MAGAWA PHCU,Magawa PHCU,9.291540,25.473770,83040,15,PHCU,,
994,Western Bahr el Ghazal,Raja,Raga,MAGAYAT PHCU,Magayat PHCU,8.223190,25.860010,83032,15,PHCU,,
913,Western Bahr el Ghazal,Wau,Kpaile,MAJU PHCU,Maju PHCU,7.170960,27.938510,83073,15,PHCU,Functional,
978,Western Bahr el Ghazal,Jur River,Rocrocdong,MALUIL PHCU,Maluil PHCU,7.823670,27.966380,83008,15,PHCU,Functional,
930,Western Bahr el Ghazal,Wau,Besselia,MAMOI PHCU,Mamoi PHCU,7.618930,27.978760,83082,15,PHCU,,
918,Western Bahr el Ghazal,Jur River,Wau Bai,MAPEL MILITARY PHCU,Mapel Military PHCU,7.314129,28.439378,83053,15,PHCU,Non Functional,
915,Western Bahr el Ghazal,Jur River,Wau Bai,MAPEL PHCC,Mapel PHCC,7.296000,28.439210,83052,14,PHCC,Functional,
947,Western Bahr el Ghazal,Wau,Wau South,MARAKAS JERAU PHCC,Marakas Jerau PHCC,7.694740,27.989010,83050,14,PHCC,,
973,Western Bahr el Ghazal,Jur River,Marial Bai,MARIAL AYIETH,Marial Ayieth,7.772150,27.996950,83065,15,PHCU,Functional,
981,Western Bahr el Ghazal,Jur River,Rocrocdong,MARIAL BAI MILITARY,Marial Bai Military,7.892490,27.977800,83009,15,PHCU,Functional,
980,Western Bahr el Ghazal,Jur River,Marial Bai,MARIAL BAI WAU PHCC,Marial Bai Wau PHCC,7.890630,27.978410,83067,14,PHCC,Functional,
1006,Western Bahr el Ghazal,Raja,Ere,MAYONGA PHCC,Mayonga PHCC,8.493250,25.669540,83025,14,PHCC,Functional,
923,Western Bahr el Ghazal,Jur River,Wau Bai,MBI PHCU,Mbi PHCU,7.518990,28.196230,83057,15,PHCU,,
959,Western Bahr el Ghazal,Wau,Bagari,MBORO PHCU,Mboro PHCU,7.713130,27.725360,83097,15,PHCU,Functional,
917,Western Bahr el Ghazal,Jur River,Wau Bai,MEDIL PHCU,Medil PHCU,7.308300,28.623450,83058,15,PHCU,Functional,
1002,Western Bahr el Ghazal,Raja,,MENAMBA B PHCU,Menamba B PHCU,8.474000,25.189970,83027,15,PHCU,Functional,
1004,Western Bahr el Ghazal,Raja,,MENAMBA PHCU,Menamba PHCU,8.484130,25.197230,83028,15,PHCU,Functional,
954,Western Bahr el Ghazal,Wau,Wau North,MUKTAH PHCC,Muktah PHCC,7.706660,27.994380,83096,14,PHCC,Functional,
940,Western Bahr el Ghazal,Wau,Besselia,NATABU PHCU,Natabu PHCU,7.661560,27.954990,83090,15,PHCU,Functional,
934,Western Bahr el Ghazal,Wau,Wau South,NATIONAL LEPROSY T.C,National Leprosy T.C,7.627760,28.023670,83100,17,Specialized Hospital,,
941,Western Bahr el Ghazal,Wau,Besselia,NDAKU PHCU,Ndaku PHCU,7.662420,27.725130,83091,15,PHCU,Functional,
929,Western Bahr el Ghazal,Wau,Besselia,NGESA PHCU,Ngesa PHCU,7.589785,27.750024,83089,15,PHCU,Functional,
937,Western Bahr el Ghazal,Wau,Bagari,NGLIMBO B PHCU,Nglimbo B PHCU,7.649950,27.879570,83069,15,PHCU,,
926,Western Bahr el Ghazal,Wau,Besselia,NGODAKALA PHCC,Ngodakala PHCC,7.546800,27.822000,83086,14,PHCC,Functional,
931,Western Bahr el Ghazal,Wau,Besselia,NGOHALIMA A PHCU,Ngohalima A PHCU,7.619220,27.866410,83087,15,PHCU,Functional,
935,Western Bahr el Ghazal,Wau,Besselia,NGOHALIMA B PHCU,Ngohalima B PHCU,7.633320,27.831780,83088,15,PHCU,Functional,
932,Western Bahr el Ghazal,Wau,Besselia,NGOKU PHCU,Ngoku PHCU,7.621270,27.805860,83080,15,PHCU,Functional,
938,Western Bahr el Ghazal,Wau,Besselia,NGOLIMBO APHCU,Ngolimbo Aphcu,7.650100,27.879490,83084,15,PHCU,Functional,
971,Western Bahr el Ghazal,Wau,Bagari,NGOMBA PHCU,Ngomba PHCU,7.765250,27.634760,83046,15,PHCU,Functional,
936,Western Bahr el Ghazal,Wau,Besselia,NGOVENDEGU PHCU,Ngovendegu PHCU,7.636050,27.727310,83078,15,PHCU,,
983,Western Bahr el Ghazal,Jur River,Rocrocdong,NYINAKOK PHCU,Nyinakok PHCU,7.923250,28.033790,83010,15,PHCU,Functional,
920,Western Bahr el Ghazal,Wau,Besselia,NYOSULU PHCU,Nyosulu PHCU,7.460200,27.822850,83085,15,PHCU,,
946,Western Bahr el Ghazal,Wau,Wau South,POLICE PHCC,Police PHCC,7.694170,27.998540,83098,14,PHCC,,
951,Western Bahr el Ghazal,Wau,Wau South,PRISON PHCU,Prison PHCU,7.700500,28.002500,83103,15,PHCU,,
952,Western Bahr el Ghazal,Wau,Wau South,PRIVATE HOSPITAL,Private Hospital,7.701450,28.002280,83106,16,Private Clinic,,
1001,Western Bahr el Ghazal,Raja,Ere,RAJA COUNTY HOSPITAL,Raja County Hospital,8.469250,25.676620,83023,13,County Hospital,Functional,
1005,Western Bahr el Ghazal,Raja,Ere,RAJA MILITARY PHCU,Raja Military PHCU,8.485490,25.674990,83026,15,PHCU,Non Functional,
982,Western Bahr el Ghazal,Wau,Bagari,RIHANFEAI PHCU,Rihanfeai PHCU,7.895850,27.668060,83047,15,PHCU,Functional,
975,Western Bahr el Ghazal,Jur River,Udici,ROC ROC DONG PHCU,Roc Roc Dong PHCU,7.782180,28.112940,83003,15,PHCU,Functional,
1012,Western Bahr el Ghazal,Raja,Ringi,SABRINE PHCU,Sabrine PHCU,9.174220,25.553720,83041,15,PHCU,,
960,Western Bahr el Ghazal,Wau,Wau North,SIKA HADID PHCC,Sika Hadid PHCC,7.713940,27.987820,83095,14,PHCC,Functional,
990,Western Bahr el Ghazal,Raja,Raga,SOPO PHCU,Sopo PHCU,8.025440,26.044280,83037,15,PHCU,Functional,
943,Western Bahr el Ghazal,Wau,Wau South,ST. MARY PHCC,St. Mary PHCC,7.680410,28.001580,83105,14,PHCC,,
919,Western Bahr el Ghazal,Wau,Kpaile,TABAN PHCU,Taban PHCU,7.380378,27.967233,83071,15,PHCU,Functional,
989,Western Bahr el Ghazal,Jur River,Rocrocdong,THARQUENY PHCU,Tharqueny PHCU,8.011160,27.998720,83007,15,PHCU,Functional,
995,Western Bahr el Ghazal,Jur River,Kangi,TIKOW PHCU,Tikow PHCU,8.266690,27.625040,83062,15,PHCU,,
1014,Western Bahr el Ghazal,Raja,Ringi,TIMSAH PHCU,Timsah PHCU,9.549470,25.480840,83042,15,PHCU,Functional,
909,Western Bahr el Ghazal,Wau,Kpaile,TIRGA PHCU,Tirga PHCU,6.995137,27.928390,83075,15,PHCU,Non Functional,
991,Western Bahr el Ghazal,Jur River,Kuajena,UDICI PHCC,Udici PHCC,8.069780,27.722190,83015,14,PHCC,Functional,
921,Western Bahr el Ghazal,Jur River,Udici,WADALEL PHCU,Wadalel PHCU,7.489370,28.054290,83004,15,PHCU,Functional,
949,Western Bahr el Ghazal,Wau,Wau South,WAU TEACHING HOSPT,Wau Teaching Hospt,7.697020,28.004460,83068,11,Teaching Hospital,Functional,
965,Western Bahr el Ghazal,Wau,,YABULU PHCU,Yabulu PHCU,7.721940,26.698520,83001,15,PHCU,Functional,
1174,Western Equatoria,Ezo,,ANDARI PHCU,Andari PHCU,4.947280,27.725400,91052,15,PHCU,Functional,
1172,Western Equatoria,Ezo,,BAFUKA CC PHCU,Bafuka Cc PHCU,4.980240,27.782820,91050,16,Private Clinic,Functional,
1173,Western Equatoria,Ezo,,BAFUKA PHCU,Bafuka PHCU,4.978220,27.780400,91051,15,PHCU,,
1180,Western Equatoria,Ezo,,BAGIDI  PHCU,Bagidi  PHCU,5.182610,27.669910,91055,15,PHCU,Functional,
1193,Western Equatoria,Ezo,,BAIKPA PHCU,Baikpa PHCU,5.095350,27.474640,91056,15,PHCU,Functional,
1175,Western Equatoria,Ezo,,BARAGU PHCU PHCU,Baragu PHCU PHCU,4.982410,27.688120,91053,15,PHCU,Functional,
1187,Western Equatoria,Ezo,,C.R.C PHCC,C.R.C PHCC,5.067920,27.474300,91061,14,PHCC,,
1197,Western Equatoria,Ezo,,DIABIO PHCU,Diabio PHCU,4.971670,28.025140,91064,15,PHCU,Functional,
1188,Western Equatoria,Ezo,,ECS PHCU,Ecs PHCU,5.068900,27.468590,91060,15,PHCU,,
1189,Western Equatoria,Ezo,,EZO PHCC,Ezo PHCC,5.077110,27.465810,91059,14,PHCC,Functional,
1198,Western Equatoria,Ezo,,JANGIRI PHCC,Jangiri PHCC,5.181450,27.956040,91065,14,PHCC,,
1191,Western Equatoria,Ezo,,MADORO PHCU,Madoro PHCU,5.070490,27.534900,91179,15,PHCU,Functional,
1192,Western Equatoria,Ezo,,MARIAGBA PHCU,Mariagba PHCU,5.030630,27.614570,91180,14,PHCC,Functional,
1196,Western Equatoria,Ezo,,NAANDI PHCC,Naandi PHCC,4.972660,27.911800,91063,14,PHCC,Functional,
1186,Western Equatoria,Ezo,,NAPERE PHCU MSF,Napere PHCU Msf,5.080870,27.481500,91062,15,PHCU,Functional,
1194,Western Equatoria,Ezo,,NAPERE PHCU WUI,Napere PHCU Wui,5.079390,27.481190,91057,15,PHCU,,
1171,Western Equatoria,Ibba,,IBBA PHCC,Ibba PHCC,4.791440,29.133520,91080,14,PHCC,Functional,
1182,Western Equatoria,Ibba,,MADEDE PHCU,Madede PHCU,4.798489,28.997605,91085,15,PHCU,,
1177,Western Equatoria,Ibba,,MANIKAKARA PHCU,Manikakara PHCU,4.848190,29.254980,91082,15,PHCU,Functional,
1183,Western Equatoria,Ibba,,MARUKO PHCU,Maruko PHCU,4.798300,29.053450,91086,15,PHCU,Functional,
1195,Western Equatoria,Ibba,,MORUKO PHCU,Moruko PHCU,5.184820,29.162040,91088,15,PHCU,Functional,
1176,Western Equatoria,Ibba,,PASTOR POUL MC IBA D,Pastor Poul Mc Iba D,4.789970,29.140360,91081,15,PHCU,,
1178,Western Equatoria,Ibba,,PRISON PHCU,Prison PHCU,4.792470,29.135360,91083,15,PHCU,,
1185,Western Equatoria,Ibba,,RUBU PHCU,Rubu PHCU,4.905640,29.346590,91087,15,PHCU,Functional,
1181,Western Equatoria,Ibba,,YOSIA PHCU,Yosia PHCU,4.901430,28.985190,91084,15,PHCU,Functional,
1242,Western Equatoria,Maridi,,AMAKI,Amaki,5.138090,29.477940,91094,15,PHCU,Functional,
1258,Western Equatoria,Maridi,,ATTA/AFFA PHCU,Atta/Affa PHCU,4.972900,29.642649,91117,15,PHCU,Functional,
1259,Western Equatoria,Maridi,,BETHA SAIDA ECS CLIN,Betha Saida Ecs Clin,4.911440,29.451470,91110,14,PHCC,Functional,
1253,Western Equatoria,Maridi,,CHOCHORO PHCU,Chochoro PHCU,4.999780,29.455990,91108,15,PHCU,Functional,
1245,Western Equatoria,Maridi,,DORROLILLI PHCU,Dorrolilli PHCU,4.656680,29.867770,91099,15,PHCU,Functional,
1270,Western Equatoria,Maridi,,EMBE  PHCU,Embe  PHCU,4.753490,29.521170,91165,15,PHCU,Functional,
1247,Western Equatoria,Maridi,,EYIRA PHCU/BAR-NAAM,Eyira PHCU/Bar-Naam,4.991083,29.671053,91105,15,PHCU,Functional,
1244,Western Equatoria,Maridi,,KOSI PHCU,Kosi PHCU,5.511970,29.710560,91096,15,PHCU,Functional,
1268,Western Equatoria,Maridi,,KWANGA PHCU,Kwanga PHCU,4.860510,29.473080,91126,15,PHCU,Functional,
1249,Western Equatoria,Maridi,,LANGUA PHCU,Langua PHCU,5.106550,29.980260,91101,15,PHCU,Functional,
1251,Western Equatoria,Maridi,,LONGBUA PHCU,Longbua PHCU,5.026150,29.715070,91103,15,PHCU,Functional,
1265,Western Equatoria,Maridi,,MABILINDI PHCU,Mabilindi PHCU,4.931360,29.512840,91116,15,PHCU,Functional,
1252,Western Equatoria,Maridi,,MALTESAR HOSPITAL,Maltesar Hospital,4.916290,29.463060,91109,13,County Hospital,,
1248,Western Equatoria,Maridi,,MAMBE T,Mambe T,4.868180,29.824240,91104,15,PHCU,Functional,
1257,Western Equatoria,Maridi,,MARIDI COUNTY HOSP.,Maridi County Hosp.,4.915980,29.464240,91120,13,County Hospital,Functional,
1262,Western Equatoria,Maridi,,MATAR PHCU,Matar PHCU,4.909690,29.457070,91113,15,PHCU,Functional,
1263,Western Equatoria,Maridi,,MBOROKO PHCU,Mboroko PHCU,4.859170,29.433700,91114,15,PHCU,Functional,
1264,Western Equatoria,Maridi,,MEKKE II,Mekke II,4.886050,29.495330,91115,14,PHCC,Functional,
1256,Western Equatoria,Maridi,,MOKU PHCU,Moku PHCU,4.907180,29.497090,91119,15,PHCU,Functional,
1266,Western Equatoria,Maridi,,MUDUBAI PHCU,Mudubai PHCU,4.992720,29.504700,91118,15,PHCU,Functional,
1255,Western Equatoria,Maridi,,NAGBAKA PHCU,Nagbaka PHCU,4.954050,29.436790,91121,15,PHCU,Functional,
1269,Western Equatoria,Maridi,,NGAMUDE PHCU,Ngamude PHCU,4.755710,29.600310,91127,15,PHCU,,
1267,Western Equatoria,Maridi,,NGBURUSAI PHCU,Ngburusai PHCU,4.818870,29.510880,91125,15,PHCU,Functional,
1250,Western Equatoria,Maridi,,OLO-PHCC,Olo-PHCC,5.081960,29.829300,91102,14,PHCC,Functional,
1261,Western Equatoria,Maridi,,PRISON PHCU,Prison PHCU,4.897920,29.446600,91112,15,PHCU,,
1254,Western Equatoria,Maridi,,RAS-TIGI PHCU,Ras-Tigi PHCU,4.925010,29.394120,91122,15,PHCU,Functional,
1260,Western Equatoria,Maridi,,SPLA-JIU,Spla-Jiu,4.900250,29.478060,91111,15,PHCU,,
1243,Western Equatoria,Maridi,,WOKO PHCC,Woko PHCC,5.363080,29.618890,91095,14,PHCC,Functional,
1306,Western Equatoria,Mundri East,,AGYI PHCU,Agyi PHCU,5.404250,30.860310,91162,15,PHCU,,
1293,Western Equatoria,Mundri East,,BEKENYE PHCU,Bekenye PHCU,5.530940,30.782260,91147,15,PHCU,,
1300,Western Equatoria,Mundri East,,BUAGYI PHCU,Buagyi PHCU,5.147960,30.628960,91156,15,PHCU,,
1304,Western Equatoria,Mundri East,,DOROH,Doroh,5.200530,30.558300,91160,15,PHCU,,
1294,Western Equatoria,Mundri East,,DOSOH PHCU,Dosoh PHCU,5.464610,30.465120,91146,15,PHCU,,
1307,Western Equatoria,Mundri East,,GABAT,Gabat,5.150590,30.705650,91164,15,PHCU,,
1295,Western Equatoria,Mundri East,,KEDIBA PHCC,Kediba PHCC,5.512620,30.725500,91148,14,PHCC,Functional,
1297,Western Equatoria,Mundri East,,KESIKO PHCU,Kesiko PHCU,5.721440,30.600798,91151,15,PHCU,,
1298,Western Equatoria,Mundri East,,LAKAMADI,Lakamadi,5.667810,30.488360,91152,14,PHCC,Functional,
1301,Western Equatoria,Mundri East,,LANYI PHCC,Lanyi PHCC,5.248090,30.508730,91155,14,PHCC,Non Functional,
1303,Western Equatoria,Mundri East,,LOZOH  (Lojo) PHCU,Lozoh (Lojo) PHCU,5.157190,30.446740,91153,15,PHCU,,
1299,Western Equatoria,Mundri East,,LUI HOSPITAL,Lui Hospital,5.342810,30.448670,91157,13,County Hospital,Functional,
1296,Western Equatoria,Mundri East,,MAGYIRI PHCU,Magyiri PHCU,5.531980,30.857550,91150,15,PHCU,,
1308,Western Equatoria,Mundri East,,MIDEN PHCC,Miden PHCC,5.063370,30.736880,91163,14,PHCC,Functional,
1305,Western Equatoria,Mundri East,,MINGA,Minga,5.301020,30.865850,91161,14,PHCC,,
1140,Western Equatoria,Mundri East,,MOVO PHCU,Movo PHCU,5.388120,30.635700,91159,15,PHCU,,
1302,Western Equatoria,Mundri East,,SINGIRIANA,Singiriana,5.159640,30.512470,91154,15,PHCU,,
1135,Western Equatoria,Mundri East,,WANDI PHCU,Wandi PHCU,5.496080,30.643550,91149,15,PHCU,,
1139,Western Equatoria,Mundri East,,WIROH PHCU,Wiroh PHCU,5.309050,30.560160,91158,15,PHCU,,
1283,Western Equatoria,Mundri West,,AMDI PHCU,Amdi PHCU,5.518970,30.335300,91098,15,PHCU,Functional,
1291,Western Equatoria,Mundri West,,BARI PHCU,Bari PHCU,5.228140,30.395180,91123,15,PHCU,Functional,
1179,Western Equatoria,Mundri West,,BITIT,Bitit,5.569920,30.437430,91138,15,PHCU,Functional,
1286,Western Equatoria,Mundri West,,BONGOLO PHCC,Bongolo PHCC,4.827790,30.300920,91141,14,PHCC,Functional,
1289,Western Equatoria,Mundri West,,GARIA PHCU,Garia PHCU,5.033480,30.327960,91142,15,PHCU,Functional,
1290,Western Equatoria,Mundri West,,GULLUI PHCU,Gullui PHCU,5.366820,30.159270,91144,15,PHCU,,
1184,Western Equatoria,Mundri West,,KARIKA PHCU,Karika PHCU,5.129960,30.038310,91106,15,PHCU,Functional,
1288,Western Equatoria,Mundri West,,KOTOBI PHCC,Kotobi PHCC,5.242750,30.200990,91143,14,PHCC,Functional,
1282,Western Equatoria,Mundri West,,KULUNDU PHCU,Kulundu PHCU,5.661220,30.344720,91097,15,PHCU,Functional,
1285,Western Equatoria,Mundri West,,LEDINGWA,Ledingwa,4.949110,30.334210,91140,15,PHCU,Functional,
1287,Western Equatoria,Mundri West,,MANDI PHCU,Mandi PHCU,5.163718,30.104692,91107,15,PHCU,,
1292,Western Equatoria,Mundri West,,MUNDRI WEST PHCC,Mundri West PHCC,5.347130,30.323500,91124,14,PHCC,Non Functional,
1284,Western Equatoria,Mundri West,,TORE WANDI,Tore Wandi,4.638450,30.439920,91139,15,PHCU,Functional,
1273,Western Equatoria,Mvolo,,BAHR-GRINDI PHCU,Bahr-Grindi PHCU,6.140730,30.177760,91131,15,PHCU,Functional,
1272,Western Equatoria,Mvolo,,BOGORI,Bogori,5.740540,29.847510,91128,15,PHCU,Functional,
1275,Western Equatoria,Mvolo,,DARI,Dari,5.821140,30.356650,91132,15,PHCU,Functional,
1280,Western Equatoria,Mvolo,,DOMERI PHCU,Domeri PHCU,5.965770,30.040670,91136,15,PHCU,Functional,
1271,Western Equatoria,Mvolo,,GIRA,Gira,5.896880,29.895340,91129,15,PHCU,Functional,
1277,Western Equatoria,Mvolo,,KULU,Kulu,6.229820,29.936650,91166,15,PHCU,Functional,
1274,Western Equatoria,Mvolo,,LALI PHCU,Lali PHCU,6.211540,30.081670,91130,15,PHCU,Functional,
1278,Western Equatoria,Mvolo,,LESI,Lesi,5.882330,30.300930,91134,15,PHCU,Functional,
1276,Western Equatoria,Mvolo,,LEYIBOLO PHCU-KOMBI,Leyibolo PHCU-Kombi,6.187600,30.042250,91133,15,PHCU,Functional,
1190,Western Equatoria,Mvolo,,MBARA PHCU,Mbara PHCU,5.669964,30.098109,91145,15,PHCU,Non Functional,
1279,Western Equatoria,Mvolo,,MVOLO PHCC,Mvolo PHCC,6.059650,29.960530,91135,14,PHCC,Functional,
1281,Western Equatoria,Mvolo,,YERI,Yeri,5.784670,30.104300,91137,14,PHCC,,
1148,Western Equatoria,Nagero,,DIAYANGA PHCU,Diayanga PHCU,6.490150,27.843760,91049,15,PHCU,Functional,
1146,Western Equatoria,Nagero,,KURO PHCU,Kuro PHCU,6.242303,27.734034,91046,15,PHCU,Functional,
1147,Western Equatoria,Nagero,,NAGERO PHCC,Nagero PHCC,6.387600,27.764980,91047,14,PHCC,Functional,
1169,Western Equatoria,Nzara,,BAAKPARA PHCU,Baakpara PHCU,4.564330,28.255700,91183,15,PHCU,Functional,
1153,Western Equatoria,Nzara,,BASUKANGBI PHCC,Basukangbi PHCC,4.683450,28.054200,91067,14,PHCC,Functional,
1158,Western Equatoria,Nzara,,CMMB NZARA,Cmmb Nzara,4.641550,28.248490,91068,96,Other,,
1170,Western Equatoria,Nzara,,DINGIAPAI PHCC,Dingiapai PHCC,4.598450,28.187250,91079,14,PHCC,Functional,
1162,Western Equatoria,Nzara,,KPASUA PHCU,Kpasua PHCU,4.743950,28.194810,91074,15,PHCU,Functional,
1159,Western Equatoria,Nzara,,NAKAPAZI GI PHCU,Nakapazi Gi PHCU,4.673000,28.183220,91070,15,PHCU,,
1156,Western Equatoria,Nzara,,NAMAIKU PHCC,Namaiku PHCC,4.686370,28.226820,91072,14,PHCC,Functional,
1154,Western Equatoria,Nzara,,NAMAMA PHCU,Namama PHCU,4.702830,27.987130,91181,15,PHCU,Functional,
1167,Western Equatoria,Nzara,,NANGIRIMO PHCU,Nangirimo PHCU,4.469800,28.206380,91178,15,PHCU,Functional,
1152,Western Equatoria,Nzara,,NDOROMO PHCU,Ndoromo PHCU,4.708120,27.897880,91066,15,PHCU,Functional,
1160,Western Equatoria,Nzara,,NGAMBIA PHCU,Ngambia PHCU,4.646810,28.258100,91076,15,PHCU,Functional,
1161,Western Equatoria,Nzara,,RINGASI PHCC,Ringasi PHCC,4.928560,28.178070,91075,14,PHCC,Functional,
1164,Western Equatoria,Nzara,,SAKURE PHCC,Sakure PHCC,4.396570,28.211610,91077,14,PHCC,Functional,
1240,Western Equatoria,Nzara,,SANGUA II PHCC,Sangua II PHCC,4.620340,28.212980,91078,14,PHCC,Functional,
1163,Western Equatoria,Nzara,,SANGUA PHCU ONE,Sangua PHCU One,4.629600,28.126070,91182,15,PHCU,Functional,
1157,Western Equatoria,Nzara,,YABONGO PHCU,Yabongo PHCU,4.679880,28.305380,91071,15,PHCU,Functional,
1155,Western Equatoria,Nzara,,YABUWA PHCU,Yabuwa PHCU,4.649250,28.268090,91073,15,PHCU,,
1145,Western Equatoria,Tambura,,140 BATALLION PHCU,140 Batallion PHCU,5.608400,27.475340,91045,15,PHCU,,
1136,Western Equatoria,Tambura,,BAMBU PHCU,Bambu PHCU,5.452480,27.346360,91040,15,PHCU,Functional,
1149,Western Equatoria,Tambura,,DUMA PHCU,Duma PHCU,5.820560,27.575310,91048,15,PHCU,Functional,
1143,Western Equatoria,Tambura,,MABAIKU PHCU,Mabaiku PHCU,5.565840,27.432620,91041,15,PHCU,Functional,
1166,Western Equatoria,Tambura,,MABIA PHCU,Mabia PHCU,5.562030,27.524160,91170,15,PHCU,Functional,
1165,Western Equatoria,Tambura,,MANGBURU PHCU,Mangburu PHCU,5.659990,27.504680,91168,15,PHCU,Functional,
1150,Western Equatoria,Tambura,,MATOTO PHCU,Matoto PHCU,5.626100,27.406210,91173,15,PHCU,Functional,
1151,Western Equatoria,Tambura,,MOPAI PHCC,Mopai PHCC,5.471140,27.646730,91169,14,PHCC,Functional,
1138,Western Equatoria,Tambura,,NGOKO PHCU,Ngoko PHCU,5.391050,27.299140,91038,15,PHCU,Functional,
1144,Western Equatoria,Tambura,,NZAMA PHCU,Nzama PHCU,5.619890,27.525090,91044,15,PHCU,Functional,
1137,Western Equatoria,Tambura,,SOURCE-YUBU HOSPITAL,Source-Yubu Hospital,5.388500,27.251230,91039,13,County Hospital,Functional,
1168,Western Equatoria,Tambura,,ST.BAKITA CLINIC,St.Bakita Clinic,5.610800,27.474240,91167,16,Private Clinic,,
1141,Western Equatoria,Tambura,,TAMBURA CIVIL H.,Tambura Civil H.,5.600330,27.474960,91043,13,County Hospital,,
1142,Western Equatoria,Tambura,,TAMBURA PHCC,Tambura PHCC,5.599780,27.475440,91042,14,PHCC,Functional,
1227,Western Equatoria,Yambio,,BAGUGA PHCU,Baguga PHCU,4.580940,28.326530,91031,15,PHCU,,
1211,Western Equatoria,Yambio,,BAKIWIRI PHCU,Bakiwiri PHCU,4.537781,28.333380,91172,15,PHCU,Functional,
1204,Western Equatoria,Yambio,,BANGASU PHCC,Bangasu PHCC,4.792230,28.776720,91003,14,PHCC,Functional,
1235,Western Equatoria,Yambio,,BAZUMBURU PHCU,Bazumburu PHCU,4.651930,28.544430,91037,15,PHCU,Functional,
1232,Western Equatoria,Yambio,,BAZUNGUA PHCC,Bazungua PHCC,4.591980,28.451730,91028,14,PHCC,Functional,
1210,Western Equatoria,Yambio,,BIRISI PHCU,Birisi PHCU,4.426340,28.403930,91171,15,PHCU,Functional,
1225,Western Equatoria,Yambio,,BODO PHCU,Bodo PHCU,4.633380,28.517030,91033,15,PHCU,Functional,
1205,Western Equatoria,Yambio,,BUREZIGBO PHCU,Burezigbo PHCU,4.818060,28.742080,91002,15,PHCU,Functional,
1220,Western Equatoria,Yambio,,DIATORO PHCU,Diatoro PHCU,4.545100,28.358060,91024,15,PHCU,Functional,
1229,Western Equatoria,Yambio,,IDEAS PHCU,Ideas PHCU,4.564188,28.425553,91013,15,PHCU,Functional,
1202,Western Equatoria,Yambio,,KASIA PHCU,Kasia PHCU,4.672210,28.626300,91005,15,PHCU,Functional,
1207,Western Equatoria,Yambio,,KIDI PHCU,Kidi PHCU,4.484940,28.445550,91010,15,PHCU,Functional,
1214,Western Equatoria,Yambio,,LI RANGU,Li Rangu,4.727690,28.359580,91016,14,PHCC,Functional,
1212,Western Equatoria,Yambio,,MABEMA PHCU,Mabema PHCU,4.863540,28.434740,91014,15,PHCU,,
1217,Western Equatoria,Yambio,,MADIANGERE PHCC,Madiangere PHCC,5.493670,28.390630,91019,14,PHCC,,
1199,Western Equatoria,Yambio,,MAGBUKA PHCU,Magbuka PHCU,4.748580,28.807040,91009,15,PHCU,Functional,
1206,Western Equatoria,Yambio,,MAKPANDU PHCC,Makpandu PHCC,4.751020,28.701500,91001,14,PHCC,Functional,
1231,Western Equatoria,Yambio,,MANGBONDO PHCU,Mangbondo PHCU,4.550380,28.400050,91029,15,PHCU,Functional,
1223,Western Equatoria,Yambio,,MASIYA PHCU,Masiya PHCU,4.577120,28.384400,91021,15,PHCU,Functional,
1208,Western Equatoria,Yambio,,MASUMBU PHCU,Masumbu PHCU,4.510500,28.385360,91011,15,PHCU,Functional,
1218,Western Equatoria,Yambio,,MAZINGBI PHCU,Mazingbi PHCU,5.311020,28.385070,91020,15,PHCU,Functional,
1213,Western Equatoria,Yambio,,MOMBOI PHCU,Momboi PHCU,4.753720,28.440500,91015,15,PHCU,Functional,
1241,Western Equatoria,Yambio,,N.H.I YAMBIO H CENTR,N.H.I Yambio H Centr,4.567687,28.395476,91176,14,PHCC,,
1234,Western Equatoria,Yambio,,NAANGBIMO PHCU,Naangbimo PHCU,4.532730,28.436820,91026,15,PHCU,Functional,
1230,Western Equatoria,Yambio,,NABAGU PHCU,Nabagu PHCU,4.578452,28.359426,91030,15,PHCU,Functional,
1228,Western Equatoria,Yambio,,NABIA-PAI PHCU,Nabia-Pai PHCU,4.386890,28.567490,91175,15,PHCU,Functional,
1233,Western Equatoria,Yambio,,NAKIRI PHCU,Nakiri PHCU,4.554280,28.432800,91027,15,PHCU,Functional,
1215,Western Equatoria,Yambio,,NAMBIA PHCU,Nambia PHCU,4.662120,28.365490,91017,15,PHCU,Functional,
1216,Western Equatoria,Yambio,,NANGUMC PHCU,Nangumc PHCU,5.192300,28.433040,91018,15,PHCU,,
1236,Western Equatoria,Yambio,,NAYURE PHCU,Nayure PHCU,4.564270,28.347610,91036,15,PHCU,Functional,
1237,Western Equatoria,Yambio,,NDAUURO PHCU,Ndauuro PHCU,4.653668,28.416621,91035,15,PHCU,Functional,
1309,Western Equatoria,Yambio,,NYAKA PHCU,Nyaka PHCU,4.537731,28.848410,91007,15,PHCU,,
1209,Western Equatoria,Yambio,,PHCC GANGURA,PHCC Gangura,4.446940,28.487190,91012,14,PHCC,,
1226,Western Equatoria,Yambio,,RIBODO PHCU,Ribodo PHCU,4.555460,28.455090,91032,15,PHCU,,
1201,Western Equatoria,Yambio,,RIMEIVZE PHCU,Rimeivze PHCU,4.702560,28.592190,91006,15,PHCU,,
1222,Western Equatoria,Yambio,,SAURA I,Saura I,4.623050,28.337910,91022,15,PHCU,Functional,
1219,Western Equatoria,Yambio,,SAURA TWAZI PHCU,Saura Twazi PHCU,4.637120,28.342040,91025,15,PHCU,,
1239,Western Equatoria,Yambio,,STATE HOSPITAL Y,State Hospital Y,4.566120,28.407540,91177,12,State Hospital,,
1203,Western Equatoria,Yambio,,SUE PHCU,Sue PHCU,4.772020,28.848770,91004,15,PHCU,Functional,
1224,Western Equatoria,Yambio,,TIINDOKA PHCU,Tiindoka PHCU,4.603550,28.386570,91034,15,PHCU,Functional,
1200,Western Equatoria,Yambio,,UKUO PHCU,Ukuo PHCU,4.601820,28.750720,91008,15,PHCU,Functional,
1221,Western Equatoria,Yambio,,YAMBIO PHCC,Yambio PHCC,4.566500,28.397500,91023,14,PHCC,Functional,
1238,Western Equatoria,Yambio,,YAMBIO PRISON PHCU,Yambio Prison PHCU,4.568370,28.394590,91174,15,PHCU,Functional,
1455,Jonglei,Akobo,Bilkey Payam,Dilule PHCU,Dilule PHCU,7.86044,33.00276,72149,15,PHCU,,
412,Central Equatoria,Juba,Juba Town,UNITY R.G.M SERVICES,Unity R.G.M Services,4.857440,31.589220,92226,16,Private Clinic,,
1463,Jonglei,Akobo,Bilkey Payam,Akobo Hosp,Akobo Hosp,7.79904,33.01015,72157,13,County Hospital,,
1459,Jonglei,Akobo,Nyandit Payam,Burmath PHCU,Burmath PHCU,7.64098,33.01555,72153,15,PHCU,,
98,Eastern Equatoria,Torit,Hiyala,TUHUBAK PHCU,Tuhubak PHCU,4.450030,33.015970,93136,15,PHCU,Non Functional,
55,Eastern Equatoria,Ikotos,Imotong,IMOTONG PHCC,Imotong PHCC,4.171020,32.841800,93089,14,PHCC,,
1462,Jonglei,Akobo,,Meer PHCU,Meer PHCU,7.73246,33.02224,72156,15,PHCU,,
788,Upper Nile,Renk,Geger (Gerger),DUGDUG PHCU,Dugdug PHCU,12.081780,33.023270,71015,15,PHCU,,
676,Upper Nile,Luakpiny/Nasir,Kiech Kuon,LONYLOK PHCU,Lonylok PHCU,8.992450,33.025900,71055,15,PHCU,,
672,Upper Nile,Luakpiny/Nasir,Roam,GAIIRENG PHCU,Gaiireng PHCU,8.898170,33.028080,71049,15,PHCU,,
785,Upper Nile,Renk,Geger (Gerger),JURBENAK PHCU,Jurbenak PHCU,12.038070,33.028990,71073,15,PHCU,,
1461,Jonglei,Akobo,Nyandit Payam,Kony PHCU,Kony PHCU,7.70029,33.03194,72155,15,PHCU,,
667,Upper Nile,Luakpiny/Nasir,,KIERWAN PHCU,Kierwan PHCU,8.782210,33.040390,71060,15,PHCU,,
1458,Jonglei,Akobo,Alali Payam,Old Akobo PHCU,Old Akobo PHCU,7.79122,33.04378,72152,15,PHCU,,
669,Upper Nile,Luakpiny/Nasir,,MALEK PHCU,Malek PHCU,8.816280,33.047260,71059,15,PHCU,,
651,Upper Nile,Luakpiny/Nasir,Nasir,MSF - HOLLAND HOSP.,Msf - Holland Hosp.,8.611040,33.058020,71053,96,Other,,
70,Eastern Equatoria,Ikotos,Lomohidang North,ISOKE HOSPITAL,Isoke Hospital,4.240250,33.075530,93093,17,Specialized Hospital,,
1460,Jonglei,Akobo,Nyandit Payam,Chiban PHCU,Chiban PHCU,7.64542,33.06655,72154,15,PHCU,,
89,Eastern Equatoria,Ikotos,Lomohidang North,LOBIRA,Lobira,4.396380,33.060690,93083,15,PHCU,Functional,
652,Upper Nile,Luakpiny/Nasir,Nasir,NASSIR COUNTY HOSPT,Nassir County Hospt,8.617000,33.074410,71052,13,County Hospital,,
39,Eastern Equatoria,Ikotos,Imotong,LOBOYA PHCU,Loboya PHCU,4.054590,32.973950,93082,15,PHCU,,
57,Eastern Equatoria,Ikotos,Lomohidang South,LODWARA PHCU,Lodwara PHCU,4.194230,33.206130,93101,15,PHCU,Non Functional,
1377,Jonglei,Pibor,,Ottalo PHCU,Ottalo PHCU,7.01514,33.08562,72069,15,PHCU,,
663,Upper Nile,Luakpiny/Nasir,,HOMKOT PHCU,Homkot PHCU,8.715130,33.085960,71056,15,PHCU,,
1373,Jonglei,Pibor,,Ajwarra PHCU,Ajwarra PHCU,7.01429,33.09667,72065,15,PHCU,,
1378,Jonglei,Pibor,Burator,Daktek PHCU,Daktek PHCU,7.04434,33.09755,72070,15,PHCU,,
68,Eastern Equatoria,Ikotos,Lomohidang North,LOFI PHCU,Lofi PHCU,4.228060,32.985180,93081,15,PHCU,Non Functional,
789,Upper Nile,Renk,Geger (Gerger),OMDULUIS PHCU,Omduluis PHCU,12.141000,33.105420,71014,15,PHCU,,
656,Upper Nile,Luakpiny/Nasir,,KOAT PHCU,Koat PHCU,8.651960,33.108760,71033,15,PHCU,,
641,Upper Nile,Luakpiny/Nasir,Jikmir,MANDENG PHCU,Mandeng PHCU,8.332250,33.119900,71070,15,PHCU,,
413,Central Equatoria,Juba,Juba Town,USTRATUNA PHCC,Ustratuna PHCC,4.846780,31.605150,92263,14,PHCC,Functional,
415,Central Equatoria,Juba,Juba Town,WALANG WALANG PHCU,Walang Walang PHCU,6.798210,33.132640,92259,15,PHCU,Functional,
417,Central Equatoria,Juba,Wonduruba,WONDURUBA PHCC,Wonduruba PHCC,4.545720,33.003300,92234,14,PHCC,Functional,
400,Central Equatoria,Yei,Yei Town,ST. BAKHITA PHCC,St. Bakhita PHCC,6.798210,33.132640,92004,14,PHCC,Functional,
46,Eastern Equatoria,Ikotos,Imotong,LOMWOO PHCU,Lomwoo PHCU,4.084400,32.935390,93087,15,PHCU,Functional,
15,Eastern Equatoria,Ikotos,Losite,LONGARIO,Longario,3.830840,33.566250,93098,15,PHCU,,
13,Eastern Equatoria,Ikotos,Losite,LOPUS PHCU,Lopus PHCU,3.804080,33.434350,93094,15,PHCU,Functional,
41,Eastern Equatoria,Ikotos,Ikotos,LORIMA PHCC,Lorima PHCC,4.064730,33.157000,93091,14,PHCC,Non Functional,
643,Upper Nile,Luakpiny/Nasir,Jikmir,JIKMIR PHCC,Jikmir PHCC,8.453300,33.189117,71071,14,PHCC,,
648,Upper Nile,Luakpiny/Nasir,Roam,LUEK PRIMARY HEALTH,Luek Primary Health,8.581030,33.189420,71069,15,PHCU,,
32,Eastern Equatoria,Ikotos,Losite,LOTOME PHCU,Lotome PHCU,3.974910,33.449990,93095,15,PHCU,Functional,
73,Eastern Equatoria,Ikotos,Lomohidang North,MANGALLA PHCU,Mangalla PHCU,4.260940,33.187830,93086,15,PHCU,Functional,
48,Eastern Equatoria,Ikotos,Ikotos,MOMORIA PHCU,Momoria PHCU,4.112330,33.085260,93085,15,PHCU,Functional,
749,Upper Nile,Maban,,JAMAM PHCU,Jamam PHCU,10.143910,33.228260,71147,15,PHCU,,
108,Eastern Equatoria,Budi,Loriyok,CAMP 15 MILIT. PHCU,Camp 15 Milit. PHCU,4.506240,33.313150,93028,15,PHCU,,
24,Eastern Equatoria,Ikotos,Losite,NAKORINGOLE PHCU,Nakoringole PHCU,3.862980,33.476280,93080,15,PHCU,Functional,
136,Eastern Equatoria,Budi,Kimotong,CHAWA PHCU,Chawa PHCU,4.733380,33.244010,93027,15,PHCU,Functional,
644,Upper Nile,Luakpiny/Nasir,Maker,MAKER  PHCU,Maker  PHCU,8.472660,33.310970,71072,15,PHCU,,
86,Eastern Equatoria,Budi,Loriyok,FRAK-SIKA PHCU,Frak-Sika PHCU,4.382660,33.348680,93034,15,PHCU,Functional,
665,Upper Nile,Luakpiny/Nasir,Mading,MADING PHCC,Mading PHCC,8.772650,33.321740,71051,14,PHCC,,
99,Eastern Equatoria,Budi,Nauro,HALIBA,Haliba,4.451610,33.444800,93071,15,PHCU,Functional,
63,Eastern Equatoria,Budi,Nagishot,KADUMAKUC PHCU,Kadumakuc PHCU,4.216640,33.599910,93035,15,PHCU,Functional,
681,Upper Nile,Longochuk,,BELWANG PHCU,Belwang PHCU,9.092590,33.387320,71085,15,PHCU,,
660,Upper Nile,Luakpiny/Nasir,Maker,GURNYANG PHCU,Gurnyang PHCU,8.696740,33.394860,71042,15,PHCU,,
679,Upper Nile,Longochuk,,JONGOK PHCU,Jongok PHCU,9.054670,33.427500,71084,15,PHCU,,
79,Eastern Equatoria,Budi,Loudo,KAPETA PHCU,Kapeta PHCU,4.309200,33.642480,93025,15,PHCU,Functional,
33,Eastern Equatoria,Ikotos,Imotong,NGALUMA PHCU,Ngaluma PHCU,3.979880,33.066970,93088,15,PHCU,Functional,
646,Upper Nile,Maiwut,Jekow,TURU PHCU,Turu PHCU,8.490100,33.441400,71096,15,PHCU,,
66,Eastern Equatoria,Budi,Komori,KATHAC PHCU,Kathac PHCU,4.227970,33.486060,93029,15,PHCU,Functional,
53,Eastern Equatoria,Ikotos,Lomohidang South,OKOROHORE PHCC,Okorohore PHCC,4.157180,33.169640,93097,15,PHCU,Functional,
152,Eastern Equatoria,Kapoeta North,Lomeyen,LOMEYAN NORTH,Lomeyan North,4.907650,33.451010,93113,15,PHCU,Functional,
747,Upper Nile,Maban,Jinkuata,GENKWATA PHCU,Genkwata PHCU,10.113910,33.460420,71149,15,PHCU,,
47,Eastern Equatoria,Ikotos,Lomohidang South,RAMULA BOMA PHCU,Ramula Boma PHCU,4.105560,33.256390,93100,15,PHCU,Non Functional,
149,Eastern Equatoria,Kapoeta North,Mosingo,LOKWAMOR PHCU,Lokwamor PHCU,4.861580,33.482220,93110,15,PHCU,,
51,Eastern Equatoria,Budi,Lotukei,KIKILAI PHCU,Kikilai PHCU,4.133180,33.602200,93068,15,PHCU,Functional,
130,Eastern Equatoria,Budi,Kimotong,KIMOTONG PHCC,Kimotong PHCC,4.684900,33.263970,93026,14,PHCC,,
69,Eastern Equatoria,Budi,Komori,KOMIRI PHCC,Komiri PHCC,4.232370,33.492840,93031,14,PHCC,,
677,Upper Nile,Longochuk,,LONGUCHUK HOSPITAL,Longuchuk Hospital,9.026550,33.498740,71087,13,County Hospital,,
151,Eastern Equatoria,Kapoeta North,Najie,RIWOTO PHCC,Riwoto PHCC,4.882170,33.505840,93107,14,PHCC,Functional,
166,Eastern Equatoria,Kapoeta North,Karukomuge,WOKOBU PHCU,Wokobu PHCU,5.139700,33.515970,93112,15,PHCU,,
134,Eastern Equatoria,Kapoeta South,Machi One,NORMECA STATE HOSP,Normeca State Hosp,4.725000,33.531520,93106,12,State Hospital,,
719,Upper Nile,Maban,Banashowa (Banashewa),BENESHAWA PHCU,Beneshawa PHCU,9.663480,33.532750,71150,15,PHCU,,
82,Eastern Equatoria,Budi,Nauro,LAURO PHCC,Lauro PHCC,4.339870,33.674590,93024,14,PHCC,Non Functional,
76,Eastern Equatoria,Budi,Komori,LOJIONG PHCU,Lojiong PHCU,4.286730,33.431990,93032,15,PHCU,Functional,
161,Eastern Equatoria,Kapoeta North,Karukomuge,"NAKWA PHCU, Khor Komuge","Nakwa PHCU, Khor Komuge",5.067150,33.553460,93108,15,PHCU,Functional,
156,Eastern Equatoria,Kapoeta North,Chumakori,CHUMATORI PHCU,Chumatori PHCU,4.913330,33.558490,93111,15,PHCU,Functional,
148,Eastern Equatoria,Kapoeta North,Paringa,PARINGA PHCU,Paringa PHCU,4.847840,33.563270,93109,15,PHCU,Functional,
16,Eastern Equatoria,Ikotos,Losite,TSERETENYA PHCU,Tseretenya PHCU,3.831680,33.220040,93078,15,PHCU,Functional,
65,Eastern Equatoria,Budi,Komori,LOKIDELE PHCU,Lokidele PHCU,4.224550,33.552910,93030,15,PHCU,Non Functional,
674,Upper Nile,Longochuk,Malual,MALAW PHCU,Malaw PHCU,8.935400,33.571540,71117,15,PHCU,,
56,Eastern Equatoria,Ikotos,Ikotos,UMMA PHCU,Umma PHCU,4.174300,33.019160,93079,15,PHCU,,
139,Eastern Equatoria,Kapoeta South,Kapoeta Town,KAPOETA CIVIL Hospital,Kapoeta Civil Hospital,4.772390,33.591560,93102,13,County Hospital,Functional,
54,Eastern Equatoria,Budi,Lotukei,LOREMA PHCC,Lorema PHCC,4.160630,33.660690,93069,14,PHCC,,
137,Eastern Equatoria,Kapoeta South,Kapoeta Town,KAPOETA Misson Hospital DOT,Kapoeta Misson Hospital DOT,4.743880,33.601210,93104,96,Other,Functional,
110,Eastern Equatoria,Budi,Loriyok,LORIYOK PHCU,Loriyok PHCU,4.519210,33.323090,93036,15,PHCU,Functional,
133,Eastern Equatoria,Kapoeta South,Longeleya,NALINGARO PHCU,Nalingaro PHCU,4.721350,33.621110,93105,15,PHCU,,
74,Eastern Equatoria,Budi,Nagishot,NAGISHOT PHCU,Nagishot PHCU,4.267340,33.566330,93037,14,PHCC,,
731,Upper Nile,Maban,Banashowa (Banashewa),LIANG PHCU,Liang PHCU,9.883170,33.630210,71103,15,PHCU,,
85,Eastern Equatoria,Budi,Nauro,NAPEP PHCU,Napep PHCU,4.352370,33.549160,93072,15,PHCU,Functional,
735,Upper Nile,Maban,Khor El Amer (Khor El Amar),NEW GUFFA PHCU,New Guffa PHCU,9.924000,33.653240,71101,15,PHCU,,
736,Upper Nile,Maban,Banashowa (Banashewa),DANGAJI PHCU,Dangaji PHCU,9.927190,33.654820,71100,15,PHCU,,
123,Eastern Equatoria,Kapoeta South,Pwata,NAMOROYANG PHCU,Namoroyang PHCU,4.625940,33.656830,93103,15,PHCU,,
173,Eastern Equatoria,Budi,Lotukei,New Cush PHCU,New Cush PHCU,4.091650,33.866800,93192,15,PHCU,,
72,Eastern Equatoria,Budi,Loudo,NGATUBA PHCU,Ngatuba PHCU,4.256730,33.699160,93033,15,PHCU,Functional,
688,Upper Nile,Longochuk,Wudier,UGIER PHCU,Ugier PHCU,9.313010,33.684130,71088,15,PHCU,,
170,Eastern Equatoria,Kapoeta East,Kauto,GOOD SHEPHARD PHCC,Good Shephard PHCC,5.498670,34.772160,93016,14,PHCC,,
67,Eastern Equatoria,Budi,Komori,NPA CHUKUDUM HOSPITA,Npa Chukudum Hospita,4.227970,33.486060,93070,13,County Hospital,,
737,Upper Nile,Maban,Boung,BOUNY PHCC,Bouny PHCC,9.958670,33.711720,71146,14,PHCC,,
738,Upper Nile,Maban,Boung,BOMY PHCU,Bomy PHCU,9.960030,33.727560,71105,15,PHCU,,
661,Upper Nile,Maiwut,Kigila,ULENG PHCC,Uleng PHCC,8.711540,33.727950,71091,14,PHCC,,
673,Upper Nile,Longochuk,Pamach,PAMAC PHCU,Pamac PHCU,8.921060,33.743100,71086,15,PHCU,,
654,Upper Nile,Maiwut,Kigila,MALEK PHCU,Malek PHCU,8.648480,33.745450,71090,15,PHCU,,
662,Upper Nile,Maiwut,Kigila,ULENG ONE/LUAJAK PHC,Uleng One/Luajak Phc,8.714730,33.748830,71093,15,PHCU,,
424,Central Equatoria,Terekeka,,YEBISAK PHCU,Yebisak PHCU,5.578090,31.730930,92149,15,PHCU,,
685,Upper Nile,Longochuk,,CHUTBORA PHCC,Chutbora PHCC,9.205980,33.753150,71116,14,PHCC,,
741,Upper Nile,Maban,Khor El Amer (Khor El Amar),DOROW PHCC,Dorow PHCC,9.976870,33.754920,71102,14,PHCC,,
44,Eastern Equatoria,Budi,Lotukei,PIOBOKOI PHCU,Piobokoi PHCU,4.084980,33.758890,93067,15,PHCU,Functional,
655,Upper Nile,Malakal,Southern Malakal,JOTUME PHCU,Jotume PHCU,8.650950,33.763560,71134,15,PHCU,,
642,Upper Nile,Maiwut,Jekow,JOKON PHCU,Jokon PHCU,8.370060,33.766640,71099,15,PHCU,,
168,Eastern Equatoria,Kapoeta East,Jie,JIE PHCU,Jie PHCU,5.390930,33.691160,93008,15,PHCU,,
129,Eastern Equatoria,Kapoeta East,Narus,KALACHA PHCU,Kalacha PHCU,4.682200,34.106500,93004,15,PHCU,Functional,
740,Upper Nile,Maban,,GESM ALLAH PHCU,Gesm Allah PHCU,9.965680,33.807680,71106,15,PHCU,,
140,Eastern Equatoria,Kapoeta East,Katodori,KALUPE PHCU,Kalupe PHCU,4.776300,33.804370,93012,15,PHCU,Functional,
746,Upper Nile,Maban,Khor El Amer (Khor El Amar),NILLA PHCU,Nilla PHCU,10.107510,33.825230,71148,15,PHCU,,
647,Upper Nile,Maiwut,Jekow,NYATOK PHCU,Nyatok PHCU,8.544460,33.826770,71097,15,PHCU,,
640,Upper Nile,Maiwut,Jotoma (Jotome),WUNKIR PHCU,Wunkir PHCU,6.643420,33.844080,71094,15,PHCU,,
84,Eastern Equatoria,Budi,Nauro,TULUGI PHCU,Tulugi PHCU,4.350170,33.625210,93073,15,PHCU,Functional,
171,Eastern Equatoria,Kapoeta East,Kauto,KURON PHC,Kuron Phc,5.704880,34.565040,93010,14,PHCC,Functional,
751,Upper Nile,Maban,Khor El Amer (Khor El Amar),KHOR TUMBAK PHCU,Khor Tumbak PHCU,10.179100,33.899730,71104,15,PHCU,,
650,Upper Nile,Maiwut,Maiwut,MAIWUT PHCC,Maiwut PHCC,8.606220,33.924060,71089,14,PHCC,,
118,Eastern Equatoria,Kapoeta East,Narus,LOOLIM PHCU,Loolim PHCU,4.587880,34.044960,93007,15,PHCU,Non Functional,
684,Upper Nile,Longochuk,Guelguk,DAJOK PHCC,Dajok PHCC,9.205410,33.958240,71114,14,PHCC,,
1417,Jonglei,Pibor,Marwo,Labarab PHCU,Labarab PHCU,6.66112,33.96970,72111,15,PHCU,,
1414,Jonglei,Pibor,,Kasingor PHCU,Kasingor PHCU,5.77743,33.97323,72108,15,PHCU,,
167,Eastern Equatoria,Kapoeta East,Kauto / Lotimor,LOTIMOR,Lotimor,5.310038,35.074905,93011,15,PHCU,Functional,
1374,Jonglei,Pochalla,Ajwara,Alari PHCU,Alari PHCU,7.01719,34.00173,72066,15,PHCU,,
1379,Jonglei,Pochalla,Burator,Nyium PHCU,Nyium PHCU,7.03561,34.00355,72071,15,PHCU,,
1375,Jonglei,Pochalla,Pochalla,Obudi PHCU,Obudi PHCU,7.08008,34.01674,72067,15,PHCU,,
645,Upper Nile,Maiwut,Pagak,PAGAT PHCC,Pagat PHCC,8.473340,34.020720,71098,14,PHCC,,
659,Upper Nile,Maiwut,Kigila,KIGGILE PHCU,Kiggile PHCU,8.681330,34.026041,71095,15,PHCU,,
1381,Jonglei,Pibor,Akiela,Okadi PHCU,Okadi PHCU,6.09749,34.02835,72073,15,PHCU,,
127,Eastern Equatoria,Kapoeta East,Katodori,LOWOYAKALI PHCU,Lowoyakali PHCU,4.678190,33.815870,93001,15,PHCU,Functional,
671,Upper Nile,Maiwut,Kigila,WUGISA PHCU,Wugisa PHCU,8.895920,34.084210,71092,15,PHCU,,
1380,Jonglei,Pochalla,Pochalla,Pochalla PHCC,Pochalla PHCC,7.17761,34.08731,72072,14,PHCC,,
1376,Jonglei,Pochalla,,TB Unit,Tb Unit,7.17790,34.08835,72068,15,PHCU,,
165,Eastern Equatoria,Kapoeta East,Mogos,MOGOSA PHCC,Mogosa PHCC,5.124770,33.790600,93006,14,PHCC,Functional,
1372,Jonglei,Pochalla,,Ojansbai PHCU,Ojansbai PHCU,7.15463,34.13464,72064,15,PHCU,,
91,Eastern Equatoria,Kapoeta East,Narus,NADAPAL PHCU,Nadapal PHCU,4.407090,34.286820,93014,15,PHCU,,
146,Eastern Equatoria,Kapoeta East,Narus,NALIEL PHCU,Naliel PHCU,4.823300,34.220060,93003,15,PHCU,Functional,
169,Eastern Equatoria,Kapoeta East,Kauto,NAMORUPUS PHCU,Namorupus PHCU,5.470830,34.647010,93005,15,PHCU,Functional,
124,Eastern Equatoria,Kapoeta East,Katodori,NAPOTPOT (Loburi) PHCU,Napotpot (Loburi) PHCU,4.626650,33.899110,93002,15,PHCU,Functional,
1411,Jonglei,Pibor,,Boma Hosp,Boma Hosp,6.17872,34.38825,72105,13,County Hospital,,
1421,Jonglei,Pibor,Boma,Nyat PHCU,Nyat PHCU,6.27261,34.39101,72115,15,PHCU,,
1416,Jonglei,Pibor,,Oang PHCC,Oang PHCC,6.16799,34.41310,72110,14,PHCC,,
1418,Jonglei,Pibor,,Nyalo Ngoro PHCU,Nyalo Ngoro PHCU,6.45665,34.43867,72112,15,PHCU,,
1412,Jonglei,Pibor,,Upper Boma PHCU,Upper Boma PHCU,6.17691,34.44297,72106,15,PHCU,,
107,Eastern Equatoria,Kapoeta East,Narus,NARUS PHCC DOT,Narus PHCC Dot,4.504780,34.170140,93017,14,PHCC,Functional,
1420,Jonglei,Pibor,Boma,Churi PHCC,Churi PHCC,6.56997,34.62081,72114,14,PHCC,,
58,Eastern Equatoria,Kapoeta East,Natinga,NATINGA PHCU,Natinga PHCU,4.196080,33.945350,93013,15,PHCU,Non Functional,
1415,Jonglei,Pibor,,Mian PHCU,Mian PHCU,6.24370,34.68719,72109,15,PHCU,,
1419,Jonglei,Pibor,,Raad PHCU,Raad PHCU,6.60114,34.76448,72113,15,PHCU,,
71,Eastern Equatoria,Kapoeta East,Natinga,NEW SITE WODRAN PHCC,New Site Wodran PHCC,4.250420,34.001540,93015,14,PHCC,Functional,
106,Eastern Equatoria,Kapoeta East,Narus,SMC/NARUS PHCC,Smc/Narus PHCC,4.503380,34.161790,93009,14,PHCC,Functional,
1046,Warrap,Gogrial West,,MAYOM TOTIN PHCU,Mayom Totin PHCU,8.682773,287.273060,81051,15,PHCU,Functional,
,,,,,,,,,,,,
